{"type":"FeatureCollection","features":[{"type":"Feature","properties":{"name_en":"Palestine","name_ar":"فلسطين","kind":"country","type":"Disputed","visible_km2":97.9},"geometry":{"type":"Point","coordinates":[34.90295,29.54125]}},{"type":"Feature","properties":{"name_en":"Saudi Arabia","name_ar":"السعودية","kind":"country","type":"Sovereign country","visible_km2":194.6},"geometry":{"type":"Point","coordinates":[35.04933,29.29989]}},{"type":"Feature","properties":{"name_en":"Jordan","name_ar":"الأردن","kind":"country","type":"Sovereign country","visible_km2":508.5},"geometry":{"type":"Point","coordinates":[35.06127,29.46393]}},{"type":"Feature","properties":{"name_en":"Egypt","name_ar":"مصر","kind":"country","type":"Sovereign country","visible_km2":431.5},"geometry":{"type":"Point","coordinates":[34.76651,29.42365]}},{"type":"Feature","properties":{"name_en":"Aqaba","name_ar":"العقبة","kind":"city","type":null,"visible_km2":null},"geometry":{"type":"Point","coordinates":[35.0064,29.5321]}},{"type":"Feature","properties":{"name_en":"Eilat","name_ar":"إيلات","kind":"city","type":null,"visible_km2":null},"geometry":{"type":"Point","coordinates":[34.9482,29.5577]}}]}