{"type":"FeatureCollection","features":[{"type":"Feature","properties":{"name_en":"Palestine","name_ar":"فلسطين","type":"Disputed"},"geometry":{"type":"MultiLineString","coordinates":[[[35.39157,31.02395],[35.38516,30.99465],[35.38526,30.96328],[35.3741,30.94514],[35.34711,30.92271],[35.33493,30.91258],[35.32222,30.88995],[35.31953,30.86732],[35.32005,30.84494],[35.31663,30.82282],[35.31085,30.81331],[35.2939,30.80019],[35.28615,30.79233],[35.27953,30.78024],[35.27612,30.76898],[35.27157,30.74371],[35.26388,30.71997],[35.26382,30.71978],[35.20532,30.6171],[35.16212,30.49468],[35.15737,30.47085],[35.14,30.43019],[35.14,30.40616],[35.14497,30.39587],[35.15933,30.37561],[35.16212,30.3614],[35.15995,30.3475],[35.15447,30.33675],[35.14776,30.32647],[35.14176,30.31396],[35.13236,30.26187],[35.12523,30.24467],[35.12481,30.21609],[35.14528,30.1549],[35.14528,30.12338],[35.12905,30.08974],[35.08626,30.03403],[35.07469,29.9946],[35.07407,29.98256],[35.07034,29.97373],[35.06538,29.96598],[35.06146,29.95735],[35.05412,29.92339],[35.05319,29.86262],[35.04895,29.84231],[35.00255,29.7331],[34.9951,29.70816],[34.98983,29.65196],[34.98032,29.627],[34.96699,29.60812],[34.95986,29.58621],[34.95558,29.55899],[34.95135,29.54564],[34.945,29.53685],[34.92774,29.51801],[34.91977,29.50739],[34.91578,29.50023],[34.91407,29.4938],[34.91082,29.48994],[34.90301,29.48969],[34.89373,29.49055],[34.88673,29.49006],[34.87811,29.5043],[34.85527,29.54572],[34.84824,29.56964],[34.8501,29.63876],[34.82436,29.7417],[34.78519,29.8357],[34.74137,29.94024],[34.73507,29.99455],[34.73558,30.0007],[34.73496,30.0067],[34.73321,30.01259],[34.73042,30.01817],[34.69166,30.11455],[34.63265,30.26203],[34.59947,30.34451],[34.58841,30.35882],[34.53384,30.40021],[34.52692,30.40962],[34.52474,30.42114],[34.5265,30.43871],[34.53601,30.46858],[34.53622,30.48217],[34.5263,30.49457],[34.51038,30.51333],[34.50438,30.53033],[34.50221,30.57168],[34.48041,30.65121],[34.41881,30.7913],[34.36786,30.90742],[34.32951,30.99449],[34.3095,31.048]],[[35.40571,31.048],[35.39157,31.02395]]]}},{"type":"Feature","properties":{"name_en":"Saudi Arabia","name_ar":"السعودية","type":"Sovereign country"},"geometry":{"type":"MultiLineString","coordinates":[[[34.74106,28.41059],[34.76059,28.43659],[34.76791,28.46646],[34.77508,28.48334],[34.80377,28.52713],[34.79617,28.57219],[34.79343,28.61943],[34.77847,28.6645],[34.79689,28.72582],[34.80983,28.75796],[34.82537,28.78437],[34.82537,28.79059],[34.8191,28.79059],[34.83611,28.81647],[34.83855,28.82856],[34.83277,28.83959],[34.83277,28.84585],[34.84409,28.87641],[34.84197,28.88963],[34.82537,28.89423],[34.82537,28.90038],[34.8401,28.92243],[34.85629,28.96381],[34.86378,29.00625],[34.85255,29.0314],[34.85255,29.04507],[34.86402,29.06367],[34.87355,29.08527],[34.89357,29.17475],[34.8982,29.18773],[34.90935,29.21015],[34.90789,29.21638],[34.90935,29.23066],[34.91896,29.23908],[34.94207,29.25047],[34.93523,29.26728],[34.93263,29.28925],[34.93637,29.30386],[34.94809,29.29829],[34.94923,29.3015],[34.94939,29.30427],[34.95069,29.30573],[34.95558,29.30512],[34.94801,29.31997],[34.94532,29.3369],[34.94939,29.35169],[35.06032,29.3347],[35.17907,29.31666],[35.33462,29.29315],[35.47363,29.27206],[35.62204,29.24969],[35.74025,29.23173],[35.79723,29.22308],[35.91246,29.20569],[36.01644,29.18995],[36.04383,29.19088],[36.06946,29.20003],[36.17798,29.27837],[36.28371,29.35485],[36.39998,29.4389],[36.47708,29.49461],[36.54126,29.58941],[36.60358,29.68147],[36.64958,29.7494],[36.688,29.80621]],[[34.73913,28.402],[34.74106,28.41059]]]}},{"type":"Feature","properties":{"name_en":"Jordan","name_ar":"الأردن","type":"Sovereign country"},"geometry":{"type":"MultiLineString","coordinates":[[[36.688,29.80621],[36.64958,29.7494],[36.60358,29.68147],[36.54126,29.58941],[36.47708,29.49461],[36.39998,29.4389],[36.28371,29.35485],[36.17798,29.27837],[36.06946,29.20003],[36.04383,29.19088],[36.01644,29.18995],[35.91246,29.20569],[35.79723,29.22308],[35.74025,29.23173],[35.62204,29.24969],[35.47363,29.27206],[35.33462,29.29315],[35.17907,29.31666],[35.06032,29.3347],[34.94939,29.35169],[34.96241,29.35977],[34.969,29.45083],[34.97608,29.47704],[34.99781,29.51797],[34.99684,29.53388],[34.97608,29.55215],[34.96241,29.55215],[34.9616,29.55541],[34.9616,29.55809],[34.96022,29.55952],[34.95558,29.55899],[34.95986,29.58621],[34.96699,29.60812],[34.98032,29.627],[34.98983,29.65196],[34.9951,29.70816],[35.00255,29.7331],[35.04895,29.84231],[35.05319,29.86262],[35.05412,29.92339],[35.06146,29.95735],[35.06538,29.96598],[35.07034,29.97373],[35.07407,29.98256],[35.07469,29.9946],[35.08626,30.03403],[35.12905,30.08974],[35.14528,30.12338],[35.14528,30.1549],[35.12481,30.21609],[35.12523,30.24467],[35.13236,30.26187],[35.14176,30.31396],[35.14776,30.32647],[35.15447,30.33675],[35.15995,30.3475],[35.16212,30.3614],[35.15933,30.37561],[35.14497,30.39587],[35.14,30.40616],[35.14,30.43019],[35.15737,30.47085],[35.16212,30.49468],[35.20532,30.6171],[35.26382,30.71978],[35.26388,30.71997],[35.27157,30.74371],[35.27612,30.76898],[35.27953,30.78024],[35.28615,30.79233],[35.2939,30.80019],[35.31085,30.81331],[35.31663,30.82282],[35.32005,30.84494],[35.31953,30.86732],[35.32222,30.88995],[35.33493,30.91258],[35.34711,30.92271],[35.3741,30.94514],[35.38526,30.96328],[35.38516,30.99465],[35.39157,31.02395],[35.40571,31.048]]]}},{"type":"Feature","properties":{"name_en":"Egypt","name_ar":"مصر","type":"Sovereign country"},"geometry":{"type":"MultiLineString","coordinates":[[[34.32951,30.99449],[34.36786,30.90742],[34.41881,30.7913],[34.48041,30.65121],[34.50221,30.57168],[34.50438,30.53033],[34.51038,30.51333],[34.5263,30.49457],[34.53622,30.48217],[34.53601,30.46858],[34.5265,30.43871],[34.52474,30.42114],[34.52692,30.40962],[34.53384,30.40021],[34.58841,30.35882],[34.59947,30.34451],[34.63265,30.26203],[34.69166,30.11455],[34.73042,30.01817],[34.73321,30.01259],[34.73496,30.0067],[34.73558,30.0007],[34.73507,29.99455],[34.74137,29.94024],[34.78519,29.8357],[34.82436,29.7417],[34.8501,29.63876],[34.84824,29.56964],[34.85527,29.54572],[34.87811,29.5043],[34.88673,29.49006],[34.87534,29.48481],[34.86687,29.47919],[34.85971,29.47215],[34.85255,29.4628],[34.84702,29.45112],[34.84376,29.44082],[34.83815,29.43293],[34.82537,29.42862],[34.82887,29.42772],[34.83172,29.42764],[34.83326,29.42617],[34.83277,29.42113],[34.82423,29.41739],[34.81764,29.41218],[34.8152,29.4064],[34.8191,29.4007],[34.80958,29.39912],[34.80519,29.39643],[34.80592,29.39256],[34.81227,29.38764],[34.80063,29.37788],[34.7776,29.3461],[34.77272,29.34186],[34.76197,29.33686],[34.75701,29.33308],[34.75294,29.32709],[34.74977,29.32119],[34.74497,29.31582],[34.73658,29.31127],[34.73658,29.30512],[34.74529,29.29133],[34.74195,29.277],[34.73414,29.26313],[34.72901,29.25047],[34.72901,29.19892],[34.72364,29.18667],[34.71209,29.17744],[34.70037,29.17036],[34.695,29.1645],[34.69386,29.15046],[34.69011,29.13447],[34.68385,29.11905],[34.67457,29.10651],[34.67701,29.09492],[34.67457,29.03441],[34.67661,29.02481],[34.68653,29.01244],[34.68873,29.00039],[34.68572,28.98867],[34.67823,28.98314],[34.66912,28.98017],[34.64674,28.96743],[34.64324,28.96206],[34.64031,28.9488],[34.64096,28.94269],[34.64601,28.92235],[34.64715,28.86286],[34.62045,28.84585],[34.62045,28.83959],[34.62338,28.83055],[34.62631,28.81696],[34.62631,28.80239],[34.62045,28.79059],[34.62403,28.78705],[34.62729,28.78254],[34.63347,28.7707],[34.62436,28.76533],[34.62281,28.75983],[34.62501,28.75373],[34.62672,28.74649],[34.62452,28.73599],[34.61988,28.72919],[34.61524,28.72419],[34.61305,28.71918],[34.60768,28.70148],[34.58424,28.67235],[34.57032,28.62617],[34.53012,28.5727],[34.51734,28.54413],[34.51637,28.54149],[34.51645,28.53897],[34.51531,28.53742],[34.51059,28.53799],[34.52361,28.50731],[34.51157,28.48778],[34.48878,28.47272],[34.469,28.45539],[34.47193,28.45327],[34.47283,28.45283],[34.47527,28.44794],[34.46168,28.44204],[34.45427,28.4289],[34.44856,28.402]],[[34.3095,31.048],[34.32951,30.99449]]]}}]}