{"type":"FeatureCollection","features":[{"type":"Feature","properties":{"catchment_id":"AQ-C01","outlet_id":"AQ-O01","area_km2":4453.08,"provisional":false,"sand_pct":25.5,"clay_pct":33.7,"silt_pct":40.7,"relief_m":1841.1,"slope_mean_deg":10.8,"drainage_density_km_km2":0.8},"geometry":{"type":"Polygon","coordinates":[[[35.45507,30.03209],[35.43538,30.02786],[35.4319,30.02548],[35.42787,30.0261],[35.42869,30.02148],[35.41914,30.01246],[35.41517,30.00252],[35.41015,30.00072],[35.40945,29.99748],[35.40535,29.99512],[35.39289,29.994],[35.37628,29.98834],[35.37012,29.97763],[35.3635,29.97396],[35.3586,29.96404],[35.3514,29.96146],[35.34712,29.96478],[35.33969,29.96573],[35.33849,29.96791],[35.3334,29.96286],[35.32969,29.96374],[35.33169,29.95612],[35.32601,29.95244],[35.3281,29.94861],[35.32491,29.94515],[35.32025,29.94523],[35.31976,29.95092],[35.31259,29.94997],[35.31238,29.9543],[35.31052,29.9546],[35.30919,29.95084],[35.30446,29.94767],[35.30138,29.94881],[35.30034,29.9445],[35.29722,29.94374],[35.29526,29.93972],[35.28673,29.93364],[35.28409,29.92692],[35.28393,29.91961],[35.28265,29.91828],[35.27926,29.91915],[35.27974,29.91319],[35.27507,29.91246],[35.27276,29.90682],[35.26905,29.90742],[35.26521,29.90262],[35.25961,29.90217],[35.25581,29.89899],[35.25189,29.90393],[35.2494,29.9037],[35.24896,29.89802],[35.24426,29.89648],[35.24183,29.89869],[35.23958,29.89548],[35.23773,29.89578],[35.24005,29.88843],[35.23934,29.88466],[35.24327,29.87999],[35.2394,29.87356],[35.23897,29.86788],[35.23515,29.86389],[35.23678,29.85331],[35.23146,29.8515],[35.22948,29.84639],[35.22449,29.84512],[35.22143,29.84707],[35.21807,29.83576],[35.21,29.83562],[35.20717,29.83405],[35.20704,29.82809],[35.20169,29.82494],[35.20591,29.81918],[35.20502,29.80702],[35.19244,29.79938],[35.18657,29.80029],[35.18092,29.7974],[35.17734,29.78961],[35.16489,29.78792],[35.16216,29.79068],[35.15268,29.78298],[35.14963,29.78547],[35.1456,29.78553],[35.14299,29.77962],[35.14052,29.77993],[35.14262,29.77665],[35.13911,29.77211],[35.13931,29.76696],[35.13742,29.76564],[35.13,29.76657],[35.12862,29.76037],[35.12609,29.75797],[35.12596,29.75175],[35.11323,29.73652],[35.1027,29.73696],[35.09917,29.73134],[35.09512,29.73059],[35.09098,29.72524],[35.08535,29.72289],[35.08217,29.71915],[35.0481,29.72077],[35.03796,29.72553],[35.03002,29.73187],[35.01088,29.73595],[34.9882,29.73413],[34.97696,29.72997],[34.97192,29.72626],[34.96965,29.72088],[34.97203,29.7157],[34.96848,29.70898],[34.96377,29.70554],[34.96555,29.70172],[34.95818,29.68938],[34.95867,29.68233],[34.95361,29.67754],[34.94367,29.67633],[34.93362,29.66944],[34.93478,29.66509],[34.9282,29.6614],[34.92839,29.65517],[34.92149,29.65094],[34.92045,29.64527],[34.91893,29.64664],[34.90591,29.64656],[34.89934,29.64314],[34.88883,29.6441],[34.88609,29.64685],[34.88145,29.64718],[34.88057,29.6499],[34.87598,29.65294],[34.86915,29.65277],[34.86578,29.65444],[34.86158,29.66235],[34.86031,29.66047],[34.85535,29.66027],[34.84971,29.65683],[34.84231,29.6591],[34.84268,29.66261],[34.84115,29.66345],[34.8374,29.66188],[34.83787,29.65348],[34.83377,29.64947],[34.83399,29.64487],[34.83176,29.64138],[34.83618,29.62887],[34.83267,29.62296],[34.82669,29.6179],[34.825,29.61008],[34.82747,29.6095],[34.82802,29.6057],[34.84369,29.59872],[34.84332,29.59548],[34.84608,29.59381],[34.84658,29.58731],[34.84843,29.58674],[34.85121,29.58643],[34.85099,29.59131],[34.85448,29.59586],[34.86004,29.59524],[34.86474,29.59815],[34.86938,29.59809],[34.87301,29.59317],[34.87765,29.59283],[34.88036,29.58846],[34.88537,29.59164],[34.89118,29.58749],[34.89707,29.58822],[34.90011,29.5852],[34.8994,29.58034],[34.90684,29.5805],[34.90944,29.57045],[34.91561,29.56928],[34.91688,29.57116],[34.92059,29.57056],[34.9241,29.57619],[34.92781,29.57614],[34.92753,29.5775],[34.93501,29.57982],[34.93684,29.57844],[34.93585,29.57548],[34.94941,29.57176],[34.96319,29.56398],[34.96029,29.55807],[34.96274,29.55695],[34.96465,29.55936],[34.96835,29.55876],[34.96829,29.55552],[34.97194,29.55248],[34.97057,29.54547],[34.97368,29.5465],[34.97408,29.55083],[34.98006,29.55588],[34.97981,29.55886],[34.98483,29.56231],[34.99254,29.56084],[34.99324,29.56516],[35.01431,29.56592],[35.01521,29.56456],[35.0252,29.56874],[35.04688,29.56894],[35.06213,29.5725],[35.0651,29.5665],[35.06942,29.56589],[35.06716,29.56132],[35.07082,29.55856],[35.07075,29.55531],[35.08002,29.55408],[35.07832,29.54707],[35.08141,29.54648],[35.08402,29.53805],[35.0889,29.53446],[35.08603,29.53044],[35.08231,29.53023],[35.06979,29.52312],[35.07098,29.52066],[35.06876,29.51799],[35.06929,29.51392],[35.07847,29.50864],[35.08432,29.50746],[35.08702,29.50309],[35.0944,29.50108],[35.09835,29.4975],[35.11007,29.49569],[35.11026,29.49],[35.10738,29.48545],[35.10825,29.48272],[35.10512,29.48061],[35.10282,29.47415],[35.10398,29.47061],[35.10739,29.4711],[35.1086,29.46973],[35.10919,29.45321],[35.1116,29.44992],[35.11469,29.45014],[35.11491,29.44581],[35.11704,29.44388],[35.11096,29.43423],[35.11239,29.42853],[35.10993,29.41449],[35.11081,29.41177],[35.1157,29.40926],[35.11525,29.4025],[35.11862,29.40082],[35.12172,29.40158],[35.12097,29.3951],[35.13145,29.39358],[35.1361,29.39459],[35.13119,29.3814],[35.14101,29.378],[35.14589,29.37494],[35.14616,29.37304],[35.14987,29.37325],[35.1523,29.37132],[35.15858,29.3612],[35.16531,29.35812],[35.16974,29.34857],[35.17588,29.34631],[35.17781,29.35006],[35.18654,29.35398],[35.18706,29.34937],[35.19324,29.34927],[35.19659,29.34705],[35.1974,29.34162],[35.20041,29.33805],[35.19996,29.33157],[35.20338,29.33259],[35.20409,29.33691],[35.20752,29.33821],[35.21399,29.33756],[35.21608,29.33401],[35.22028,29.3426],[35.22803,29.34382],[35.23385,29.34156],[35.23729,29.34339],[35.24687,29.34378],[35.25573,29.33902],[35.26467,29.33833],[35.26614,29.33506],[35.27692,29.33352],[35.28206,29.32883],[35.28575,29.32796],[35.28642,29.33038],[35.28921,29.33088],[35.29507,29.3305],[35.29656,29.32777],[35.29967,29.32907],[35.30631,29.32219],[35.31429,29.31962],[35.31787,29.31441],[35.32312,29.31405],[35.32782,29.31722],[35.33836,29.31893],[35.3402,29.31835],[35.33977,29.31322],[35.3462,29.31067],[35.35058,29.3133],[35.35303,29.31217],[35.35737,29.31318],[35.35897,29.31559],[35.38088,29.31493],[35.38745,29.31833],[35.39178,29.31852],[35.39991,29.30971],[35.40087,29.31132],[35.4049,29.31179],[35.40439,29.3164],[35.409,29.31551],[35.40996,29.31711],[35.41243,29.3168],[35.41483,29.31405],[35.42039,29.31422],[35.42675,29.30896],[35.43138,29.30887],[35.43258,29.30723],[35.43036,29.30456],[35.43182,29.30102],[35.43887,29.29899],[35.44157,29.2957],[35.44768,29.29315],[35.45425,29.29655],[35.45436,29.30115],[35.45629,29.30463],[35.46003,29.30591],[35.46717,29.32013],[35.46692,29.32284],[35.47063,29.32304],[35.47472,29.32621],[35.48118,29.32501],[35.48752,29.33166],[35.48697,29.33437],[35.48048,29.33449],[35.47874,29.33913],[35.47142,29.34278],[35.46097,29.34487],[35.46169,29.34918],[35.45768,29.34953],[35.45375,29.35312],[35.44757,29.35323],[35.44494,29.35924],[35.44159,29.36119],[35.44212,29.37065],[35.44062,29.37258],[35.44374,29.37387],[35.44382,29.37712],[35.45348,29.38046],[35.46397,29.37999],[35.46558,29.3824],[35.46959,29.38206],[35.46995,29.38421],[35.4772,29.39003],[35.48431,29.39044],[35.48544,29.39881],[35.48274,29.40211],[35.48536,29.40801],[35.48235,29.41132],[35.49379,29.41137],[35.49734,29.4178],[35.49852,29.41535],[35.50376,29.41471],[35.50638,29.42088],[35.50985,29.42379],[35.51537,29.42179],[35.52074,29.42629],[35.52626,29.42483],[35.53234,29.42066],[35.53696,29.41976],[35.53813,29.41703],[35.54275,29.41667],[35.54721,29.40955],[35.55005,29.41166],[35.55894,29.40906],[35.56253,29.40412],[35.56805,29.40239],[35.56919,29.39857],[35.57287,29.39742],[35.57737,29.39192],[35.58719,29.38957],[35.59017,29.38518],[35.59643,29.3883],[35.60294,29.38899],[35.6035,29.38681],[35.60724,29.38809],[35.61367,29.38553],[35.61391,29.38309],[35.62022,29.3762],[35.62088,29.37754],[35.62519,29.37692],[35.62868,29.38064],[35.63391,29.37972],[35.64013,29.38149],[35.6472,29.38],[35.64984,29.38644],[35.64936,29.39186],[35.65158,29.39371],[35.65497,29.39365],[35.67137,29.38249],[35.67578,29.38565],[35.68384,29.38684],[35.6915,29.38425],[35.69412,29.38988],[35.6979,29.39251],[35.70062,29.39029],[35.70497,29.39129],[35.70584,29.3891],[35.7077,29.38934],[35.71085,29.39171],[35.71158,29.39575],[35.7186,29.39263],[35.72389,29.39388],[35.72785,29.3919],[35.73072,29.39509],[35.73156,29.40346],[35.74021,29.40328],[35.74338,29.4062],[35.74738,29.40557],[35.75022,29.40768],[35.75449,29.4057],[35.75919,29.4083],[35.76785,29.4084],[35.77326,29.41424],[35.77404,29.4199],[35.77873,29.42197],[35.78135,29.4276],[35.78383,29.42755],[35.78773,29.4234],[35.79398,29.42571],[35.79853,29.42291],[35.8076,29.42678],[35.8089,29.42891],[35.81168,29.42885],[35.81116,29.43238],[35.81431,29.43448],[35.81283,29.43695],[35.81383,29.43963],[35.81084,29.44321],[35.80983,29.45162],[35.80712,29.45412],[35.80963,29.45542],[35.81037,29.45973],[35.81376,29.45939],[35.81646,29.46745],[35.81341,29.46914],[35.81048,29.47488],[35.81332,29.47698],[35.82127,29.47384],[35.82383,29.47676],[35.83002,29.47717],[35.83016,29.48231],[35.82558,29.4843],[35.82826,29.49155],[35.82609,29.4916],[35.82647,29.49402],[35.8228,29.49545],[35.82536,29.49865],[35.83256,29.50174],[35.83896,29.49809],[35.84333,29.49962],[35.841,29.50481],[35.83763,29.50596],[35.83475,29.5136],[35.82985,29.51533],[35.83025,29.51857],[35.82399,29.52709],[35.82786,29.53296],[35.83323,29.5369],[35.83307,29.54205],[35.84053,29.54351],[35.84664,29.5404],[35.85329,29.54594],[35.85545,29.5459],[35.85914,29.55583],[35.8636,29.56033],[35.86599,29.5684],[35.86973,29.56913],[35.87198,29.57206],[35.86757,29.58027],[35.87046,29.584],[35.87293,29.58394],[35.87275,29.58855],[35.86824,29.59324],[35.87236,29.5964],[35.87307,29.59963],[35.87047,29.60645],[35.86479,29.61334],[35.86641,29.61601],[35.86379,29.62202],[35.86835,29.62977],[35.86548,29.63768],[35.87348,29.64698],[35.87498,29.65587],[35.88099,29.66034],[35.89034,29.6623],[35.89668,29.6673],[35.89212,29.67038],[35.88736,29.67725],[35.87817,29.68097],[35.87455,29.68456],[35.87464,29.68754],[35.8666,29.69908],[35.86904,29.70849],[35.86452,29.71319],[35.85896,29.71385],[35.85746,29.71578],[35.85895,29.7244],[35.86708,29.72693],[35.87187,29.7317],[35.86718,29.74127],[35.86199,29.74409],[35.85661,29.75124],[35.85293,29.75267],[35.84665,29.7501],[35.84079,29.75104],[35.8326,29.74635],[35.82313,29.75142],[35.81573,29.75293],[35.8106,29.75818],[35.80599,29.75963],[35.79225,29.75613],[35.78814,29.75325],[35.78383,29.75469],[35.78164,29.75365],[35.76416,29.77242],[35.76433,29.77837],[35.75585,29.78585],[35.75532,29.78938],[35.75346,29.78915],[35.75229,29.79188],[35.75299,29.79457],[35.74483,29.80259],[35.74172,29.81375],[35.73176,29.8126],[35.72968,29.81616],[35.72752,29.81647],[35.72465,29.81356],[35.72061,29.81337],[35.71418,29.81648],[35.71071,29.81466],[35.70997,29.81007],[35.70279,29.80859],[35.70018,29.80378],[35.69899,29.8057],[35.69527,29.80577],[35.69288,29.80907],[35.68604,29.80867],[35.68296,29.82091],[35.67686,29.82509],[35.67303,29.83274],[35.67087,29.83333],[35.66398,29.84267],[35.65727,29.84713],[35.65203,29.84832],[35.64843,29.85299],[35.64431,29.8501],[35.63912,29.85318],[35.6292,29.85365],[35.62463,29.85726],[35.61836,29.86658],[35.61946,29.87305],[35.61859,29.87551],[35.61643,29.87582],[35.61746,29.87986],[35.61411,29.88236],[35.61388,29.88534],[35.60401,29.88797],[35.59929,29.88563],[35.59789,29.87943],[35.59041,29.8785],[35.5868,29.8829],[35.58339,29.88324],[35.57984,29.89007],[35.56819,29.89598],[35.56957,29.90137],[35.56744,29.90276],[35.56843,29.90518],[35.5664,29.9109],[35.57088,29.91595],[35.57161,29.92027],[35.56129,29.92967],[35.55074,29.93015],[35.54993,29.93503],[35.54514,29.94189],[35.54587,29.94621],[35.54408,29.94922],[35.53549,29.95344],[35.53817,29.96124],[35.5335,29.97323],[35.53768,29.97857],[35.53661,29.98535],[35.53073,29.98628],[35.51602,29.99468],[35.51423,29.99769],[35.50919,29.99508],[35.50522,29.99786],[35.50241,29.99764],[35.49831,29.99501],[35.49556,29.99696],[35.49273,29.99593],[35.48594,29.99795],[35.48225,30.01183],[35.48354,30.0137],[35.48077,30.01483],[35.48082,30.01672],[35.479,30.01865],[35.47495,30.01846],[35.47324,30.02471],[35.46797,30.02535],[35.4644,30.03192],[35.45814,30.03041],[35.45507,30.03209]],[[35.23677,29.85303],[35.23709,29.8533],[35.23708,29.85303],[35.23677,29.85303]]]}},{"type":"Feature","properties":{"catchment_id":"AQ-C02","outlet_id":"AQ-O02","area_km2":64.85,"provisional":false,"sand_pct":27.2,"clay_pct":35.7,"silt_pct":37.2,"relief_m":1321.1,"slope_mean_deg":16.6,"drainage_density_km_km2":0.7},"geometry":{"type":"Polygon","coordinates":[[[35.06897,29.51339],[35.06554,29.51182],[35.06029,29.51271],[35.06016,29.50621],[35.05701,29.50329],[35.05782,29.49759],[35.054,29.49224],[35.04931,29.48987],[35.0497,29.4785],[35.03954,29.48082],[35.03549,29.47926],[35.0278,29.48154],[35.02559,29.47941],[35.01719,29.4771],[35.01404,29.4739],[35.00504,29.47268],[35.00171,29.47625],[34.9974,29.4774],[34.98213,29.47167],[34.97752,29.47336],[34.97596,29.47231],[35.00692,29.45804],[35.01744,29.45815],[35.01886,29.4519],[35.03062,29.45226],[35.02962,29.44876],[35.03176,29.44765],[35.042,29.44911],[35.04566,29.44689],[35.05345,29.44948],[35.0571,29.44671],[35.05485,29.44215],[35.05726,29.4394],[35.05684,29.43373],[35.06022,29.43259],[35.0655,29.43386],[35.0701,29.43217],[35.06974,29.4292],[35.07519,29.42397],[35.07738,29.42502],[35.09091,29.42156],[35.09221,29.42451],[35.09469,29.42475],[35.09986,29.42088],[35.09878,29.41304],[35.10959,29.41287],[35.11239,29.42853],[35.11096,29.43423],[35.11704,29.44388],[35.11491,29.44581],[35.11469,29.45014],[35.1116,29.44992],[35.10919,29.45321],[35.1086,29.46973],[35.10739,29.4711],[35.10398,29.47061],[35.10282,29.47415],[35.10512,29.48061],[35.10825,29.48272],[35.10738,29.48545],[35.11026,29.49],[35.11007,29.49569],[35.09835,29.4975],[35.0944,29.50108],[35.08702,29.50309],[35.08432,29.50746],[35.06897,29.51339]]]}},{"type":"Feature","properties":{"catchment_id":"AQ-C03","outlet_id":"AQ-O03","area_km2":59.9,"provisional":false,"sand_pct":26.2,"clay_pct":35.5,"silt_pct":38.4,"relief_m":1418.4,"slope_mean_deg":16.6,"drainage_density_km_km2":0.7},"geometry":{"type":"Polygon","coordinates":[[[35.07676,29.42503],[35.07013,29.41809],[35.06611,29.41788],[35.06567,29.41167],[35.06227,29.41145],[35.05566,29.4056],[35.05529,29.40289],[35.05804,29.40096],[35.05703,29.39691],[35.05103,29.39078],[35.01392,29.38945],[34.99979,29.39427],[34.98946,29.38765],[34.98639,29.38878],[34.9795,29.38401],[34.96432,29.38207],[34.96398,29.38045],[34.96859,29.3793],[34.98909,29.38414],[34.99727,29.37617],[35.02238,29.38012],[35.03222,29.37753],[35.04429,29.37816],[35.05377,29.37314],[35.05854,29.36441],[35.06068,29.36356],[35.06505,29.36566],[35.06812,29.36453],[35.07021,29.36098],[35.07423,29.36119],[35.07478,29.35793],[35.08277,29.35564],[35.08452,29.35074],[35.09059,29.3455],[35.09888,29.34294],[35.10008,29.34102],[35.09505,29.33677],[35.09529,29.33352],[35.09866,29.33211],[35.10485,29.33283],[35.10536,29.34257],[35.11032,29.3433],[35.1113,29.34599],[35.11316,29.34623],[35.1146,29.35595],[35.12141,29.35666],[35.12676,29.36144],[35.12923,29.3614],[35.13054,29.3649],[35.13452,29.36294],[35.13954,29.36692],[35.13592,29.37104],[35.13628,29.37347],[35.13353,29.37487],[35.13542,29.37673],[35.13487,29.37972],[35.13119,29.3814],[35.1361,29.39459],[35.13145,29.39358],[35.12097,29.3951],[35.12044,29.39917],[35.12202,29.40104],[35.11525,29.4025],[35.1157,29.40926],[35.10991,29.41314],[35.09878,29.41304],[35.09986,29.42088],[35.09469,29.42475],[35.09221,29.42451],[35.09029,29.42157],[35.07676,29.42503]]]}},{"type":"Feature","properties":{"catchment_id":"AQ-C04","outlet_id":"AQ-O04","area_km2":42.67,"provisional":false,"sand_pct":37.8,"clay_pct":31.7,"silt_pct":30.5,"relief_m":995.5,"slope_mean_deg":8.2,"drainage_density_km_km2":1.0},"geometry":{"type":"Polygon","coordinates":[[[35.04059,29.37849],[35.03032,29.37486],[34.99933,29.37072],[34.99431,29.36701],[34.98442,29.36662],[34.97941,29.36317],[34.96608,29.3612],[34.96606,29.35985],[34.9728,29.35677],[34.97275,29.35461],[34.97704,29.35265],[34.98125,29.34663],[34.98707,29.34384],[34.9913,29.3389],[35.00232,29.33387],[35.01084,29.32724],[35.04481,29.327],[35.05782,29.32869],[35.06686,29.33288],[35.066,29.33614],[35.0728,29.33658],[35.0772,29.3403],[35.08994,29.34362],[35.0906,29.34605],[35.08452,29.35074],[35.08277,29.35564],[35.07478,29.35793],[35.07423,29.36119],[35.07021,29.36098],[35.06963,29.36315],[35.06536,29.36566],[35.06006,29.36357],[35.05611,29.36661],[35.05346,29.37342],[35.04736,29.37703],[35.04059,29.37849]]]}},{"type":"Feature","properties":{"catchment_id":"AQ-C05","outlet_id":"AQ-O05","area_km2":35.64,"provisional":false,"sand_pct":37.9,"clay_pct":30.7,"silt_pct":31.4,"relief_m":1014.9,"slope_mean_deg":6.8,"drainage_density_km_km2":1.3},"geometry":{"type":"Polygon","coordinates":[[[34.96046,29.35777],[34.95979,29.35507],[34.9665,29.35064],[34.97374,29.34187],[34.97302,29.33647],[34.98005,29.3323],[34.99247,29.31994],[34.99509,29.31151],[35.00382,29.30028],[35.01788,29.29249],[35.02345,29.29322],[35.03236,29.29119],[35.03764,29.29246],[35.05486,29.30465],[35.06349,29.3037],[35.06722,29.305],[35.06789,29.30715],[35.07693,29.31161],[35.07954,29.31861],[35.08639,29.32121],[35.08558,29.32664],[35.08914,29.33497],[35.09529,29.33352],[35.09505,29.33677],[35.10008,29.34102],[35.09797,29.34349],[35.09122,29.34577],[35.08931,29.34309],[35.0772,29.3403],[35.0728,29.33658],[35.066,29.33614],[35.0656,29.33182],[35.05782,29.32869],[35.05071,29.32853],[35.05007,29.32719],[35.01084,29.32724],[35.00232,29.33387],[34.9913,29.3389],[34.9743,29.35458],[34.96046,29.35777]]]}}]}