{"type":"FeatureCollection","features":[{"type":"Feature","properties":{"depth_m":-25},"geometry":{"type":"MultiLineString","coordinates":[[[34.95919,29.5449],[34.95084,29.54006],[34.94765,29.53515],[34.93716,29.52583],[34.93236,29.51778],[34.92874,29.51693],[34.92664,29.51515],[34.92441,29.50616],[34.92124,29.50215],[34.92061,29.49629],[34.91956,29.49541],[34.91232,29.49416],[34.90864,29.4906],[34.90703,29.48702],[34.90077,29.48305],[34.88737,29.48369],[34.88529,29.48281],[34.87641,29.47617],[34.87322,29.47126],[34.8638,29.46372],[34.86166,29.45924],[34.86146,29.44841],[34.85882,29.44484],[34.85821,29.43943],[34.85555,29.43496],[34.85397,29.43318],[34.84827,29.43145],[34.84564,29.42878],[34.84409,29.42835],[34.83824,29.41851],[34.83407,29.41586],[34.83142,29.41138],[34.83039,29.4114],[34.82514,29.40606],[34.82499,29.39794],[34.82651,29.39611],[34.82843,29.38842],[34.82835,29.38391],[34.8267,29.37806],[34.82565,29.37717],[34.81997,29.37635],[34.81477,29.37326],[34.81149,29.36293],[34.80835,29.35982],[34.80578,29.3603],[34.80324,29.36214],[34.80177,29.36622],[34.80024,29.36759],[34.79561,29.36766],[34.79144,29.36456],[34.79073,29.35374],[34.79223,29.35101],[34.79216,29.3474],[34.789,29.34338],[34.78738,29.33889],[34.78271,29.3367],[34.78009,29.33403],[34.77801,29.33315],[34.77441,29.3332],[34.76921,29.33011],[34.76711,29.32788],[34.766,29.32339],[34.76392,29.32206],[34.76083,29.32165],[34.75924,29.31942],[34.75861,29.31266],[34.75439,29.30685],[34.75528,29.29871],[34.75435,29.27436],[34.75775,29.26259],[34.76026,29.25895],[34.76271,29.2517],[34.76352,29.23905],[34.7624,29.23365],[34.76219,29.22147],[34.75698,29.21703],[34.7559,29.21434],[34.75175,29.21214],[34.74964,29.20901],[34.74966,29.14945],[34.8915,29.14933],[34.89155,29.15203],[34.89362,29.15246],[34.89368,29.15606],[34.89216,29.15699],[34.89271,29.15924],[34.89121,29.16106],[34.89227,29.1633],[34.89436,29.16463],[34.89392,29.16869],[34.89494,29.16868],[34.89549,29.17048],[34.89503,29.17364],[34.89353,29.17547],[34.89355,29.17682],[34.89617,29.17949],[34.89471,29.18402],[34.89678,29.18489],[34.89683,29.1876],[34.89838,29.18803],[34.90205,29.19159],[34.90513,29.19154],[34.90618,29.19243],[34.90621,29.19423],[34.90776,29.19466],[34.90576,29.1974],[34.90632,29.2001],[34.90685,29.20099],[34.90994,29.2014],[34.90952,29.20637],[34.91368,29.20902],[34.91279,29.21625],[34.91177,29.21671],[34.90979,29.2208],[34.91039,29.2253],[34.91563,29.23064],[34.91664,29.22973],[34.92435,29.22962],[34.92489,29.23096],[34.92643,29.23049],[34.92853,29.23316],[34.93061,29.23404],[34.93063,29.23539],[34.93218,29.23537],[34.93374,29.2367],[34.93476,29.23623],[34.9374,29.2398],[34.93697,29.24432],[34.93445,29.24661],[34.93553,29.24976],[34.93815,29.25197],[34.93821,29.25513],[34.93619,29.25742],[34.93621,29.25832],[34.93774,29.25784],[34.93778,29.25965],[34.9353,29.26465],[34.93225,29.2665],[34.93076,29.26968],[34.931,29.2823],[34.92953,29.28593],[34.92799,29.28641],[34.92808,29.29092],[34.92913,29.29226],[34.93273,29.2922],[34.9328,29.29581],[34.93436,29.29669],[34.9339,29.29986],[34.94265,29.29973],[34.94372,29.30152],[34.94525,29.30105],[34.94527,29.30195],[34.95046,29.30458],[34.95059,29.31134],[34.94709,29.31681],[34.94766,29.31951],[34.94417,29.32542],[34.94678,29.32764],[34.9479,29.33214],[34.951,29.33254],[34.95258,29.33432],[34.95262,29.33658],[34.95108,29.33705],[34.94805,29.34025],[34.94809,29.34206],[34.95014,29.34158],[34.95073,29.34563],[34.95177,29.34606],[34.95232,29.34786],[34.95335,29.34785],[34.95339,29.3501],[34.95756,29.35275],[34.95758,29.35365],[34.95604,29.35412],[34.95607,29.35547],[34.95761,29.35545],[34.96022,29.35722],[34.95934,29.3649],[34.96095,29.36849],[34.95941,29.36851],[34.95834,29.36672],[34.95786,29.36853],[34.96096,29.36894],[34.96108,29.37525],[34.96377,29.38108],[34.9638,29.38243],[34.96226,29.3829],[34.96228,29.38381],[34.96382,29.38378],[34.96386,29.38604],[34.96343,29.3901],[34.96143,29.39329],[34.96149,29.39645],[34.96567,29.39954],[34.96832,29.40357],[34.96934,29.40265],[34.97147,29.40623],[34.97214,29.41434],[34.97022,29.42203],[34.97236,29.42606],[34.97188,29.42787],[34.97296,29.43011],[34.96898,29.43739],[34.96922,29.45002],[34.97083,29.4536],[34.97292,29.45493],[34.97242,29.45584],[34.974,29.45717],[34.97658,29.45758],[34.97665,29.46119],[34.97464,29.46392],[34.97574,29.46752],[34.97423,29.46934],[34.97531,29.47158],[34.97686,29.47201],[34.97689,29.47336],[34.97897,29.47424],[34.97848,29.4756],[34.98058,29.47782],[34.98065,29.48098],[34.98487,29.48588],[34.98494,29.48948],[34.98813,29.4944],[34.98817,29.49665],[34.99081,29.49977],[34.99144,29.50563],[34.99299,29.50606],[34.99256,29.51012],[34.99527,29.51685],[34.99632,29.51773],[34.99786,29.51726],[34.99995,29.51903],[34.99954,29.524],[34.99698,29.52539],[34.9965,29.52675],[34.98939,29.53273],[34.98836,29.53274],[34.98636,29.53593],[34.9807,29.53692],[34.97664,29.54013],[34.97149,29.54066],[34.96638,29.54344],[34.95919,29.5449]],[[34.96761,29.44688],[34.96813,29.44688],[34.96812,29.44643],[34.9676,29.44643],[34.96761,29.44688]]]}},{"type":"Feature","properties":{"depth_m":-50},"geometry":{"type":"MultiLineString","coordinates":[[[34.95394,29.54002],[34.93923,29.52625],[34.93233,29.51597],[34.92764,29.51334],[34.92542,29.50525],[34.92226,29.50168],[34.92218,29.49762],[34.92111,29.49538],[34.91437,29.49368],[34.91277,29.49099],[34.90964,29.48878],[34.90908,29.48654],[34.9044,29.48435],[34.90177,29.48168],[34.8925,29.48226],[34.88837,29.48187],[34.88577,29.48055],[34.87897,29.47523],[34.87631,29.47076],[34.86478,29.461],[34.86315,29.45606],[34.86246,29.44659],[34.86035,29.44392],[34.85974,29.43896],[34.85702,29.43088],[34.85124,29.42509],[34.85016,29.42195],[34.8423,29.41484],[34.83815,29.4131],[34.83344,29.4091],[34.83026,29.40418],[34.82915,29.40014],[34.83001,29.39065],[34.82873,29.37668],[34.82509,29.37448],[34.82095,29.37363],[34.81782,29.37142],[34.81571,29.36829],[34.81353,29.36155],[34.80931,29.35619],[34.79953,29.35633],[34.79744,29.35455],[34.79527,29.34826],[34.79211,29.34424],[34.78943,29.33841],[34.78161,29.33265],[34.77019,29.32739],[34.76756,29.32427],[34.76647,29.32067],[34.76178,29.31758],[34.76168,29.31126],[34.76005,29.30677],[34.75847,29.27431],[34.76475,29.25077],[34.76505,29.23813],[34.76339,29.23093],[34.76269,29.22057],[34.75852,29.21701],[34.75585,29.21163],[34.74958,29.2054],[34.74966,29.14945],[34.89099,29.14933],[34.89158,29.15339],[34.89207,29.15203],[34.8931,29.15246],[34.89318,29.15652],[34.89165,29.157],[34.89271,29.15878],[34.89169,29.15925],[34.89121,29.16151],[34.89383,29.16418],[34.89392,29.16869],[34.89494,29.16868],[34.89355,29.17682],[34.8962,29.18084],[34.89419,29.18358],[34.89678,29.18489],[34.89683,29.1876],[34.89838,29.18803],[34.90101,29.19115],[34.90308,29.19157],[34.90361,29.19247],[34.90566,29.19244],[34.90624,29.19559],[34.90522,29.1965],[34.90526,29.19831],[34.90686,29.20144],[34.90943,29.20141],[34.90902,29.20683],[34.91213,29.20859],[34.9132,29.21083],[34.91326,29.21398],[34.91074,29.21673],[34.90927,29.22081],[34.90989,29.22621],[34.91511,29.23065],[34.92231,29.23055],[34.927,29.23364],[34.9301,29.2345],[34.93272,29.23671],[34.93537,29.24119],[34.93397,29.24888],[34.93662,29.2529],[34.93671,29.25741],[34.93526,29.26239],[34.93122,29.26651],[34.93025,29.26968],[34.93049,29.28231],[34.92901,29.28594],[34.92798,29.28596],[34.92808,29.29092],[34.92913,29.29226],[34.93222,29.29221],[34.9328,29.29581],[34.93385,29.2967],[34.93338,29.29941],[34.93443,29.3003],[34.93806,29.3016],[34.94113,29.3011],[34.94321,29.30198],[34.94583,29.30465],[34.94894,29.3055],[34.94948,29.30685],[34.9496,29.31316],[34.94709,29.31636],[34.94765,29.31906],[34.94417,29.32542],[34.94679,29.32809],[34.94684,29.3308],[34.9479,29.33214],[34.951,29.33254],[34.95206,29.33433],[34.9521,29.33659],[34.94755,29.34071],[34.9481,29.34251],[34.94913,29.34249],[34.94911,29.34159],[34.95015,29.34203],[34.95073,29.34563],[34.95177,29.34606],[34.95233,29.34831],[34.95336,29.3483],[34.95341,29.351],[34.95603,29.35322],[34.95607,29.35547],[34.95814,29.3559],[34.9592,29.35768],[34.95925,29.36039],[34.95775,29.36267],[34.95939,29.36761],[34.95783,29.36673],[34.95786,29.36853],[34.96045,29.3694],[34.96059,29.37661],[34.96327,29.38199],[34.96329,29.38289],[34.96226,29.3829],[34.96289,29.38876],[34.96041,29.39376],[34.96045,29.39601],[34.96152,29.39825],[34.96464,29.39956],[34.96728,29.40313],[34.96936,29.404],[34.97102,29.40984],[34.97112,29.4148],[34.96965,29.41888],[34.96974,29.42385],[34.97135,29.42698],[34.97143,29.43104],[34.96843,29.43559],[34.96863,29.44597],[34.9671,29.44689],[34.96967,29.44685],[34.9697,29.44821],[34.96868,29.44867],[34.97031,29.45316],[34.97401,29.45762],[34.97607,29.45759],[34.97559,29.4594],[34.97665,29.46119],[34.97414,29.46438],[34.97519,29.46572],[34.97524,29.46797],[34.97423,29.46934],[34.97531,29.47158],[34.97634,29.47157],[34.97636,29.47292],[34.97844,29.47379],[34.97849,29.47605],[34.98059,29.47827],[34.98065,29.48098],[34.98487,29.48588],[34.98494,29.48948],[34.98759,29.49351],[34.98817,29.49665],[34.99082,29.50022],[34.99091,29.50518],[34.993,29.50651],[34.99256,29.51012],[34.99419,29.51461],[34.9958,29.51774],[34.99787,29.51771],[34.99893,29.5195],[34.99897,29.5213],[34.99591,29.52315],[34.99339,29.52635],[34.98879,29.52822],[34.98676,29.53006],[34.98061,29.53195],[34.97602,29.53473],[34.96985,29.53572],[34.96321,29.53943],[34.95394,29.54002]],[[34.89211,29.15428],[34.89262,29.15427],[34.89262,29.15382],[34.8921,29.15383],[34.89211,29.15428]]]}},{"type":"Feature","properties":{"depth_m":-100},"geometry":{"type":"LineString","coordinates":[[34.95123,29.53329],[34.94391,29.52844],[34.9381,29.5213],[34.93171,29.51057],[34.92802,29.50656],[34.92692,29.50252],[34.92429,29.49985],[34.92316,29.4949],[34.92107,29.49313],[34.91899,29.49271],[34.91581,29.48779],[34.91319,29.48557],[34.90541,29.48298],[34.90436,29.48209],[34.9043,29.47893],[34.89347,29.47864],[34.8862,29.47603],[34.88253,29.47293],[34.87724,29.46578],[34.8673,29.4578],[34.8657,29.45467],[34.86452,29.44656],[34.86236,29.44118],[34.86113,29.43037],[34.85902,29.42769],[34.859,29.42634],[34.85479,29.42144],[34.85424,29.41964],[34.85162,29.41742],[34.84955,29.417],[34.84065,29.409],[34.83536,29.4014],[34.83315,29.39331],[34.83126,29.37394],[34.82348,29.37089],[34.81982,29.36778],[34.81446,29.35612],[34.81029,29.35302],[34.80252,29.35087],[34.79887,29.34776],[34.79359,29.34061],[34.79039,29.33434],[34.78832,29.33347],[34.78361,29.32902],[34.78258,29.32903],[34.77787,29.32458],[34.77684,29.3246],[34.77159,29.3188],[34.77155,29.31655],[34.76613,29.30083],[34.7632,29.28011],[34.76308,29.27335],[34.76446,29.26385],[34.76835,29.25072],[34.76815,29.23854],[34.76543,29.23],[34.76477,29.22144],[34.76317,29.2183],[34.75847,29.2143],[34.75841,29.2107],[34.75681,29.20711],[34.75728,29.20485],[34.76034,29.20345],[34.76083,29.20209],[34.75979,29.2012],[34.75569,29.20171],[34.75315,29.204],[34.74954,29.20314],[34.74966,29.14945],[34.89048,29.14934],[34.89107,29.15385],[34.89263,29.15473],[34.89121,29.16151],[34.89228,29.16375],[34.89331,29.16374],[34.89305,29.17773],[34.89518,29.18131],[34.89419,29.18358],[34.89679,29.18535],[34.89684,29.18805],[34.90414,29.19336],[34.90424,29.19877],[34.90686,29.20144],[34.90841,29.20187],[34.90799,29.20684],[34.9106,29.20906],[34.91221,29.21265],[34.91174,29.21491],[34.90921,29.2172],[34.90835,29.22669],[34.91358,29.23112],[34.91976,29.23149],[34.92703,29.23544],[34.93178,29.24169],[34.93246,29.25025],[34.93457,29.25338],[34.93467,29.25834],[34.92968,29.26698],[34.92942,29.28052],[34.92796,29.2846],[34.92808,29.29092],[34.92913,29.29226],[34.9317,29.29222],[34.93446,29.3021],[34.94119,29.30381],[34.94797,29.30867],[34.94859,29.31408],[34.94657,29.31636],[34.94418,29.32587],[34.94679,29.32809],[34.94684,29.3308],[34.9479,29.33214],[34.95101,29.33299],[34.95008,29.33842],[34.94805,29.3398],[34.94757,29.34206],[34.94914,29.34294],[34.95129,29.34788],[34.95135,29.35103],[34.95608,29.35593],[34.95768,29.35906],[34.95621,29.36314],[34.95735,29.36854],[34.95891,29.36942],[34.95959,29.37798],[34.9617,29.38066],[34.96185,29.38832],[34.9589,29.39558],[34.96051,29.39917],[34.9631,29.40003],[34.96783,29.40448],[34.96946,29.40896],[34.96958,29.41528],[34.96811,29.41936],[34.96821,29.42432],[34.96981,29.427],[34.96987,29.43016],[34.96688,29.43562],[34.96655,29.4451],[34.96711,29.44734],[34.96867,29.44822],[34.97088,29.45586],[34.97348,29.45717],[34.97559,29.45985],[34.97515,29.46346],[34.97413,29.46393],[34.97416,29.46574],[34.9752,29.46617],[34.97523,29.46752],[34.97421,29.46799],[34.97478,29.47114],[34.97635,29.47202],[34.97637,29.47337],[34.97845,29.47424],[34.97903,29.47739],[34.98007,29.47783],[34.98012,29.48053],[34.98487,29.48633],[34.98602,29.49218],[34.98813,29.49485],[34.98871,29.498],[34.99082,29.50022],[34.99091,29.50518],[34.99249,29.50651],[34.99257,29.51057],[34.99473,29.5155],[34.99378,29.52003],[34.99126,29.52277],[34.98616,29.52601],[34.97641,29.52841],[34.9713,29.53074],[34.96305,29.53131],[34.95793,29.53319],[34.95123,29.53329]]}},{"type":"Feature","properties":{"depth_m":-200},"geometry":{"type":"LineString","coordinates":[[34.95166,29.52877],[34.94538,29.52435],[34.93901,29.51452],[34.93638,29.51231],[34.93529,29.50916],[34.93052,29.50247],[34.92886,29.49617],[34.92358,29.48994],[34.91571,29.48283],[34.90949,29.48066],[34.9063,29.47575],[34.89491,29.4732],[34.88657,29.46836],[34.88023,29.45988],[34.87132,29.45188],[34.86758,29.44472],[34.86579,29.43121],[34.86417,29.42717],[34.86257,29.42449],[34.85891,29.42138],[34.85624,29.41645],[34.85103,29.41337],[34.84788,29.41025],[34.84464,29.40173],[34.8399,29.39593],[34.83929,29.39097],[34.83718,29.3883],[34.83656,29.38244],[34.83497,29.37975],[34.83489,29.37524],[34.83537,29.37343],[34.83796,29.3743],[34.84001,29.37382],[34.83994,29.36976],[34.8389,29.36887],[34.83478,29.36938],[34.8291,29.36856],[34.82493,29.36545],[34.82165,29.35512],[34.81591,29.35069],[34.81019,29.34761],[34.80553,29.34632],[34.80084,29.34277],[34.7934,29.32979],[34.78764,29.324],[34.78235,29.31595],[34.78016,29.30831],[34.77216,29.29218],[34.76938,29.28048],[34.76922,29.27101],[34.77106,29.25835],[34.77453,29.25064],[34.77807,29.24743],[34.77749,29.24338],[34.77847,29.24066],[34.77477,29.23484],[34.76956,29.23085],[34.76678,29.21871],[34.76467,29.21558],[34.76206,29.21381],[34.76255,29.21199],[34.76509,29.21016],[34.76921,29.21055],[34.76971,29.20964],[34.76866,29.20876],[34.76508,29.20971],[34.7604,29.20661],[34.76241,29.20388],[34.76236,29.20117],[34.76132,29.20028],[34.75206,29.2004],[34.74946,29.19863],[34.74966,29.14945],[34.86118,29.1493],[34.87095,29.14962],[34.87097,29.15052],[34.87305,29.15184],[34.87921,29.15176],[34.88125,29.15083],[34.88071,29.14948],[34.88637,29.1494],[34.88954,29.15432],[34.89068,29.16062],[34.89154,29.17955],[34.89897,29.19208],[34.90159,29.19475],[34.90324,29.20014],[34.90636,29.20235],[34.90593,29.20687],[34.90963,29.21223],[34.90574,29.22447],[34.90583,29.22898],[34.91152,29.2307],[34.91465,29.23336],[34.92084,29.23418],[34.92451,29.23819],[34.92614,29.24267],[34.92822,29.244],[34.92983,29.24758],[34.92942,29.253],[34.931,29.25478],[34.93104,29.25704],[34.9285,29.25888],[34.92753,29.26205],[34.9266,29.26703],[34.92678,29.27695],[34.92434,29.28375],[34.92443,29.28871],[34.9255,29.29096],[34.93072,29.29494],[34.93143,29.30485],[34.9361,29.30704],[34.93768,29.30882],[34.94079,29.31013],[34.94492,29.31052],[34.94598,29.31231],[34.94552,29.31503],[34.94449,29.31549],[34.94251,29.31958],[34.94213,29.32635],[34.94373,29.32949],[34.94688,29.3326],[34.94603,29.34209],[34.94662,29.34614],[34.94986,29.35376],[34.95458,29.35865],[34.9542,29.36543],[34.95633,29.36901],[34.95646,29.37577],[34.96017,29.38158],[34.95981,29.38971],[34.9573,29.3929],[34.95687,29.39742],[34.95901,29.40145],[34.96316,29.40319],[34.96474,29.40497],[34.96638,29.40946],[34.96679,29.43111],[34.96532,29.43474],[34.96398,29.44559],[34.96614,29.45052],[34.96823,29.45229],[34.96987,29.45678],[34.97248,29.45854],[34.97408,29.46123],[34.97319,29.46891],[34.97636,29.47247],[34.97638,29.47382],[34.97794,29.47425],[34.97797,29.47605],[34.98008,29.47828],[34.98013,29.48098],[34.98435,29.48588],[34.98441,29.48904],[34.98814,29.4953],[34.98765,29.49621],[34.98873,29.4989],[34.98977,29.49934],[34.98937,29.50521],[34.99206,29.51103],[34.99212,29.51419],[34.99063,29.51692],[34.98606,29.5206],[34.97942,29.52385],[34.97069,29.52579],[34.96398,29.52589],[34.95681,29.5287],[34.95166,29.52877]]}},{"type":"Feature","properties":{"depth_m":-400},"geometry":{"type":"MultiLineString","coordinates":[[[34.95344,29.51431],[34.94768,29.50989],[34.94186,29.50185],[34.93714,29.49786],[34.92921,29.4876],[34.92653,29.48222],[34.92234,29.47867],[34.91349,29.47429],[34.90564,29.46809],[34.89995,29.46682],[34.89731,29.4637],[34.89216,29.46377],[34.89111,29.46288],[34.88893,29.4566],[34.88319,29.45262],[34.88104,29.44814],[34.87739,29.44593],[34.87475,29.44236],[34.87308,29.43562],[34.87561,29.43287],[34.87553,29.42882],[34.8729,29.42569],[34.87123,29.41895],[34.86755,29.41494],[34.86392,29.41364],[34.8592,29.40919],[34.85861,29.40514],[34.85703,29.40336],[34.856,29.40337],[34.85399,29.40611],[34.85295,29.40567],[34.85234,29.40027],[34.85129,29.39893],[34.84869,29.39806],[34.84917,29.3958],[34.85277,29.39575],[34.85272,29.39304],[34.85064,29.39172],[34.84957,29.38948],[34.84726,29.37552],[34.84463,29.37285],[34.84299,29.36746],[34.83879,29.36301],[34.83716,29.35852],[34.83348,29.35406],[34.83239,29.35092],[34.82613,29.34649],[34.81993,29.34477],[34.81834,29.34254],[34.80747,29.33953],[34.80328,29.33507],[34.79944,29.32204],[34.79359,29.31129],[34.78714,29.29559],[34.78451,29.29201],[34.78231,29.28392],[34.77912,29.2781],[34.77935,29.26185],[34.77828,29.25916],[34.77877,29.25825],[34.78032,29.25823],[34.78085,29.25912],[34.78291,29.25955],[34.78545,29.25771],[34.78593,29.25545],[34.78383,29.25322],[34.78377,29.24961],[34.78929,29.24142],[34.78925,29.23961],[34.7877,29.23873],[34.78308,29.23924],[34.7815,29.23746],[34.77934,29.23162],[34.7731,29.22765],[34.7724,29.21683],[34.77083,29.21504],[34.7708,29.21369],[34.77284,29.21231],[34.77224,29.20735],[34.76547,29.20248],[34.76177,29.19667],[34.7556,29.19675],[34.75456,29.19586],[34.75348,29.19271],[34.75808,29.1913],[34.75701,29.18906],[34.75393,29.1891],[34.75346,29.19181],[34.75036,29.19095],[34.74983,29.19005],[34.75032,29.18869],[34.75288,29.18821],[34.75285,29.18595],[34.7518,29.18507],[34.74924,29.18555],[34.74966,29.14945],[34.86118,29.1493],[34.86325,29.14972],[34.86381,29.15242],[34.86797,29.15507],[34.8701,29.15955],[34.87216,29.15952],[34.87418,29.15769],[34.87775,29.15629],[34.87981,29.15626],[34.88138,29.15759],[34.88622,29.1697],[34.88685,29.17556],[34.88902,29.1823],[34.89273,29.18811],[34.89597,29.19664],[34.89915,29.20155],[34.90028,29.20695],[34.90398,29.21276],[34.90407,29.21772],[34.90114,29.22589],[34.90175,29.23084],[34.90332,29.23262],[34.9054,29.2335],[34.90951,29.23344],[34.91627,29.2374],[34.91634,29.24101],[34.9133,29.24376],[34.91333,29.24556],[34.92018,29.25404],[34.91974,29.2581],[34.91523,29.26449],[34.91493,29.27577],[34.91709,29.2816],[34.91771,29.28701],[34.92039,29.29283],[34.92513,29.29863],[34.92373,29.30632],[34.92433,29.31082],[34.92645,29.31395],[34.93215,29.31612],[34.93477,29.31834],[34.93485,29.32285],[34.93341,29.32829],[34.93401,29.33279],[34.93877,29.33949],[34.94044,29.34623],[34.94363,29.35115],[34.9437,29.3552],[34.94789,29.35875],[34.9495,29.36189],[34.94914,29.37046],[34.95023,29.37361],[34.95034,29.37902],[34.95399,29.38167],[34.95453,29.38302],[34.95353,29.38438],[34.94991,29.38354],[34.9484,29.38536],[34.95,29.3885],[34.95155,29.38847],[34.95255,29.38711],[34.9541,29.38708],[34.95515,29.38842],[34.95519,29.39023],[34.95268,29.39387],[34.95393,29.40513],[34.95914,29.40821],[34.96032,29.41586],[34.96239,29.41674],[34.96348,29.41943],[34.963,29.42169],[34.96098,29.42352],[34.9617,29.43434],[34.96072,29.43706],[34.9577,29.44072],[34.95731,29.44704],[34.95785,29.44838],[34.9657,29.45458],[34.96625,29.45638],[34.96781,29.45726],[34.96994,29.46084],[34.97,29.46399],[34.96751,29.46809],[34.96757,29.47125],[34.98125,29.48548],[34.98501,29.49309],[34.98462,29.49987],[34.9822,29.50802],[34.97867,29.51213],[34.97663,29.51307],[34.9725,29.51313],[34.9678,29.51004],[34.96262,29.50876],[34.95704,29.51381],[34.95344,29.51431]],[[34.94681,29.38313],[34.94783,29.38266],[34.94728,29.38087],[34.94575,29.38134],[34.94681,29.38313]]]}},{"type":"Feature","properties":{"depth_m":-600},"geometry":{"type":"LineString","coordinates":[[34.94937,29.49001],[34.94516,29.48556],[34.94309,29.48514],[34.93993,29.48203],[34.9389,29.48204],[34.93626,29.47892],[34.92266,29.46829],[34.92211,29.4665],[34.91896,29.46338],[34.91636,29.46252],[34.9127,29.45941],[34.91056,29.45539],[34.90998,29.45178],[34.90534,29.45185],[34.90429,29.45096],[34.90267,29.44693],[34.89954,29.44472],[34.89896,29.44157],[34.89584,29.43981],[34.89632,29.43799],[34.89785,29.43707],[34.89781,29.43527],[34.8926,29.43218],[34.88748,29.43361],[34.88275,29.42916],[34.88221,29.42737],[34.87907,29.42516],[34.8774,29.41796],[34.87473,29.41304],[34.86641,29.40909],[34.86633,29.40458],[34.86163,29.40104],[34.86108,29.39924],[34.85689,29.39524],[34.85517,29.38579],[34.85509,29.38128],[34.85711,29.379],[34.85654,29.3763],[34.85446,29.37497],[34.85233,29.37139],[34.85079,29.37141],[34.84767,29.36965],[34.8455,29.36382],[34.83866,29.35579],[34.83807,29.35174],[34.83389,29.34819],[34.83329,29.34323],[34.8286,29.34014],[34.82749,29.33564],[34.82437,29.33388],[34.8233,29.33164],[34.82018,29.33033],[34.81851,29.32313],[34.81747,29.32225],[34.81386,29.32229],[34.81229,29.32096],[34.80753,29.31336],[34.80424,29.30212],[34.80107,29.29765],[34.801,29.29359],[34.80247,29.28906],[34.80603,29.28676],[34.80601,29.28541],[34.80086,29.28548],[34.79876,29.28325],[34.79874,29.28189],[34.80076,29.27961],[34.80116,29.27329],[34.80371,29.2719],[34.8057,29.26827],[34.80513,29.26466],[34.80251,29.26244],[34.80035,29.25661],[34.80176,29.24847],[34.79861,29.24535],[34.79805,29.24265],[34.79905,29.24083],[34.79829,29.22686],[34.79979,29.22413],[34.80588,29.21954],[34.80629,29.21367],[34.80316,29.21145],[34.80102,29.20652],[34.79844,29.2061],[34.79743,29.20702],[34.79383,29.20707],[34.79072,29.2053],[34.78915,29.20397],[34.78701,29.19904],[34.78335,29.19593],[34.77922,29.19463],[34.77813,29.19103],[34.77656,29.1897],[34.77296,29.1893],[34.77143,29.19022],[34.77156,29.19789],[34.77055,29.19881],[34.76848,29.19838],[34.76887,29.19071],[34.76263,29.18673],[34.75888,29.17775],[34.7495,29.17066],[34.74966,29.14945],[34.85553,29.14938],[34.85612,29.15343],[34.85769,29.15521],[34.8608,29.15652],[34.86294,29.16146],[34.86504,29.16368],[34.87532,29.16354],[34.87741,29.16532],[34.87853,29.17071],[34.88275,29.17652],[34.88494,29.18371],[34.88969,29.19041],[34.89137,29.19805],[34.89724,29.2097],[34.89732,29.21421],[34.89839,29.216],[34.8987,29.23314],[34.90081,29.23582],[34.90287,29.23624],[34.90496,29.23801],[34.90553,29.24071],[34.90307,29.24661],[34.90322,29.25518],[34.90699,29.26415],[34.90878,29.27721],[34.91262,29.29024],[34.91741,29.29874],[34.91719,29.31453],[34.91778,29.31813],[34.91991,29.32216],[34.92052,29.32712],[34.92106,29.32846],[34.92471,29.33112],[34.92848,29.33964],[34.93268,29.34409],[34.93282,29.35175],[34.93443,29.35489],[34.93451,29.3594],[34.93717,29.36342],[34.93725,29.36793],[34.93627,29.37065],[34.93841,29.37468],[34.94009,29.38187],[34.94377,29.38588],[34.94395,29.39535],[34.94763,29.39891],[34.94922,29.40159],[34.9493,29.40565],[34.95247,29.40966],[34.95104,29.416],[34.95164,29.4205],[34.94811,29.42416],[34.94767,29.42823],[34.95237,29.43132],[34.95143,29.4363],[34.95465,29.44302],[34.95475,29.44798],[34.95794,29.45334],[34.96055,29.45511],[34.96059,29.45691],[34.95758,29.46147],[34.95764,29.46417],[34.95984,29.47136],[34.96519,29.48166],[34.96523,29.48391],[34.96271,29.48666],[34.95806,29.48627],[34.94937,29.49001]]}},{"type":"Feature","properties":{"depth_m":-800},"geometry":{"type":"LineString","coordinates":[[34.9315,29.44516],[34.92941,29.44383],[34.92832,29.44069],[34.92519,29.43848],[34.92408,29.43444],[34.91468,29.42781],[34.9136,29.42512],[34.90835,29.41978],[34.90316,29.41805],[34.89287,29.41864],[34.88973,29.41598],[34.88865,29.41329],[34.88293,29.41066],[34.88136,29.40933],[34.88026,29.40574],[34.87452,29.40176],[34.87495,29.39679],[34.87233,29.39457],[34.87172,29.38962],[34.86858,29.38696],[34.86848,29.38154],[34.86482,29.37844],[34.86373,29.37484],[34.86109,29.37127],[34.86092,29.36225],[34.85934,29.36047],[34.85469,29.35918],[34.8546,29.35467],[34.85147,29.35201],[34.85145,29.3511],[34.85451,29.34926],[34.85499,29.34744],[34.85393,29.34611],[34.85136,29.34614],[34.84984,29.34752],[34.8483,29.34754],[34.84567,29.34442],[34.84307,29.34355],[34.84352,29.33993],[34.83991,29.33908],[34.83984,29.33547],[34.84186,29.33319],[34.8413,29.33049],[34.83869,29.32872],[34.83705,29.32333],[34.83392,29.32112],[34.83225,29.31437],[34.82658,29.31355],[34.82655,29.3122],[34.82858,29.31036],[34.82849,29.3054],[34.8264,29.30363],[34.82487,29.30455],[34.82281,29.30458],[34.82228,29.30368],[34.82168,29.29873],[34.81958,29.2965],[34.8205,29.29017],[34.81736,29.28706],[34.81518,29.28032],[34.81149,29.27541],[34.81134,29.26684],[34.80711,29.26058],[34.80707,29.25787],[34.8091,29.25649],[34.80907,29.25514],[34.80699,29.25336],[34.80639,29.24886],[34.80479,29.24572],[34.80463,29.23625],[34.80714,29.2326],[34.8075,29.22403],[34.81195,29.21404],[34.81131,29.20683],[34.81026,29.20549],[34.80664,29.20419],[34.80348,29.20017],[34.79626,29.19891],[34.79365,29.19669],[34.791,29.19222],[34.78167,29.18783],[34.77898,29.1811],[34.76962,29.17491],[34.76853,29.17131],[34.76539,29.16774],[34.76484,29.16549],[34.75703,29.16018],[34.757,29.15838],[34.75802,29.15791],[34.75851,29.1561],[34.75486,29.15344],[34.7497,29.15216],[34.74966,29.14945],[34.84988,29.14946],[34.85104,29.15711],[34.85622,29.1593],[34.85779,29.16063],[34.85993,29.16556],[34.86668,29.16908],[34.87765,29.17885],[34.88353,29.19095],[34.88463,29.19499],[34.88477,29.20266],[34.8869,29.20669],[34.88952,29.20936],[34.89123,29.21836],[34.89339,29.22374],[34.89306,29.23412],[34.88903,29.23869],[34.88764,29.24683],[34.88414,29.25275],[34.88176,29.26316],[34.88185,29.26812],[34.88451,29.27259],[34.89913,29.28411],[34.90496,29.29305],[34.90249,29.29895],[34.90369,29.30796],[34.90022,29.31523],[34.90051,29.33101],[34.90217,29.33731],[34.90379,29.34089],[34.90957,29.34713],[34.91785,29.34971],[34.92152,29.35327],[34.92317,29.35866],[34.92277,29.36453],[34.92385,29.36722],[34.92596,29.3699],[34.93013,29.37254],[34.93127,29.37839],[34.93544,29.38104],[34.93653,29.38418],[34.93914,29.38595],[34.93713,29.38868],[34.93717,29.39094],[34.93927,29.39316],[34.93938,29.39858],[34.94258,29.40439],[34.94213,29.40801],[34.93913,29.41257],[34.93973,29.41707],[34.94184,29.41974],[34.9419,29.4229],[34.93838,29.42746],[34.93841,29.42927],[34.93999,29.43105],[34.94003,29.43285],[34.93801,29.43514],[34.93917,29.44189],[34.93511,29.44511],[34.9315,29.44516]]}}]}