{"type":"FeatureCollection","features":[{"type":"Feature","properties":{"kind":"industrial"},"geometry":{"type":"Polygon","coordinates":[[[34.97436,29.46295],[34.97595,29.47174],[34.97659,29.47184],[34.97724,29.47362],[34.97852,29.47433],[34.97916,29.47379],[34.97843,29.47218],[34.97932,29.47227],[34.98168,29.47105],[34.98102,29.46871],[34.97935,29.46884],[34.9785,29.46598],[34.97909,29.46547],[34.97906,29.46431],[34.98071,29.46352],[34.98093,29.45817],[34.97945,29.45812],[34.97658,29.45906],[34.97545,29.46076],[34.97538,29.46277],[34.97436,29.46295]]]}},{"type":"Feature","properties":{"kind":"industrial"},"geometry":{"type":"Polygon","coordinates":[[[34.99497,29.50071],[34.99298,29.50008],[34.99218,29.50034],[34.99214,29.502],[34.99243,29.5036],[34.99223,29.5034],[34.99348,29.50687],[34.99356,29.50825],[34.99327,29.50833],[34.99373,29.50972],[34.99666,29.51747],[34.99814,29.51702],[34.9972,29.51417],[34.99856,29.51451],[34.99936,29.51552],[34.99967,29.51533],[35.00003,29.51582],[34.99965,29.51731],[35.0001,29.51586],[35.00262,29.51435],[35.00175,29.51302],[35.00032,29.50801],[34.99965,29.50163],[34.99908,29.50069],[34.99808,29.50019],[34.99497,29.50071]]]}},{"type":"Feature","properties":{"kind":"industrial"},"geometry":{"type":"Polygon","coordinates":[[[35.42518,29.89515],[35.42746,29.89566],[35.42814,29.89327],[35.42807,29.89193],[35.42616,29.89153],[35.42518,29.89515]]]}},{"type":"Feature","properties":{"kind":"industrial"},"geometry":{"type":"Polygon","coordinates":[[[34.97472,29.37435],[34.97307,29.37485],[34.96744,29.37489],[34.96492,29.37406],[34.96392,29.37578],[34.96538,29.37641],[34.97425,29.37629],[34.97431,29.37781],[34.97472,29.37781],[34.97469,29.38035],[34.97777,29.38028],[34.97968,29.3792],[34.98189,29.37915],[34.98238,29.37813],[34.98254,29.3743],[34.97472,29.37435]]]}},{"type":"Feature","properties":{"kind":"industrial"},"geometry":{"type":"Polygon","coordinates":[[[34.96581,29.36484],[34.96367,29.36656],[34.96347,29.36743],[34.96419,29.36868],[34.96797,29.36994],[34.96857,29.37069],[34.96887,29.37243],[34.96799,29.37473],[34.97304,29.37468],[34.97479,29.37423],[34.98257,29.3742],[34.98265,29.3713],[34.97552,29.37138],[34.97565,29.36819],[34.97354,29.36824],[34.97353,29.36527],[34.9718,29.36369],[34.96814,29.36384],[34.96581,29.36484]]]}},{"type":"Feature","properties":{"kind":"industrial"},"geometry":{"type":"Polygon","coordinates":[[[34.96839,29.37971],[34.96946,29.37987],[34.96904,29.37824],[34.96699,29.37852],[34.9665,29.38007],[34.96839,29.37971]]]}},{"type":"Feature","properties":{"kind":"industrial"},"geometry":{"type":"Polygon","coordinates":[[[35.22922,29.68462],[35.22858,29.68494],[35.22931,29.68619],[35.22893,29.68637],[35.22943,29.68729],[35.22805,29.68791],[35.2291,29.68983],[35.23252,29.68841],[35.23676,29.69433],[35.23959,29.69328],[35.23955,29.69096],[35.23315,29.67788],[35.23871,29.67513],[35.23197,29.6723],[35.22714,29.66932],[35.2253,29.67029],[35.22476,29.67328],[35.22223,29.67573],[35.22922,29.68462]]]}},{"type":"Feature","properties":{"kind":"industrial"},"geometry":{"type":"Polygon","coordinates":[[[35.01935,29.44289],[35.03111,29.44876],[35.03297,29.44717],[35.03394,29.44775],[35.03435,29.44721],[35.03353,29.4467],[35.03536,29.44396],[35.03677,29.44467],[35.03896,29.4439],[35.03999,29.44255],[35.03481,29.43939],[35.03448,29.43965],[35.02503,29.4351],[35.02438,29.43513],[35.01935,29.44289]]]}},{"type":"Feature","properties":{"kind":"industrial"},"geometry":{"type":"Polygon","coordinates":[[[35.8116,30.1619],[35.83597,30.14454],[35.82607,30.13391],[35.80691,30.14143],[35.80783,30.1507],[35.80761,30.16393],[35.8116,30.1619]]]}},{"type":"Feature","properties":{"kind":"industrial"},"geometry":{"type":"Polygon","coordinates":[[[35.0245,29.5592],[35.03106,29.56113],[35.03314,29.55909],[35.03231,29.55783],[35.02829,29.55496],[35.0245,29.5592]]]}},{"type":"Feature","properties":{"kind":"industrial"},"geometry":{"type":"Polygon","coordinates":[[[34.98612,29.38167],[34.98297,29.38214],[34.98136,29.38202],[34.98075,29.38256],[34.98586,29.38486],[34.98969,29.3837],[34.99145,29.38178],[34.98612,29.38167]]]}},{"type":"Feature","properties":{"kind":"industrial"},"geometry":{"type":"Polygon","coordinates":[[[34.98504,29.37423],[34.98485,29.37338],[34.98422,29.37312],[34.98479,29.37224],[34.98418,29.37118],[34.98305,29.37129],[34.98318,29.37472],[34.98504,29.37423]]]}},{"type":"Feature","properties":{"kind":"industrial"},"geometry":{"type":"Polygon","coordinates":[[[34.96874,29.382],[34.97129,29.38227],[34.97135,29.38169],[34.96643,29.38138],[34.96717,29.38252],[34.96851,29.38331],[34.96874,29.382]]]}},{"type":"Feature","properties":{"kind":"industrial"},"geometry":{"type":"Polygon","coordinates":[[[34.98559,29.40124],[34.9832,29.39879],[34.98259,29.39861],[34.98227,29.39911],[34.98478,29.4018],[34.98559,29.40124]]]}},{"type":"Feature","properties":{"kind":"industrial"},"geometry":{"type":"Polygon","coordinates":[[[34.98154,29.47561],[34.98158,29.47356],[34.98067,29.47427],[34.98055,29.47503],[34.98085,29.4758],[34.98154,29.47561]]]}},{"type":"Feature","properties":{"kind":"industrial"},"geometry":{"type":"Polygon","coordinates":[[[35.09188,29.50243],[35.09915,29.50812],[35.09862,29.50492],[35.09455,29.50181],[35.09293,29.49897],[35.09121,29.49877],[35.09188,29.50243]]]}},{"type":"Feature","properties":{"kind":"industrial"},"geometry":{"type":"Polygon","coordinates":[[[34.98031,29.56389],[34.98033,29.56037],[34.97987,29.56027],[34.97983,29.56068],[34.97926,29.56072],[34.97926,29.56386],[34.98031,29.56389]]]}},{"type":"Feature","properties":{"kind":"industrial"},"geometry":{"type":"Polygon","coordinates":[[[35.82529,30.17411],[35.83075,30.17238],[35.82939,30.16507],[35.82562,30.16786],[35.82453,30.16671],[35.81811,30.17159],[35.82067,30.17426],[35.82529,30.17411]]]}},{"type":"Feature","properties":{"kind":"industrial"},"geometry":{"type":"Polygon","coordinates":[[[34.96355,29.35987],[34.97046,29.35888],[34.97053,29.36117],[34.96342,29.36218],[34.96049,29.36613],[34.96043,29.36646],[34.96207,29.36674],[34.96197,29.36808],[34.96324,29.36811],[34.96305,29.36726],[34.96352,29.36612],[34.96735,29.36338],[34.9719,29.36307],[34.97511,29.36435],[34.97698,29.36447],[34.9779,29.36409],[34.97973,29.36198],[34.97959,29.36139],[34.97808,29.36014],[34.97795,29.35821],[34.97678,29.35737],[34.96442,29.35914],[34.96344,29.35939],[34.96355,29.35987]]]}},{"type":"Feature","properties":{"kind":"industrial"},"geometry":{"type":"Polygon","coordinates":[[[34.99197,29.36059],[34.99255,29.36149],[34.99402,29.36109],[34.99346,29.35999],[34.99197,29.36059]]]}},{"type":"Feature","properties":{"kind":"industrial"},"geometry":{"type":"Polygon","coordinates":[[[34.98092,29.35682],[34.9817,29.35594],[34.98166,29.35549],[34.97965,29.3559],[34.97958,29.35684],[34.98092,29.35682]]]}},{"type":"Feature","properties":{"kind":"industrial"},"geometry":{"type":"Polygon","coordinates":[[[34.97952,29.38171],[34.98141,29.38121],[34.98154,29.3793],[34.97931,29.37942],[34.97799,29.38047],[34.97952,29.38171]]]}},{"type":"Feature","properties":{"kind":"industrial"},"geometry":{"type":"Polygon","coordinates":[[[34.96783,29.39212],[34.96881,29.39081],[34.96841,29.3908],[34.96834,29.38986],[34.96798,29.38978],[34.96733,29.39157],[34.96734,29.39222],[34.96783,29.39212]]]}},{"type":"Feature","properties":{"kind":"industrial"},"geometry":{"type":"Polygon","coordinates":[[[34.96787,29.39534],[34.96822,29.39524],[34.96899,29.39278],[34.96964,29.39228],[34.96871,29.39163],[34.96859,29.39132],[34.96904,29.39111],[34.96881,29.39081],[34.96783,29.39212],[34.96734,29.39222],[34.96787,29.39534]]]}},{"type":"Feature","properties":{"kind":"industrial"},"geometry":{"type":"Polygon","coordinates":[[[34.97881,29.3677],[34.97884,29.36589],[34.97696,29.36587],[34.97693,29.36768],[34.97881,29.3677]]]}},{"type":"Feature","properties":{"kind":"industrial"},"geometry":{"type":"Polygon","coordinates":[[[34.97711,29.36987],[34.97717,29.36827],[34.97585,29.36823],[34.97579,29.36983],[34.97711,29.36987]]]}},{"type":"Feature","properties":{"kind":"industrial"},"geometry":{"type":"Polygon","coordinates":[[[34.97829,29.37004],[34.97871,29.36844],[34.97733,29.36829],[34.97731,29.37003],[34.97829,29.37004]]]}},{"type":"Feature","properties":{"kind":"industrial"},"geometry":{"type":"Polygon","coordinates":[[[34.97047,29.37997],[34.97443,29.38069],[34.97443,29.37813],[34.97097,29.37813],[34.97047,29.37997]]]}},{"type":"Feature","properties":{"kind":"industrial"},"geometry":{"type":"Polygon","coordinates":[[[34.96739,29.37642],[34.96695,29.37779],[34.97412,29.37776],[34.97412,29.37637],[34.96739,29.37642]]]}},{"type":"Feature","properties":{"kind":"industrial"},"geometry":{"type":"Polygon","coordinates":[[[34.96803,29.37343],[34.96849,29.37199],[34.9682,29.37098],[34.96524,29.37082],[34.9661,29.37245],[34.96557,29.37344],[34.96803,29.37343]]]}},{"type":"Feature","properties":{"kind":"industrial"},"geometry":{"type":"Polygon","coordinates":[[[34.96802,29.37348],[34.96756,29.37348],[34.96736,29.37392],[34.96781,29.37405],[34.96802,29.37348]]]}},{"type":"Feature","properties":{"kind":"industrial"},"geometry":{"type":"Polygon","coordinates":[[[34.97332,29.3614],[34.97341,29.36035],[34.97167,29.36059],[34.9716,29.36138],[34.97332,29.3614]]]}},{"type":"Feature","properties":{"kind":"industrial"},"geometry":{"type":"Polygon","coordinates":[[[34.9754,29.36147],[34.97545,29.36003],[34.97376,29.36037],[34.97371,29.36142],[34.9754,29.36147]]]}},{"type":"Feature","properties":{"kind":"industrial"},"geometry":{"type":"Polygon","coordinates":[[[34.97127,29.36024],[34.9758,29.35961],[34.97545,29.35764],[34.97083,29.35831],[34.97127,29.36024]]]}},{"type":"Feature","properties":{"kind":"industrial"},"geometry":{"type":"Polygon","coordinates":[[[34.9757,29.55026],[34.97321,29.55028],[34.97338,29.55279],[34.97561,29.55273],[34.9757,29.55026]]]}},{"type":"Feature","properties":{"kind":"industrial"},"geometry":{"type":"Polygon","coordinates":[[[34.98317,29.45705],[34.98178,29.45779],[34.98198,29.45938],[34.98262,29.45935],[34.98309,29.45851],[34.98436,29.45767],[34.98609,29.45715],[34.98549,29.4556],[34.98583,29.45531],[34.98287,29.452],[34.98018,29.45384],[34.98317,29.45705]]]}},{"type":"Feature","properties":{"kind":"port"},"geometry":{"type":"Polygon","coordinates":[[[34.99497,29.50071],[34.99298,29.50008],[34.99218,29.50034],[34.99214,29.502],[34.99243,29.5036],[34.99223,29.5034],[34.99348,29.50687],[34.99356,29.50825],[34.99327,29.50833],[34.99373,29.50972],[34.99666,29.51747],[34.99814,29.51702],[34.9972,29.51417],[34.99856,29.51451],[34.99936,29.51552],[34.99967,29.51533],[35.00003,29.51582],[34.99965,29.51731],[35.0001,29.51586],[35.00262,29.51435],[35.00175,29.51302],[35.00032,29.50801],[34.99965,29.50163],[34.99908,29.50069],[34.99808,29.50019],[34.99497,29.50071]]]}},{"type":"Feature","properties":{"kind":"tourism_areas"},"geometry":{"type":"Polygon","coordinates":[[[35.02098,29.54535],[35.01483,29.5398],[35.01353,29.53979],[35.01336,29.54082],[35.01468,29.54095],[35.02001,29.54571],[35.01996,29.54672],[35.02101,29.5466],[35.02098,29.54535]]]}},{"type":"Feature","properties":{"kind":"tourism_areas"},"geometry":{"type":"Polygon","coordinates":[[[35.00898,29.5298],[35.00999,29.52883],[35.00893,29.52978],[35.00898,29.5298]]]}},{"type":"Feature","properties":{"kind":"tourism_areas"},"geometry":{"type":"Polygon","coordinates":[[[35.02192,29.54547],[35.02226,29.54578],[35.02227,29.54533],[35.02192,29.54547]]]}},{"type":"Feature","properties":{"kind":"tourism_areas"},"geometry":{"type":"MultiPolygon","coordinates":[[[[35.01405,29.53861],[35.00873,29.53409],[35.01382,29.53882],[35.01405,29.53861]]],[[[35.00854,29.53402],[35.00829,29.53361],[35.00684,29.5325],[35.00691,29.53266],[35.00854,29.53402]]]]}},{"type":"Feature","properties":{"kind":"tourism_areas"},"geometry":{"type":"MultiPolygon","coordinates":[[[[34.98797,29.54785],[34.9884,29.5487],[34.98967,29.54886],[34.99137,29.548],[34.99138,29.54564],[34.99047,29.54432],[34.98936,29.54395],[34.989,29.54437],[34.98881,29.54503],[34.98922,29.54581],[34.98883,29.54721],[34.98797,29.54785]]],[[[34.99066,29.54971],[34.99185,29.54949],[34.99225,29.54915],[34.99185,29.5487],[34.99113,29.54904],[34.99064,29.54888],[34.99018,29.54938],[34.99066,29.54971]]]]}},{"type":"Feature","properties":{"kind":"tourism_areas"},"geometry":{"type":"Polygon","coordinates":[[[34.97629,29.45945],[34.97611,29.45845],[34.97463,29.45752],[34.97114,29.45257],[34.97041,29.44939],[34.96954,29.44826],[34.96782,29.44721],[34.96751,29.44655],[34.96762,29.44569],[34.96915,29.44452],[34.97003,29.44256],[34.97115,29.43661],[34.97368,29.434],[34.97459,29.43197],[34.97437,29.42924],[34.97321,29.42714],[34.97319,29.42542],[34.97219,29.42244],[34.97308,29.42091],[34.97279,29.41983],[34.97304,29.4185],[34.97463,29.41677],[34.97542,29.41467],[34.97748,29.41173],[34.97771,29.41076],[34.97732,29.40777],[34.97499,29.4053],[34.96958,29.40306],[34.96946,29.40257],[34.96678,29.40071],[34.96737,29.4008],[34.96677,29.3996],[34.96561,29.39919],[34.96614,29.39905],[34.96599,29.39863],[34.96515,29.39853],[34.96544,29.39797],[34.96449,29.39805],[34.96496,29.39786],[34.96395,29.39742],[34.95771,29.39759],[34.95941,29.39975],[34.96574,29.40465],[34.96602,29.40571],[34.97219,29.40809],[34.97324,29.40886],[34.97326,29.41079],[34.97142,29.41339],[34.9712,29.41456],[34.96998,29.41565],[34.96898,29.41732],[34.96848,29.41995],[34.96763,29.42183],[34.969,29.42601],[34.96919,29.42852],[34.97045,29.43117],[34.96997,29.4322],[34.96866,29.43323],[34.96726,29.43513],[34.96541,29.44263],[34.96335,29.44373],[34.9631,29.44689],[34.96425,29.44933],[34.96652,29.45095],[34.96692,29.45367],[34.9712,29.4594],[34.97629,29.45945]]]}},{"type":"Feature","properties":{"kind":"tourism_areas"},"geometry":{"type":"Polygon","coordinates":[[[35.00141,29.53203],[35.00114,29.53144],[35.00099,29.53153],[35.00141,29.53203]]]}},{"type":"Feature","properties":{"kind":"tourism_areas"},"geometry":{"type":"Polygon","coordinates":[[[35.00145,29.52826],[35.00203,29.52381],[35.00088,29.52268],[35.00128,29.52365],[35.00064,29.52771],[35.00145,29.52826]]]}},{"type":"Feature","properties":{"kind":"tourism_areas"},"geometry":{"type":"Polygon","coordinates":[[[34.99843,29.53102],[34.99818,29.53076],[34.9989,29.53002],[34.99856,29.52989],[34.99779,29.53072],[34.99843,29.53102]]]}},{"type":"Feature","properties":{"kind":"tourism_areas"},"geometry":{"type":"Polygon","coordinates":[[[35.00279,29.53177],[35.00285,29.53214],[35.00304,29.53197],[35.00279,29.53177]]]}},{"type":"Feature","properties":{"kind":"tourism_areas"},"geometry":{"type":"Polygon","coordinates":[[[35.00383,29.53023],[35.00344,29.52988],[35.00315,29.53014],[35.00354,29.53048],[35.00383,29.53023]]]}},{"type":"Feature","properties":{"kind":"tourism_areas"},"geometry":{"type":"Polygon","coordinates":[[[34.98751,29.57669],[34.98897,29.56898],[34.98199,29.5683],[34.98118,29.57293],[34.98302,29.57314],[34.98351,29.57572],[34.98751,29.57669]]]}},{"type":"Feature","properties":{"kind":"tourism_areas"},"geometry":{"type":"Polygon","coordinates":[[[35.00533,29.52766],[35.00484,29.52657],[35.00389,29.52689],[35.00424,29.52798],[35.00533,29.52766]]]}},{"type":"Feature","properties":{"kind":"tourism_areas"},"geometry":{"type":"Polygon","coordinates":[[[35.00265,29.53485],[35.00266,29.53405],[35.00118,29.53404],[35.00117,29.53485],[35.00265,29.53485]]]}},{"type":"Feature","properties":{"kind":"tourism_areas"},"geometry":{"type":"Polygon","coordinates":[[[35.00289,29.52957],[35.0058,29.53168],[35.00594,29.53155],[35.0029,29.52909],[35.00289,29.52957]]]}},{"type":"Feature","properties":{"kind":"tourism_areas"},"geometry":{"type":"Polygon","coordinates":[[[35.00125,29.52166],[35.00173,29.52159],[35.0013,29.52149],[35.00125,29.52166]]]}},{"type":"Feature","properties":{"kind":"tourism_areas"},"geometry":{"type":"Polygon","coordinates":[[[35.00233,29.51974],[35.00183,29.51974],[35.00179,29.52079],[35.00234,29.52079],[35.00233,29.51974]]]}},{"type":"Feature","properties":{"kind":"tourism_areas"},"geometry":{"type":"Polygon","coordinates":[[[34.97642,29.45792],[34.97694,29.45849],[34.97708,29.45838],[34.97682,29.45784],[34.97642,29.45792]]]}},{"type":"Feature","properties":{"kind":"tourism_areas"},"geometry":{"type":"Polygon","coordinates":[[[35.00542,29.5341],[35.00514,29.53954],[35.00563,29.53969],[35.00567,29.53639],[35.00651,29.53642],[35.00708,29.53533],[35.00576,29.53523],[35.00575,29.53412],[35.00542,29.5341]]]}},{"type":"Feature","properties":{"kind":"tourism_areas"},"geometry":{"type":"Polygon","coordinates":[[[34.99648,29.53368],[34.99562,29.53215],[34.99361,29.53326],[34.99484,29.53477],[34.99648,29.53368]]]}},{"type":"Feature","properties":{"kind":"tourism_areas"},"geometry":{"type":"Polygon","coordinates":[[[34.99739,29.53149],[34.997,29.53233],[34.99728,29.53261],[34.99755,29.53226],[34.99739,29.53149]]]}},{"type":"Feature","properties":{"kind":"tourism_areas"},"geometry":{"type":"Polygon","coordinates":[[[35.00167,29.52768],[35.00173,29.5288],[35.00175,29.52768],[35.00167,29.52768]]]}},{"type":"Feature","properties":{"kind":"tourism_areas"},"geometry":{"type":"Polygon","coordinates":[[[35.00174,29.52754],[35.00189,29.525],[35.00285,29.52241],[35.00317,29.52097],[35.00173,29.52543],[35.00174,29.52754]]]}},{"type":"Feature","properties":{"kind":"tourism_areas"},"geometry":{"type":"Polygon","coordinates":[[[35.02071,29.60987],[35.0207,29.60953],[35.02066,29.6095],[35.02071,29.60987]]]}},{"type":"Feature","properties":{"kind":"tourism_areas"},"geometry":{"type":"Polygon","coordinates":[[[35.0205,29.60894],[35.02029,29.6087],[35.02044,29.60899],[35.0205,29.60894]]]}},{"type":"Feature","properties":{"kind":"tourism_areas"},"geometry":{"type":"Polygon","coordinates":[[[35.02095,29.61024],[35.02073,29.60997],[35.02089,29.6103],[35.02095,29.61024]]]}},{"type":"Feature","properties":{"kind":"tourism_areas"},"geometry":{"type":"Polygon","coordinates":[[[35.0209,29.61043],[35.02109,29.61063],[35.02096,29.61037],[35.0209,29.61043]]]}},{"type":"Feature","properties":{"kind":"tourism_areas"},"geometry":{"type":"Polygon","coordinates":[[[35.02077,29.60842],[35.02078,29.60831],[35.0202,29.60849],[35.02077,29.60842]]]}},{"type":"Feature","properties":{"kind":"tourism_areas"},"geometry":{"type":"Polygon","coordinates":[[[35.01928,29.60404],[35.01932,29.60405],[35.01931,29.60403],[35.01928,29.60404]]]}},{"type":"Feature","properties":{"kind":"tourism_areas"},"geometry":{"type":"Polygon","coordinates":[[[34.99554,29.53225],[34.99406,29.5331],[34.99361,29.53326],[34.99397,29.53352],[34.99554,29.53225]]]}},{"type":"Feature","properties":{"kind":"tourism_areas"},"geometry":{"type":"Polygon","coordinates":[[[35.45847,30.29129],[35.45786,30.29072],[35.45685,30.29144],[35.45732,30.29217],[35.45847,30.29129]]]}},{"type":"Feature","properties":{"kind":"tourism_areas"},"geometry":{"type":"Polygon","coordinates":[[[35.45576,30.28952],[35.45728,30.28918],[35.45691,30.28743],[35.45625,30.28799],[35.45576,30.28952]]]}},{"type":"Feature","properties":{"kind":"tourism_areas"},"geometry":{"type":"Polygon","coordinates":[[[34.98167,29.42986],[34.98174,29.42871],[34.98017,29.42837],[34.97889,29.42856],[34.97912,29.42975],[34.98167,29.42986]]]}},{"type":"Feature","properties":{"kind":"tourism_areas"},"geometry":{"type":"Polygon","coordinates":[[[34.97565,29.42578],[34.97561,29.42509],[34.97526,29.42504],[34.97512,29.4257],[34.97565,29.42578]]]}},{"type":"Feature","properties":{"kind":"tourism_areas"},"geometry":{"type":"Polygon","coordinates":[[[34.97546,29.42959],[34.97556,29.42988],[34.97566,29.4298],[34.97546,29.42959]]]}},{"type":"Feature","properties":{"kind":"tourism_areas"},"geometry":{"type":"Polygon","coordinates":[[[34.99521,29.53549],[34.99607,29.53656],[34.9963,29.5364],[34.99525,29.53535],[34.99462,29.53578],[34.99521,29.53549]]]}},{"type":"Feature","properties":{"kind":"tourism_areas"},"geometry":{"type":"Polygon","coordinates":[[[35.44962,30.3],[35.44557,30.29579],[35.44363,30.27073],[35.42505,30.2571],[35.37598,30.25292],[35.34455,30.27147],[35.30177,30.27915],[35.28149,30.29354],[35.27798,30.3],[35.44962,30.3]]]}},{"type":"Feature","properties":{"kind":"tourism_areas"},"geometry":{"type":"Polygon","coordinates":[[[35.00072,29.55743],[35.00074,29.55685],[34.99847,29.55687],[34.99849,29.55742],[35.00072,29.55743]]]}},{"type":"Feature","properties":{"kind":"tourism_areas"},"geometry":{"type":"Polygon","coordinates":[[[35.00877,29.53013],[35.01505,29.53616],[35.01511,29.53753],[35.01426,29.53854],[35.01472,29.53891],[35.01576,29.5375],[35.01551,29.53581],[35.01119,29.53181],[35.00877,29.53013]]]}},{"type":"Feature","properties":{"kind":"tourism_areas"},"geometry":{"type":"Polygon","coordinates":[[[34.99822,29.53117],[34.9979,29.53084],[34.99766,29.53102],[34.99798,29.53133],[34.99822,29.53117]]]}},{"type":"Feature","properties":{"kind":"tourism_areas"},"geometry":{"type":"Polygon","coordinates":[[[35.00135,29.51928],[35.0016,29.5184],[35.00139,29.51836],[35.00135,29.51928]]]}},{"type":"Feature","properties":{"kind":"tourism_areas"},"geometry":{"type":"Polygon","coordinates":[[[35.00272,29.5186],[35.00226,29.51855],[35.00219,29.51911],[35.00275,29.51903],[35.00272,29.5186]]]}},{"type":"Feature","properties":{"kind":"tourism_areas"},"geometry":{"type":"Polygon","coordinates":[[[35.00265,29.51652],[35.00182,29.51651],[35.0025,29.51845],[35.00265,29.51652]]]}},{"type":"Feature","properties":{"kind":"tourism_areas"},"geometry":{"type":"Polygon","coordinates":[[[35.00204,29.51907],[35.00224,29.5181],[35.00203,29.51779],[35.00174,29.51901],[35.00204,29.51907]]]}},{"type":"Feature","properties":{"kind":"tourism_areas"},"geometry":{"type":"Polygon","coordinates":[[[35.00243,29.51963],[35.00248,29.52075],[35.00292,29.52088],[35.00284,29.51958],[35.00243,29.51963]]]}},{"type":"Feature","properties":{"kind":"tourism_areas"},"geometry":{"type":"Polygon","coordinates":[[[35.00044,29.51571],[35.00119,29.51657],[35.00166,29.51656],[35.00147,29.51583],[35.00186,29.51554],[35.00126,29.51513],[35.00044,29.51571]]]}},{"type":"Feature","properties":{"kind":"tourism_areas"},"geometry":{"type":"Polygon","coordinates":[[[34.97867,29.41438],[34.97987,29.41204],[34.97793,29.41188],[34.97674,29.41393],[34.97867,29.41438]]]}},{"type":"Feature","properties":{"kind":"tourism_areas"},"geometry":{"type":"Polygon","coordinates":[[[35.00332,29.55478],[35.00332,29.55573],[35.00382,29.55573],[35.00383,29.55479],[35.00332,29.55478]]]}},{"type":"Feature","properties":{"kind":"tourism_areas"},"geometry":{"type":"Polygon","coordinates":[[[35.50884,29.63574],[35.50937,29.63617],[35.51078,29.63572],[35.51061,29.63488],[35.50884,29.63574]]]}},{"type":"Feature","properties":{"kind":"tourism_areas"},"geometry":{"type":"Polygon","coordinates":[[[34.98161,29.4271],[34.98138,29.42762],[34.98187,29.4278],[34.98161,29.4271]]]}},{"type":"Feature","properties":{"kind":"tourism_areas"},"geometry":{"type":"Polygon","coordinates":[[[34.97526,29.42504],[34.97475,29.42496],[34.97462,29.42552],[34.97514,29.42561],[34.97526,29.42504]]]}},{"type":"Feature","properties":{"kind":"tourism_areas"},"geometry":{"type":"Polygon","coordinates":[[[34.97813,29.41393],[34.97812,29.41364],[34.97806,29.41391],[34.97813,29.41393]]]}},{"type":"Feature","properties":{"kind":"tourism_areas"},"geometry":{"type":"Polygon","coordinates":[[[35.41152,29.55898],[35.41155,29.55899],[35.41152,29.55897],[35.41152,29.55898]]]}},{"type":"Feature","properties":{"kind":"tourism_areas"},"geometry":{"type":"Polygon","coordinates":[[[34.97493,29.42489],[34.97528,29.42495],[34.97542,29.42444],[34.97492,29.42413],[34.97493,29.42489]]]}},{"type":"Feature","properties":{"kind":"tourism_areas"},"geometry":{"type":"Polygon","coordinates":[[[34.97554,29.42499],[34.97595,29.42482],[34.97596,29.42459],[34.9754,29.42448],[34.97554,29.42499]]]}},{"type":"Feature","properties":{"kind":"tourism_areas"},"geometry":{"type":"Polygon","coordinates":[[[34.97901,29.42657],[34.97927,29.42598],[34.97864,29.42589],[34.97841,29.42637],[34.97901,29.42657]]]}},{"type":"Feature","properties":{"kind":"tourism_areas"},"geometry":{"type":"Polygon","coordinates":[[[34.98078,29.42721],[34.98108,29.42653],[34.9808,29.42638],[34.98047,29.4271],[34.98078,29.42721]]]}},{"type":"Feature","properties":{"kind":"tourism_areas"},"geometry":{"type":"Polygon","coordinates":[[[34.98184,29.42639],[34.98146,29.42669],[34.98182,29.42702],[34.98221,29.42666],[34.98184,29.42639]]]}},{"type":"Feature","properties":{"kind":"tourism_areas"},"geometry":{"type":"Polygon","coordinates":[[[34.98207,29.42731],[34.9825,29.42687],[34.98221,29.42666],[34.98182,29.42702],[34.98207,29.42731]]]}},{"type":"Feature","properties":{"kind":"tourism_areas"},"geometry":{"type":"Polygon","coordinates":[[[34.98107,29.42732],[34.98145,29.42745],[34.98131,29.42682],[34.98107,29.42732]]]}},{"type":"Feature","properties":{"kind":"tourism_areas"},"geometry":{"type":"Polygon","coordinates":[[[35.73891,30.19185],[35.73879,30.19298],[35.73925,30.19322],[35.74009,30.19269],[35.74111,30.19278],[35.74065,30.19151],[35.73891,30.19185]]]}},{"type":"Feature","properties":{"kind":"tourism_areas"},"geometry":{"type":"Polygon","coordinates":[[[35.01543,29.54669],[35.01567,29.54648],[35.01543,29.54648],[35.01543,29.54669]]]}},{"type":"Feature","properties":{"kind":"tourism_areas"},"geometry":{"type":"Polygon","coordinates":[[[35.01339,29.54653],[35.01361,29.54649],[35.0134,29.54647],[35.01339,29.54653]]]}},{"type":"Feature","properties":{"kind":"tourism_areas"},"geometry":{"type":"Polygon","coordinates":[[[35.01336,29.54489],[35.01363,29.54467],[35.01336,29.54467],[35.01336,29.54489]]]}},{"type":"Feature","properties":{"kind":"tourism_areas"},"geometry":{"type":"Polygon","coordinates":[[[35.01541,29.54489],[35.01564,29.5447],[35.01541,29.54468],[35.01541,29.54489]]]}},{"type":"Feature","properties":{"kind":"tourism_areas"},"geometry":{"type":"Polygon","coordinates":[[[35.0039,29.55736],[35.00625,29.55733],[35.00902,29.55471],[35.00897,29.5503],[35.00616,29.54705],[35.00536,29.54735],[35.00538,29.54899],[35.00644,29.54899],[35.00646,29.55046],[35.00592,29.55046],[35.00592,29.55101],[35.00537,29.55101],[35.00533,29.55231],[35.00536,29.55326],[35.00641,29.55325],[35.00642,29.55473],[35.00532,29.55474],[35.00532,29.55678],[35.00389,29.55688],[35.0039,29.55736]]]}},{"type":"Feature","properties":{"kind":"tourism_areas"},"geometry":{"type":"Polygon","coordinates":[[[35.01345,29.54677],[35.01838,29.54685],[35.01839,29.54683],[35.01345,29.54677]]]}},{"type":"Feature","properties":{"kind":"tourism_areas"},"geometry":{"type":"Polygon","coordinates":[[[35.0186,29.54684],[35.02101,29.5468],[35.0186,29.54678],[35.0186,29.54684]]]}},{"type":"Feature","properties":{"kind":"tourism_areas"},"geometry":{"type":"Polygon","coordinates":[[[35.01368,29.54717],[35.01396,29.54693],[35.01368,29.54692],[35.01368,29.54717]]]}},{"type":"Feature","properties":{"kind":"tourism_areas"},"geometry":{"type":"Polygon","coordinates":[[[35.01318,29.55191],[35.01323,29.55412],[35.01321,29.55188],[35.01318,29.55191]]]}},{"type":"Feature","properties":{"kind":"tourism_areas"},"geometry":{"type":"Polygon","coordinates":[[[35.01316,29.55172],[35.01324,29.54945],[35.01321,29.54944],[35.01316,29.55172]]]}},{"type":"Feature","properties":{"kind":"tourism_areas"},"geometry":{"type":"Polygon","coordinates":[[[35.01316,29.54703],[35.01324,29.54924],[35.01319,29.54702],[35.01316,29.54703]]]}},{"type":"Feature","properties":{"kind":"tourism_areas"},"geometry":{"type":"Polygon","coordinates":[[[35.01858,29.55428],[35.01857,29.55431],[35.02099,29.5543],[35.01858,29.55428]]]}},{"type":"Feature","properties":{"kind":"tourism_areas"},"geometry":{"type":"Polygon","coordinates":[[[35.01598,29.5543],[35.01835,29.55429],[35.01598,29.55428],[35.01598,29.5543]]]}},{"type":"Feature","properties":{"kind":"tourism_areas"},"geometry":{"type":"Polygon","coordinates":[[[35.01254,29.56708],[35.01268,29.56658],[35.01009,29.56661],[35.01009,29.56705],[35.01254,29.56708]]]}},{"type":"Feature","properties":{"kind":"tourism_areas"},"geometry":{"type":"Polygon","coordinates":[[[35.00993,29.56659],[35.00658,29.5666],[35.00657,29.56679],[35.0099,29.56704],[35.00993,29.56659]]]}},{"type":"Feature","properties":{"kind":"tourism_areas"},"geometry":{"type":"Polygon","coordinates":[[[35.00608,29.56703],[35.00626,29.5666],[35.00417,29.5666],[35.00418,29.56703],[35.00608,29.56703]]]}},{"type":"Feature","properties":{"kind":"tourism_areas"},"geometry":{"type":"Polygon","coordinates":[[[35.00393,29.5666],[35.00133,29.56661],[34.99854,29.56426],[35.00119,29.56688],[35.00393,29.56705],[35.00393,29.5666]]]}},{"type":"Feature","properties":{"kind":"tourism_areas"},"geometry":{"type":"Polygon","coordinates":[[[35.02026,29.54831],[35.02026,29.54799],[35.01924,29.54799],[35.01924,29.54832],[35.02026,29.54831]]]}},{"type":"Feature","properties":{"kind":"tourism_areas"},"geometry":{"type":"Polygon","coordinates":[[[35.01511,29.55075],[35.01512,29.5504],[35.01408,29.55039],[35.01407,29.55075],[35.01511,29.55075]]]}},{"type":"Feature","properties":{"kind":"tourism_areas"},"geometry":{"type":"Polygon","coordinates":[[[35.02029,29.55077],[35.02031,29.55039],[35.01919,29.55037],[35.01918,29.55076],[35.02029,29.55077]]]}},{"type":"Feature","properties":{"kind":"tourism_areas"},"geometry":{"type":"Polygon","coordinates":[[[35.01772,29.54833],[35.01772,29.54797],[35.01665,29.54795],[35.01664,29.54832],[35.01772,29.54833]]]}},{"type":"Feature","properties":{"kind":"tourism_areas"},"geometry":{"type":"Polygon","coordinates":[[[35.01512,29.54834],[35.01513,29.54797],[35.01403,29.54796],[35.01402,29.54833],[35.01512,29.54834]]]}},{"type":"Feature","properties":{"kind":"tourism_areas"},"geometry":{"type":"Polygon","coordinates":[[[35.01964,29.54666],[35.01973,29.54579],[35.01921,29.54538],[35.01858,29.54596],[35.01784,29.54597],[35.01783,29.54666],[35.01964,29.54666]]]}},{"type":"Feature","properties":{"kind":"tourism_areas"},"geometry":{"type":"Polygon","coordinates":[[[35.01345,29.54322],[35.01439,29.54312],[35.01439,29.54208],[35.01492,29.5416],[35.01446,29.54113],[35.01336,29.54113],[35.01345,29.54322]]]}},{"type":"Feature","properties":{"kind":"tourism_areas"},"geometry":{"type":"Polygon","coordinates":[[[35.00512,29.54654],[35.00513,29.54386],[35.004,29.54374],[35.00399,29.54656],[35.00512,29.54654]]]}},{"type":"Feature","properties":{"kind":"tourism_areas"},"geometry":{"type":"Polygon","coordinates":[[[35.00367,29.54709],[35.00366,29.54675],[35.00241,29.54675],[35.00242,29.54709],[35.00367,29.54709]]]}},{"type":"Feature","properties":{"kind":"tourism_areas"},"geometry":{"type":"Polygon","coordinates":[[[35.0046,29.54717],[35.0059,29.54691],[35.0063,29.54645],[35.00632,29.54406],[35.00533,29.54407],[35.0053,29.54656],[35.00454,29.54671],[35.0046,29.54717]]]}},{"type":"Feature","properties":{"kind":"tourism_areas"},"geometry":{"type":"Polygon","coordinates":[[[35.01341,29.54869],[35.01364,29.54835],[35.01341,29.54835],[35.01341,29.54869]]]}},{"type":"Feature","properties":{"kind":"tourism_areas"},"geometry":{"type":"Polygon","coordinates":[[[35.00764,29.54753],[35.00765,29.54728],[35.00722,29.54744],[35.00722,29.54685],[35.00675,29.54694],[35.00682,29.54752],[35.00795,29.5485],[35.00855,29.54807],[35.00853,29.54753],[35.00764,29.54753]]]}},{"type":"Feature","properties":{"kind":"tourism_areas"},"geometry":{"type":"Polygon","coordinates":[[[35.00633,29.54222],[35.00632,29.54014],[35.00558,29.53999],[35.00543,29.54222],[35.00633,29.54222]]]}},{"type":"Feature","properties":{"kind":"tourism_areas"},"geometry":{"type":"Polygon","coordinates":[[[35.00937,29.55427],[35.01103,29.55432],[35.01103,29.5543],[35.00937,29.55427]]]}},{"type":"Feature","properties":{"kind":"tourism_areas"},"geometry":{"type":"Polygon","coordinates":[[[35.02722,29.55],[35.02855,29.54886],[35.0258,29.54683],[35.02477,29.54782],[35.02722,29.55]]]}},{"type":"Feature","properties":{"kind":"tourism_areas"},"geometry":{"type":"Polygon","coordinates":[[[35.01044,29.54773],[35.01127,29.54746],[35.01128,29.54686],[35.01042,29.54696],[35.01044,29.54773]]]}},{"type":"Feature","properties":{"kind":"tourism_areas"},"geometry":{"type":"Polygon","coordinates":[[[35.00292,29.54286],[35.00329,29.54285],[35.00331,29.54239],[35.0029,29.54239],[35.00292,29.54286]]]}},{"type":"Feature","properties":{"kind":"tourism_areas"},"geometry":{"type":"Polygon","coordinates":[[[35.00037,29.54155],[35.00036,29.54073],[35.00003,29.54072],[34.99998,29.54155],[35.00037,29.54155]]]}},{"type":"Feature","properties":{"kind":"tourism_areas"},"geometry":{"type":"Polygon","coordinates":[[[35.00286,29.54154],[35.00288,29.54072],[35.00139,29.54072],[35.00139,29.54153],[35.00286,29.54154]]]}},{"type":"Feature","properties":{"kind":"tourism_areas"},"geometry":{"type":"Polygon","coordinates":[[[35.00365,29.54109],[35.00365,29.54071],[35.00322,29.54071],[35.00322,29.54109],[35.00365,29.54109]]]}},{"type":"Feature","properties":{"kind":"tourism_areas"},"geometry":{"type":"Polygon","coordinates":[[[35.00462,29.54147],[35.00504,29.54128],[35.00461,29.54128],[35.00462,29.54147]]]}},{"type":"Feature","properties":{"kind":"tourism_areas"},"geometry":{"type":"Polygon","coordinates":[[[35.00503,29.54055],[35.00516,29.54047],[35.00503,29.53999],[35.00503,29.54055]]]}},{"type":"Feature","properties":{"kind":"tourism_areas"},"geometry":{"type":"Polygon","coordinates":[[[35.00072,29.54055],[35.00072,29.53995],[34.99984,29.53996],[34.99985,29.54055],[35.00072,29.54055]]]}},{"type":"Feature","properties":{"kind":"tourism_areas"},"geometry":{"type":"Polygon","coordinates":[[[34.99909,29.54126],[34.99894,29.54066],[34.99849,29.54066],[34.99843,29.54127],[34.99909,29.54126]]]}},{"type":"Feature","properties":{"kind":"tourism_areas"},"geometry":{"type":"Polygon","coordinates":[[[35.0211,29.54524],[35.02114,29.54672],[35.02116,29.54672],[35.02147,29.54558],[35.0211,29.54524]]]}},{"type":"Feature","properties":{"kind":"tourism_areas"},"geometry":{"type":"Polygon","coordinates":[[[35.00674,29.54666],[35.00713,29.54672],[35.00876,29.54671],[35.00674,29.54666]]]}},{"type":"Feature","properties":{"kind":"tourism_areas"},"geometry":{"type":"Polygon","coordinates":[[[35.00893,29.54668],[35.00938,29.54673],[35.0111,29.54672],[35.00893,29.54668]]]}},{"type":"Feature","properties":{"kind":"tourism_areas"},"geometry":{"type":"Polygon","coordinates":[[[35.01284,29.54679],[35.01128,29.54668],[35.01127,29.54669],[35.01284,29.54679]]]}},{"type":"Feature","properties":{"kind":"tourism_areas"},"geometry":{"type":"Polygon","coordinates":[[[35.01321,29.54532],[35.01324,29.54494],[35.01327,29.54213],[35.01321,29.54532]]]}},{"type":"Feature","properties":{"kind":"tourism_areas"},"geometry":{"type":"Polygon","coordinates":[[[35.01319,29.54197],[35.01326,29.54002],[35.01324,29.54001],[35.01319,29.54197]]]}},{"type":"Feature","properties":{"kind":"tourism_areas"},"geometry":{"type":"Polygon","coordinates":[[[35.02225,29.58327],[35.02138,29.58335],[35.02248,29.58562],[35.02303,29.58551],[35.02225,29.58327]]]}},{"type":"Feature","properties":{"kind":"tourism_areas"},"geometry":{"type":"Polygon","coordinates":[[[35.02405,29.58386],[35.02454,29.58484],[35.02367,29.58532],[35.02465,29.58508],[35.02415,29.58361],[35.02322,29.58387],[35.02405,29.58386]]]}},{"type":"Feature","properties":{"kind":"tourism_areas"},"geometry":{"type":"Polygon","coordinates":[[[35.00019,29.5348],[35.00019,29.53449],[34.99935,29.53448],[34.99934,29.5348],[35.00019,29.5348]]]}},{"type":"Feature","properties":{"kind":"tourism_areas"},"geometry":{"type":"Polygon","coordinates":[[[35.00681,29.53156],[35.00844,29.53024],[35.00843,29.53022],[35.00681,29.53156]]]}},{"type":"Feature","properties":{"kind":"tourism_areas"},"geometry":{"type":"Polygon","coordinates":[[[35.00828,29.52937],[35.00713,29.52828],[35.00673,29.52851],[35.00806,29.5297],[35.00828,29.52937]]]}},{"type":"Feature","properties":{"kind":"tourism_areas"},"geometry":{"type":"Polygon","coordinates":[[[35.01599,29.54636],[35.01711,29.54648],[35.0171,29.54597],[35.01591,29.54592],[35.01599,29.54636]]]}},{"type":"Feature","properties":{"kind":"tourism_areas"},"geometry":{"type":"Polygon","coordinates":[[[35.0146,29.54289],[35.01487,29.54253],[35.01461,29.54249],[35.0146,29.54289]]]}},{"type":"Feature","properties":{"kind":"tourism_areas"},"geometry":{"type":"Polygon","coordinates":[[[35.01369,29.54541],[35.0137,29.5454],[35.01369,29.54535],[35.01369,29.54541]]]}},{"type":"Feature","properties":{"kind":"tourism_areas"},"geometry":{"type":"Polygon","coordinates":[[[35.01365,29.5452],[35.01368,29.54511],[35.01365,29.54511],[35.01365,29.5452]]]}},{"type":"Feature","properties":{"kind":"tourism_areas"},"geometry":{"type":"Polygon","coordinates":[[[35.01402,29.5453],[35.01393,29.54522],[35.01393,29.54538],[35.01402,29.5453]]]}},{"type":"Feature","properties":{"kind":"tourism_areas"},"geometry":{"type":"Polygon","coordinates":[[[35.01361,29.54548],[35.01356,29.54544],[35.01356,29.54547],[35.01361,29.54548]]]}},{"type":"Feature","properties":{"kind":"tourism_areas"},"geometry":{"type":"Polygon","coordinates":[[[35.01355,29.54567],[35.0137,29.54564],[35.01355,29.54564],[35.01355,29.54567]]]}},{"type":"Feature","properties":{"kind":"tourism_areas"},"geometry":{"type":"Polygon","coordinates":[[[35.0137,29.54528],[35.01369,29.54527],[35.01369,29.5453],[35.0137,29.54528]]]}},{"type":"Feature","properties":{"kind":"tourism_areas"},"geometry":{"type":"Polygon","coordinates":[[[35.01403,29.54531],[35.01403,29.54532],[35.01416,29.54543],[35.01403,29.54531]]]}},{"type":"Feature","properties":{"kind":"tourism_areas"},"geometry":{"type":"Polygon","coordinates":[[[35.01385,29.54523],[35.01377,29.54506],[35.01369,29.54511],[35.01385,29.54523]]]}},{"type":"Feature","properties":{"kind":"tourism_areas"},"geometry":{"type":"Polygon","coordinates":[[[35.01472,29.54565],[35.01471,29.54545],[35.01457,29.54546],[35.01472,29.54565]]]}},{"type":"Feature","properties":{"kind":"tourism_areas"},"geometry":{"type":"Polygon","coordinates":[[[35.01428,29.54602],[35.01433,29.54593],[35.01412,29.54607],[35.01428,29.54602]]]}},{"type":"Feature","properties":{"kind":"tourism_areas"},"geometry":{"type":"Polygon","coordinates":[[[35.01408,29.54611],[35.01399,29.54619],[35.01415,29.54617],[35.01408,29.54611]]]}},{"type":"Feature","properties":{"kind":"tourism_areas"},"geometry":{"type":"Polygon","coordinates":[[[35.01456,29.5462],[35.01483,29.54618],[35.01456,29.54619],[35.01456,29.5462]]]}},{"type":"Feature","properties":{"kind":"tourism_areas"},"geometry":{"type":"Polygon","coordinates":[[[35.01341,29.546],[35.01371,29.54586],[35.01371,29.5458],[35.01341,29.546]]]}},{"type":"Feature","properties":{"kind":"tourism_areas"},"geometry":{"type":"Polygon","coordinates":[[[35.01339,29.546],[35.01341,29.5457],[35.01339,29.5457],[35.01339,29.546]]]}},{"type":"Feature","properties":{"kind":"tourism_areas"},"geometry":{"type":"Polygon","coordinates":[[[35.01338,29.54537],[35.0134,29.54538],[35.01342,29.54536],[35.01338,29.54537]]]}},{"type":"Feature","properties":{"kind":"tourism_areas"},"geometry":{"type":"Polygon","coordinates":[[[35.01535,29.54514],[35.01546,29.54515],[35.01538,29.54509],[35.01535,29.54514]]]}},{"type":"Feature","properties":{"kind":"tourism_areas"},"geometry":{"type":"Polygon","coordinates":[[[35.01566,29.54496],[35.01568,29.54493],[35.01545,29.54496],[35.01566,29.54496]]]}},{"type":"Feature","properties":{"kind":"tourism_areas"},"geometry":{"type":"Polygon","coordinates":[[[35.01422,29.54542],[35.01418,29.54519],[35.01393,29.54513],[35.01422,29.54542]]]}},{"type":"Feature","properties":{"kind":"tourism_areas"},"geometry":{"type":"Polygon","coordinates":[[[35.01489,29.54522],[35.01496,29.54527],[35.015,29.5452],[35.01489,29.54522]]]}},{"type":"Feature","properties":{"kind":"tourism_areas"},"geometry":{"type":"Polygon","coordinates":[[[35.01512,29.54513],[35.01505,29.54513],[35.01501,29.54521],[35.01512,29.54513]]]}},{"type":"Feature","properties":{"kind":"tourism_areas"},"geometry":{"type":"Polygon","coordinates":[[[35.01488,29.55554],[35.01497,29.55455],[35.01451,29.55447],[35.01451,29.5555],[35.01488,29.55554]]]}},{"type":"Feature","properties":{"kind":"tourism_areas"},"geometry":{"type":"Polygon","coordinates":[[[35.01286,29.55443],[35.01129,29.55441],[35.01121,29.55493],[35.0125,29.55499],[35.01286,29.55537],[35.01286,29.55443]]]}},{"type":"Feature","properties":{"kind":"tourism_areas"},"geometry":{"type":"Polygon","coordinates":[[[35.01192,29.55516],[35.01242,29.5551],[35.01192,29.55512],[35.01192,29.55516]]]}},{"type":"Feature","properties":{"kind":"tourism_areas"},"geometry":{"type":"Polygon","coordinates":[[[35.00797,29.55748],[35.00901,29.55659],[35.00848,29.556],[35.00733,29.55693],[35.00797,29.55748]]]}},{"type":"Feature","properties":{"kind":"tourism_areas"},"geometry":{"type":"Polygon","coordinates":[[[35.00853,29.55585],[35.00921,29.55641],[35.01008,29.55549],[35.01025,29.55443],[35.00938,29.55443],[35.00853,29.55585]]]}},{"type":"Feature","properties":{"kind":"tourism_areas"},"geometry":{"type":"Polygon","coordinates":[[[35.01706,29.54907],[35.01733,29.54889],[35.01706,29.54889],[35.01706,29.54907]]]}},{"type":"Feature","properties":{"kind":"tourism_areas"},"geometry":{"type":"Polygon","coordinates":[[[35.016,29.54864],[35.01621,29.54836],[35.01601,29.54836],[35.016,29.54864]]]}},{"type":"Feature","properties":{"kind":"tourism_areas"},"geometry":{"type":"Polygon","coordinates":[[[35.01841,29.54906],[35.01841,29.54853],[35.01782,29.54853],[35.01783,29.54879],[35.01841,29.54906]]]}},{"type":"Feature","properties":{"kind":"tourism_areas"},"geometry":{"type":"Polygon","coordinates":[[[35.01862,29.54926],[35.01905,29.54911],[35.01862,29.5491],[35.01862,29.54926]]]}},{"type":"Feature","properties":{"kind":"tourism_areas"},"geometry":{"type":"Polygon","coordinates":[[[35.01344,29.54452],[35.01379,29.54454],[35.01378,29.54376],[35.01339,29.54376],[35.01344,29.54452]]]}},{"type":"Feature","properties":{"kind":"tourism_areas"},"geometry":{"type":"Polygon","coordinates":[[[35.01751,29.57227],[35.01766,29.57281],[35.01826,29.57271],[35.01782,29.57253],[35.01751,29.57227]]]}},{"type":"Feature","properties":{"kind":"tourism_areas"},"geometry":{"type":"Polygon","coordinates":[[[35.00818,29.52984],[35.00845,29.52996],[35.00866,29.52978],[35.00842,29.52954],[35.00818,29.52984]]]}},{"type":"Feature","properties":{"kind":"tourism_areas"},"geometry":{"type":"Polygon","coordinates":[[[35.01009,29.52877],[35.01073,29.52809],[35.01114,29.52697],[35.01105,29.52578],[35.01062,29.52497],[35.01101,29.52696],[35.01009,29.52877]]]}},{"type":"Feature","properties":{"kind":"tourism_areas"},"geometry":{"type":"Polygon","coordinates":[[[35.01054,29.5248],[35.00957,29.52395],[35.00839,29.52351],[35.00952,29.52403],[35.01054,29.5248]]]}},{"type":"Feature","properties":{"kind":"tourism_areas"},"geometry":{"type":"Polygon","coordinates":[[[35.00823,29.52344],[35.00609,29.52304],[35.00827,29.5235],[35.00823,29.52344]]]}},{"type":"Feature","properties":{"kind":"tourism_areas"},"geometry":{"type":"Polygon","coordinates":[[[35.00526,29.52272],[35.0032,29.52233],[35.0053,29.5228],[35.00526,29.52272]]]}},{"type":"Feature","properties":{"kind":"tourism_areas"},"geometry":{"type":"Polygon","coordinates":[[[35.00591,29.52289],[35.00543,29.52287],[35.00592,29.52294],[35.00591,29.52289]]]}},{"type":"Feature","properties":{"kind":"tourism_areas"},"geometry":{"type":"Polygon","coordinates":[[[35.01318,29.54587],[35.01326,29.5465],[35.01324,29.54554],[35.01318,29.54587]]]}},{"type":"Feature","properties":{"kind":"tourism_areas"},"geometry":{"type":"Polygon","coordinates":[[[35.016,29.54717],[35.01625,29.54697],[35.016,29.54697],[35.016,29.54717]]]}},{"type":"Feature","properties":{"kind":"tourism_areas"},"geometry":{"type":"Polygon","coordinates":[[[35.0172,29.54717],[35.01774,29.54695],[35.0172,29.547],[35.0172,29.54717]]]}},{"type":"Feature","properties":{"kind":"tourism_areas"},"geometry":{"type":"Polygon","coordinates":[[[34.99975,29.54548],[34.99975,29.54465],[34.99944,29.54464],[34.99944,29.54548],[34.99975,29.54548]]]}},{"type":"Feature","properties":{"kind":"tourism_areas"},"geometry":{"type":"Polygon","coordinates":[[[35.00116,29.5443],[35.00115,29.54392],[35.0008,29.54392],[35.0008,29.54431],[35.00116,29.5443]]]}},{"type":"Feature","properties":{"kind":"tourism_areas"},"geometry":{"type":"Polygon","coordinates":[[[34.99884,29.5442],[34.99885,29.54381],[34.99832,29.54381],[34.99832,29.5442],[34.99884,29.5442]]]}},{"type":"Feature","properties":{"kind":"tourism_areas"},"geometry":{"type":"Polygon","coordinates":[[[34.99988,29.5445],[34.99987,29.54367],[34.99941,29.54366],[34.9992,29.54429],[34.99988,29.5445]]]}},{"type":"Feature","properties":{"kind":"tourism_areas"},"geometry":{"type":"Polygon","coordinates":[[[34.99884,29.54629],[34.99884,29.54556],[34.9982,29.54568],[34.9982,29.54629],[34.99884,29.54629]]]}},{"type":"Feature","properties":{"kind":"tourism_areas"},"geometry":{"type":"Polygon","coordinates":[[[34.99694,29.54422],[34.9969,29.54391],[34.99579,29.54402],[34.9959,29.54439],[34.99694,29.54422]]]}},{"type":"Feature","properties":{"kind":"tourism_areas"},"geometry":{"type":"Polygon","coordinates":[[[35.00757,29.54058],[35.00757,29.54023],[35.00703,29.54023],[35.00703,29.54058],[35.00757,29.54058]]]}},{"type":"Feature","properties":{"kind":"tourism_areas"},"geometry":{"type":"Polygon","coordinates":[[[35.01677,29.57274],[35.01689,29.57255],[35.01676,29.57208],[35.01677,29.57274]]]}},{"type":"Feature","properties":{"kind":"tourism_areas"},"geometry":{"type":"Polygon","coordinates":[[[35.01768,29.57226],[35.01758,29.57183],[35.01749,29.57181],[35.01745,29.57196],[35.01768,29.57226]]]}},{"type":"Feature","properties":{"kind":"tourism_areas"},"geometry":{"type":"Polygon","coordinates":[[[35.01735,29.57163],[35.01756,29.57169],[35.01742,29.57124],[35.01735,29.57163]]]}},{"type":"Feature","properties":{"kind":"tourism_areas"},"geometry":{"type":"Polygon","coordinates":[[[35.01819,29.57249],[35.0186,29.57249],[35.01863,29.57231],[35.01828,29.57226],[35.01819,29.57249]]]}},{"type":"Feature","properties":{"kind":"tourism_areas"},"geometry":{"type":"Polygon","coordinates":[[[35.01918,29.57219],[35.01885,29.57195],[35.01898,29.57245],[35.01918,29.57219]]]}},{"type":"Feature","properties":{"kind":"tourism_areas"},"geometry":{"type":"Polygon","coordinates":[[[35.02881,29.55266],[35.02956,29.55311],[35.02886,29.55258],[35.02881,29.55266]]]}},{"type":"Feature","properties":{"kind":"tourism_areas"},"geometry":{"type":"Polygon","coordinates":[[[35.01219,29.53939],[35.01303,29.53913],[35.01251,29.53837],[35.01178,29.539],[35.01219,29.53939]]]}},{"type":"Feature","properties":{"kind":"tourism_areas"},"geometry":{"type":"Polygon","coordinates":[[[35.01653,29.53756],[35.01661,29.53653],[35.01634,29.53567],[35.01572,29.53584],[35.01596,29.53743],[35.01653,29.53756]]]}},{"type":"Feature","properties":{"kind":"tourism_areas"},"geometry":{"type":"Polygon","coordinates":[[[35.00771,29.53742],[35.00811,29.53707],[35.00678,29.53742],[35.00771,29.53742]]]}},{"type":"Feature","properties":{"kind":"tourism_areas"},"geometry":{"type":"Polygon","coordinates":[[[35.00927,29.53861],[35.01038,29.53812],[35.01009,29.53787],[35.0097,29.53818],[35.00927,29.53779],[35.00862,29.53831],[35.00792,29.53788],[35.00796,29.5386],[35.00927,29.53861]]]}},{"type":"Feature","properties":{"kind":"tourism_areas"},"geometry":{"type":"Polygon","coordinates":[[[35.02117,29.55839],[35.02116,29.5596],[35.02104,29.55972],[35.02116,29.55967],[35.0215,29.55881],[35.02117,29.55839]]]}},{"type":"Feature","properties":{"kind":"tourism_areas"},"geometry":{"type":"Polygon","coordinates":[[[35.00152,29.53637],[35.00152,29.53559],[35.00125,29.53559],[35.00124,29.53637],[35.00152,29.53637]]]}},{"type":"Feature","properties":{"kind":"tourism_areas"},"geometry":{"type":"Polygon","coordinates":[[[35.01091,29.54772],[35.01225,29.5476],[35.01091,29.5476],[35.01091,29.54772]]]}},{"type":"Feature","properties":{"kind":"tourism_areas"},"geometry":{"type":"Polygon","coordinates":[[[35.02114,29.54921],[35.02118,29.54889],[35.02114,29.5469],[35.02114,29.54921]]]}},{"type":"Feature","properties":{"kind":"tourism_areas"},"geometry":{"type":"Polygon","coordinates":[[[35.02113,29.55167],[35.02118,29.55129],[35.02114,29.54943],[35.02113,29.54947],[35.02113,29.55167]]]}},{"type":"Feature","properties":{"kind":"tourism_areas"},"geometry":{"type":"Polygon","coordinates":[[[35.02113,29.55194],[35.02115,29.55417],[35.02116,29.55186],[35.02113,29.55194]]]}},{"type":"Feature","properties":{"kind":"tourism_areas"},"geometry":{"type":"Polygon","coordinates":[[[35.0215,29.55552],[35.02162,29.55583],[35.02175,29.55562],[35.0215,29.55552]]]}},{"type":"Feature","properties":{"kind":"tourism_areas"},"geometry":{"type":"Polygon","coordinates":[[[35.02166,29.55528],[35.02261,29.55608],[35.02428,29.55316],[35.02166,29.55528]]]}},{"type":"Feature","properties":{"kind":"tourism_areas"},"geometry":{"type":"Polygon","coordinates":[[[35.02089,29.5576],[35.02117,29.55654],[35.02097,29.55632],[35.02014,29.55695],[35.02089,29.5576]]]}},{"type":"Feature","properties":{"kind":"tourism_areas"},"geometry":{"type":"Polygon","coordinates":[[[35.02094,29.55616],[35.02129,29.55631],[35.02137,29.55587],[35.02094,29.55616]]]}},{"type":"Feature","properties":{"kind":"tourism_areas"},"geometry":{"type":"Polygon","coordinates":[[[35.02132,29.55792],[35.02173,29.55824],[35.02247,29.55659],[35.02166,29.55603],[35.02132,29.55792]]]}},{"type":"Feature","properties":{"kind":"tourism_areas"},"geometry":{"type":"Polygon","coordinates":[[[35.0223,29.55853],[35.02351,29.55882],[35.02387,29.55822],[35.02337,29.55763],[35.02435,29.55508],[35.02589,29.5533],[35.02528,29.55285],[35.02368,29.55449],[35.02215,29.55814],[35.0223,29.55853]]]}},{"type":"Feature","properties":{"kind":"tourism_areas"},"geometry":{"type":"Polygon","coordinates":[[[35.02175,29.56237],[35.02322,29.55925],[35.02212,29.5588],[35.02062,29.5619],[35.02175,29.56237]]]}},{"type":"Feature","properties":{"kind":"tourism_areas"},"geometry":{"type":"Polygon","coordinates":[[[35.01252,29.54714],[35.01283,29.54699],[35.01253,29.54698],[35.01252,29.54714]]]}},{"type":"Feature","properties":{"kind":"tourism_areas"},"geometry":{"type":"Polygon","coordinates":[[[35.01014,29.54379],[35.01014,29.54349],[35.00961,29.5435],[35.00961,29.54379],[35.01014,29.54379]]]}},{"type":"Feature","properties":{"kind":"tourism_areas"},"geometry":{"type":"Polygon","coordinates":[[[35.01265,29.52666],[35.01257,29.52612],[35.01253,29.52613],[35.01265,29.52666]]]}},{"type":"Feature","properties":{"kind":"tourism_areas"},"geometry":{"type":"Polygon","coordinates":[[[35.01483,29.54701],[35.01441,29.54702],[35.01483,29.54704],[35.01483,29.54701]]]}},{"type":"Feature","properties":{"kind":"tourism_areas"},"geometry":{"type":"Polygon","coordinates":[[[35.01509,29.54717],[35.01512,29.54703],[35.01509,29.54701],[35.01509,29.54717]]]}},{"type":"Feature","properties":{"kind":"tourism_areas"},"geometry":{"type":"Polygon","coordinates":[[[35.01413,29.54701],[35.0141,29.54714],[35.01413,29.54717],[35.01413,29.54701]]]}},{"type":"Feature","properties":{"kind":"tourism_areas"},"geometry":{"type":"Polygon","coordinates":[[[35.01127,29.54512],[35.01172,29.54521],[35.01171,29.54513],[35.01127,29.54512]]]}},{"type":"Feature","properties":{"kind":"tourism_areas"},"geometry":{"type":"Polygon","coordinates":[[[35.00895,29.53103],[35.00843,29.53059],[35.00806,29.53092],[35.00858,29.53136],[35.00895,29.53103]]]}},{"type":"Feature","properties":{"kind":"tourism_areas"},"geometry":{"type":"Polygon","coordinates":[[[35.00539,29.53287],[35.00574,29.53259],[35.00596,29.53252],[35.0058,29.53237],[35.00539,29.53287]]]}},{"type":"Feature","properties":{"kind":"tourism_areas"},"geometry":{"type":"Polygon","coordinates":[[[35.00841,29.53412],[35.00833,29.53404],[35.00833,29.53418],[35.00841,29.53412]]]}},{"type":"Feature","properties":{"kind":"tourism_areas"},"geometry":{"type":"Polygon","coordinates":[[[35.00863,29.5343],[35.00856,29.53423],[35.00848,29.5343],[35.00863,29.5343]]]}},{"type":"Feature","properties":{"kind":"tourism_areas"},"geometry":{"type":"Polygon","coordinates":[[[35.00883,29.53397],[35.00895,29.53395],[35.00893,29.53387],[35.00883,29.53397]]]}},{"type":"Feature","properties":{"kind":"tourism_areas"},"geometry":{"type":"Polygon","coordinates":[[[35.00857,29.53372],[35.00875,29.53385],[35.00886,29.53378],[35.00857,29.53372]]]}},{"type":"Feature","properties":{"kind":"tourism_areas"},"geometry":{"type":"Polygon","coordinates":[[[35.01338,29.53976],[35.01379,29.53948],[35.01413,29.5393],[35.01388,29.53912],[35.01338,29.53976]]]}},{"type":"Feature","properties":{"kind":"tourism_areas"},"geometry":{"type":"Polygon","coordinates":[[[34.9985,29.54716],[34.99827,29.54703],[34.99801,29.54683],[34.99816,29.54718],[34.9985,29.54716]]]}},{"type":"Feature","properties":{"kind":"tourism_areas"},"geometry":{"type":"Polygon","coordinates":[[[34.99826,29.54737],[34.99851,29.54737],[34.9985,29.54736],[34.99826,29.54737]]]}},{"type":"Feature","properties":{"kind":"tourism_areas"},"geometry":{"type":"Polygon","coordinates":[[[35.00336,29.52038],[35.0036,29.5202],[35.00336,29.5202],[35.00336,29.52038]]]}},{"type":"Feature","properties":{"kind":"tourism_areas"},"geometry":{"type":"Polygon","coordinates":[[[35.40768,29.49494],[35.40685,29.49527],[35.4075,29.49631],[35.40816,29.49602],[35.40768,29.49494]]]}},{"type":"Feature","properties":{"kind":"tourism_areas"},"geometry":{"type":"Polygon","coordinates":[[[35.00641,29.53139],[35.00658,29.53126],[35.00649,29.53113],[35.00641,29.53139]]]}},{"type":"Feature","properties":{"kind":"tourism_areas"},"geometry":{"type":"Polygon","coordinates":[[[35.00312,29.52188],[35.00386,29.52224],[35.00388,29.52152],[35.0032,29.52149],[35.00312,29.52188]]]}},{"type":"Feature","properties":{"kind":"tourism_areas"},"geometry":{"type":"Polygon","coordinates":[[[35.42878,29.5218],[35.42801,29.5218],[35.42742,29.52273],[35.4282,29.52311],[35.42878,29.5218]]]}},{"type":"Feature","properties":{"kind":"tourism_areas"},"geometry":{"type":"Polygon","coordinates":[[[34.96436,29.39646],[34.96562,29.39656],[34.96562,29.3952],[34.96537,29.39418],[34.96456,29.39418],[34.96436,29.39646]]]}},{"type":"Feature","properties":{"kind":"tourism_areas"},"geometry":{"type":"Polygon","coordinates":[[[34.96745,29.40069],[34.96755,29.40013],[34.96722,29.40027],[34.96745,29.40069]]]}},{"type":"Feature","properties":{"kind":"tourism_areas"},"geometry":{"type":"Polygon","coordinates":[[[34.99809,29.55398],[34.99309,29.55177],[34.99209,29.54417],[34.99071,29.54233],[34.98232,29.54499],[34.9808,29.54142],[34.9792,29.54211],[34.97955,29.5643],[34.99823,29.56549],[34.99809,29.55398]]]}},{"type":"Feature","properties":{"kind":"tourism_areas"},"geometry":{"type":"Polygon","coordinates":[[[35.66383,29.54415],[35.66376,29.54375],[35.66355,29.54398],[35.66383,29.54415]]]}},{"type":"Feature","properties":{"kind":"tourism_areas"},"geometry":{"type":"Polygon","coordinates":[[[34.99088,29.53628],[34.99098,29.53783],[34.99153,29.53809],[34.99189,29.53745],[34.99154,29.53786],[34.99118,29.53775],[34.99137,29.53729],[34.99088,29.53628]]]}},{"type":"Feature","properties":{"kind":"tourism_areas"},"geometry":{"type":"Polygon","coordinates":[[[34.97675,29.40669],[34.98027,29.40605],[34.97963,29.40431],[34.97751,29.40411],[34.97574,29.40581],[34.97675,29.40669]]]}},{"type":"Feature","properties":{"kind":"tourism_areas"},"geometry":{"type":"Polygon","coordinates":[[[35.42319,29.57185],[35.42304,29.57174],[35.42308,29.57188],[35.42319,29.57185]]]}},{"type":"Feature","properties":{"kind":"tourism_areas"},"geometry":{"type":"Polygon","coordinates":[[[35.38848,29.51207],[35.38897,29.51193],[35.38857,29.51126],[35.38799,29.51141],[35.38848,29.51207]]]}},{"type":"Feature","properties":{"kind":"tourism_areas"},"geometry":{"type":"Polygon","coordinates":[[[35.01035,29.56749],[35.00291,29.56744],[35.00144,29.56733],[35.00153,29.56827],[35.00994,29.56824],[35.01035,29.56749]]]}},{"type":"Feature","properties":{"kind":"tourism_areas"},"geometry":{"type":"Polygon","coordinates":[[[35.03514,29.54517],[35.03465,29.54496],[35.03328,29.54608],[35.03364,29.54643],[35.03514,29.54517]]]}},{"type":"Feature","properties":{"kind":"tourism_areas"},"geometry":{"type":"Polygon","coordinates":[[[35.03043,29.54919],[35.03128,29.54849],[35.03083,29.54823],[35.03004,29.54877],[35.03043,29.54919]]]}},{"type":"Feature","properties":{"kind":"tourism_areas"},"geometry":{"type":"Polygon","coordinates":[[[35.03249,29.54685],[35.03099,29.54814],[35.03137,29.54834],[35.03282,29.54719],[35.03249,29.54685]]]}},{"type":"Feature","properties":{"kind":"tourism_areas"},"geometry":{"type":"Polygon","coordinates":[[[35.72636,30.20584],[35.72495,30.20531],[35.72424,30.20636],[35.72536,30.20714],[35.72636,30.20584]]]}},{"type":"Feature","properties":{"kind":"tourism_areas"},"geometry":{"type":"Polygon","coordinates":[[[35.01236,29.43734],[35.01243,29.43708],[35.0127,29.43695],[35.01194,29.43709],[35.01236,29.43734]]]}}]}