{"type":"FeatureCollection","features":[{"type":"Feature","properties":{"name_ar":"فندق مارينا بلازا","name_en":"Marina Plaza","kind":"hotel"},"geometry":{"type":"MultiPoint","coordinates":[[34.98099,29.41032]]}},{"type":"Feature","properties":{"name_ar":"كورال بي","name_en":"Coral Bay","kind":"hotel"},"geometry":{"type":"MultiPoint","coordinates":[[34.96747,29.39934]]}},{"type":"Feature","properties":{"name_ar":"موفنبيك","name_en":"Movenpick","kind":"hotel"},"geometry":{"type":"MultiPoint","coordinates":[[34.99951,29.53241]]}},{"type":"Feature","properties":{"name_en":"The Loft Hotel By Bratus","kind":"hotel"},"geometry":{"type":"MultiPoint","coordinates":[[35.00281,29.53192]]}},{"type":"Feature","properties":{"name_en":"Cedar Pride","kind":"dive"},"geometry":{"type":"MultiPoint","coordinates":[[34.98833,29.52167]]}},{"type":"Feature","properties":{"name_en":"Aquamarina 3","kind":"hotel"},"geometry":{"type":"MultiPoint","coordinates":[[35.01006,29.52701]]}},{"type":"Feature","properties":{"name_en":"Cedar Hotel","kind":"hotel"},"geometry":{"type":"MultiPoint","coordinates":[[35.00582,29.53056]]}},{"type":"Feature","properties":{"name_en":"Japanese Gardens Coral Reefs","kind":"dive"},"geometry":{"type":"MultiPoint","coordinates":[[34.97325,29.42993]]}},{"type":"Feature","properties":{"name_en":"Nemo Diving Center","kind":"poi"},"geometry":{"type":"MultiPoint","coordinates":[[34.97541,29.42479]]}},{"type":"Feature","properties":{"name_en":"My Hotel","kind":"hotel"},"geometry":{"type":"MultiPoint","coordinates":[[35.00228,29.53203]]}},{"type":"Feature","properties":{"name_en":"Oryx Hotel","kind":"hotel"},"geometry":{"type":"MultiPoint","coordinates":[[34.99938,29.54011]]}},{"type":"Feature","properties":{"name_en":"Captain's Hotel","kind":"hotel"},"geometry":{"type":"MultiPoint","coordinates":[[35.00244,29.53115]]}},{"type":"Feature","properties":{"name_en":"Cedar Pride Shipwreck","kind":"dive"},"geometry":{"type":"MultiPoint","coordinates":[[34.97316,29.43107]]}},{"type":"Feature","properties":{"name_ar":"فندق أحلى طلة","name_en":"Ahla Talla Hotel","kind":"hotel"},"geometry":{"type":"MultiPoint","coordinates":[[35.00283,29.52303]]}},{"type":"Feature","properties":{"name_en":"Sea View Hotel","kind":"hotel"},"geometry":{"type":"MultiPoint","coordinates":[[35.00241,29.52494]]}},{"type":"Feature","properties":{"name_en":"Hospitality Palace Hotel","kind":"hotel"},"geometry":{"type":"MultiPoint","coordinates":[[35.00223,29.52557]]}},{"type":"Feature","properties":{"name_en":"Beach Hotel","kind":"hotel"},"geometry":{"type":"MultiPoint","coordinates":[[35.00224,29.52642]]}},{"type":"Feature","properties":{"name_en":"Al-Naher Al-Khaled Hotel","kind":"hotel"},"geometry":{"type":"MultiPoint","coordinates":[[35.00463,29.52551]]}},{"type":"Feature","properties":{"name_en":"Dweik Hotel 1","kind":"hotel"},"geometry":{"type":"MultiPoint","coordinates":[[35.00369,29.52877]]}},{"type":"Feature","properties":{"name_en":"Amer Hotel 2","kind":"hotel"},"geometry":{"type":"MultiPoint","coordinates":[[35.00362,29.52884]]}},{"type":"Feature","properties":{"name_en":"Amira Hotel","kind":"hotel"},"geometry":{"type":"MultiPoint","coordinates":[[35.00368,29.52899]]}},{"type":"Feature","properties":{"name_en":"Nairoukh Hotel","kind":"hotel"},"geometry":{"type":"MultiPoint","coordinates":[[35.00783,29.52677]]}},{"type":"Feature","properties":{"name_en":"Golden Rose Hotel","kind":"hotel"},"geometry":{"type":"MultiPoint","coordinates":[[35.00559,29.52789]]}},{"type":"Feature","properties":{"name_en":"J Plaza Hotel","kind":"hotel"},"geometry":{"type":"MultiPoint","coordinates":[[35.00613,29.52835]]}},{"type":"Feature","properties":{"name_en":"Al-Safa Tourist Hotel","kind":"hotel"},"geometry":{"type":"MultiPoint","coordinates":[[35.00439,29.52965]]}},{"type":"Feature","properties":{"name_ar":"شقق الياسمين المفروشه","kind":"hotel"},"geometry":{"type":"MultiPoint","coordinates":[[35.00708,29.52921]]}},{"type":"Feature","properties":{"name_en":"Crystal hotel","kind":"hotel"},"geometry":{"type":"MultiPoint","coordinates":[[35.00231,29.52613]]}},{"type":"Feature","properties":{"name_en":"7 Days","kind":"hotel"},"geometry":{"type":"MultiPoint","coordinates":[[35.0033,29.52299]]}},{"type":"Feature","properties":{"name_en":"Roof viewpoint","kind":"poi"},"geometry":{"type":"MultiPoint","coordinates":[[35.00327,29.53015]]}},{"type":"Feature","properties":{"name_en":"Bait Al-aqaba","kind":"hotel"},"geometry":{"type":"MultiPoint","coordinates":[[34.9795,29.42628]]}},{"type":"Feature","properties":{"name_en":"Gorgon 1","kind":"dive"},"geometry":{"type":"MultiPoint","coordinates":[[34.97212,29.42619]]}},{"type":"Feature","properties":{"name_en":"Tank","kind":"dive"},"geometry":{"type":"MultiPoint","coordinates":[[34.97166,29.41878]]}},{"type":"Feature","properties":{"name_en":"Plane wreck","kind":"dive"},"geometry":{"type":"MultiPoint","coordinates":[[34.97162,29.41806]]}},{"type":"Feature","properties":{"name_en":"Aqaba Trail","kind":"dive"},"geometry":{"type":"MultiPoint","coordinates":[[35.00717,29.53314]]}},{"type":"Feature","properties":{"name_en":"Rainbow reef","kind":"dive"},"geometry":{"type":"MultiPoint","coordinates":[[34.97378,29.43252]]}},{"type":"Feature","properties":{"name_ar":"فندق أحلى طلة","kind":"poi"},"geometry":{"type":"MultiPoint","coordinates":[[35.00279,29.52316]]}},{"type":"Feature","properties":{"name_ar":"فندق دويك 3","kind":"poi"},"geometry":{"type":"MultiPoint","coordinates":[[35.00522,29.53155]]}},{"type":"Feature","properties":{"name_en":"BARAKA AL AQABA HOTEL SUITES","kind":"hotel"},"geometry":{"type":"MultiPoint","coordinates":[[35.00881,29.5243]]}},{"type":"Feature","properties":{"name_en":"Afnan","kind":"hotel"},"geometry":{"type":"MultiPoint","coordinates":[[35.00317,29.52321]]}},{"type":"Feature","properties":{"name_en":"Amir Palace hotel","kind":"hotel"},"geometry":{"type":"MultiPoint","coordinates":[[35.00655,29.53026]]}},{"type":"Feature","properties":{"name_en":"Taj Hotel","kind":"hotel"},"geometry":{"type":"MultiPoint","coordinates":[[35.00658,29.52511]]}},{"type":"Feature","properties":{"name_en":"Almarsa dive center","kind":"poi"},"geometry":{"type":"MultiPoint","coordinates":[[34.97487,29.42473]]}},{"type":"Feature","properties":{"name_en":"Hotel Prestige","kind":"hotel"},"geometry":{"type":"MultiPoint","coordinates":[[35.00625,29.52827]]}},{"type":"Feature","properties":{"name_en":"Karam House Inn","kind":"hotel"},"geometry":{"type":"MultiPoint","coordinates":[[35.00632,29.52896]]}},{"type":"Feature","properties":{"name_en":"King abdullah reef","kind":"dive"},"geometry":{"type":"MultiPoint","coordinates":[[34.96854,29.43977]]}},{"type":"Feature","properties":{"name_en":"Roza Beach Hotel","kind":"hotel"},"geometry":{"type":"MultiPoint","coordinates":[[35.00231,29.52518]]}},{"type":"Feature","properties":{"name_en":"Amer 2","kind":"hotel"},"geometry":{"type":"MultiPoint","coordinates":[[35.0036,29.52883]]}},{"type":"Feature","properties":{"name_en":"The City Centre Hostel","kind":"hotel"},"geometry":{"type":"MultiPoint","coordinates":[[35.00365,29.52902]]}},{"type":"Feature","properties":{"name_en":"Underwater military museum","kind":"dive"},"geometry":{"type":"MultiPoint","coordinates":[[34.9671,29.44647]]}},{"type":"Feature","properties":{"name_ar":"صعود الباخرة اليخت العقبة (m&h)","kind":"poi"},"geometry":{"type":"MultiPoint","coordinates":[[35.0025,29.52089]]}},{"type":"Feature","properties":{"name_ar":"الشاطئ الجنوبي شاطئ 3 غطس (m&h)","kind":"poi"},"geometry":{"type":"MultiPoint","coordinates":[[34.97552,29.43158]]}},{"type":"Feature","properties":{"name_en":"RAWA’AT ALAQABA","kind":"hotel"},"geometry":{"type":"MultiPoint","coordinates":[[35.00667,29.52572]]}},{"type":"Feature","properties":{"name_en":"Abood Freediver","kind":"poi"},"geometry":{"type":"MultiPoint","coordinates":[[34.97074,29.44044]]}},{"type":"Feature","properties":{"name_en":"Alena Hotel","kind":"hotel"},"geometry":{"type":"MultiPoint","coordinates":[[35.00744,29.52468]]}},{"type":"Feature","properties":{"name_en":"Luciana Hotel","kind":"hotel"},"geometry":{"type":"MultiPoint","coordinates":[[35.00618,29.52579]]}},{"type":"Feature","properties":{"name_en":"Berenice Beach Club","kind":"poi"},"geometry":{"type":"MultiPoint","coordinates":[[34.97433,29.43502]]}}]}