{"type":"FeatureCollection","features":[{"type":"Feature","properties":{"name_ar":"متنزه العقبة البحري","name_en":"Aqaba marine park","protect_class":"4"},"geometry":{"type":"Polygon","coordinates":[[[34.97629,29.45945],[34.97611,29.45845],[34.97463,29.45752],[34.97421,29.45664],[34.97292,29.45521],[34.97251,29.45421],[34.97114,29.45257],[34.97095,29.45097],[34.97041,29.44939],[34.96954,29.44826],[34.96782,29.44721],[34.96751,29.44655],[34.96762,29.44569],[34.96915,29.44452],[34.97003,29.44256],[34.97027,29.44014],[34.97115,29.43661],[34.97183,29.43568],[34.97368,29.434],[34.97459,29.43197],[34.97468,29.43063],[34.97437,29.42924],[34.97321,29.42714],[34.97319,29.42542],[34.97219,29.42244],[34.97308,29.42091],[34.97279,29.41983],[34.97304,29.4185],[34.97345,29.41783],[34.97463,29.41677],[34.97507,29.41607],[34.97542,29.41467],[34.97748,29.41173],[34.97771,29.41076],[34.97732,29.40777],[34.97605,29.40612],[34.97499,29.4053],[34.96958,29.40306],[34.96946,29.40257],[34.9674,29.40092],[34.96678,29.40071],[34.96689,29.40058],[34.96737,29.4008],[34.96677,29.3996],[34.96611,29.39915],[34.96584,29.39926],[34.96561,29.39919],[34.96614,29.39905],[34.96599,29.39863],[34.96571,29.39875],[34.96515,29.39853],[34.96518,29.39827],[34.96549,29.3983],[34.96544,29.39797],[34.96449,29.39805],[34.96496,29.39786],[34.96395,29.39742],[34.95771,29.39759],[34.95941,29.39975],[34.96574,29.40465],[34.96602,29.40571],[34.97219,29.40809],[34.97324,29.40886],[34.97326,29.41079],[34.97142,29.41339],[34.9712,29.41456],[34.96998,29.41565],[34.96898,29.41732],[34.96848,29.41995],[34.96763,29.42183],[34.969,29.42601],[34.9688,29.42655],[34.96919,29.42852],[34.96992,29.42949],[34.97045,29.43117],[34.96997,29.4322],[34.96866,29.43323],[34.96726,29.43513],[34.96663,29.43676],[34.96579,29.4416],[34.96541,29.44263],[34.96335,29.44373],[34.96339,29.4457],[34.9631,29.44689],[34.96425,29.44933],[34.96652,29.45095],[34.96692,29.45367],[34.9712,29.4594],[34.97629,29.45945]]]}},{"type":"Feature","properties":{"name_ar":"مرصد طيور العقبة","name_en":"Aqaba Bird Observatory"},"geometry":{"type":"Polygon","coordinates":[[[34.98817,29.57368],[34.98897,29.56898],[34.98199,29.5683],[34.98118,29.57293],[34.98302,29.57314],[34.98317,29.57505],[34.98361,29.5751],[34.98351,29.57572],[34.98751,29.57669],[34.9877,29.57494],[34.98817,29.57368]]]}}]}