{"type":"FeatureCollection","features":[{"type":"Feature","properties":{"reef_zone_id":"R-01","zone_name":"North Aqaba / Ayla & Public Beach","area_km2":0.463425,"marine_park_overlap_pct":0.0,"habitat_class":"Coral/Algae","geomorphic_class":"Outer Reef Flat","sensitivity_weight":1.0,"sensitivity_weight_status":"PLACEHOLDER_PENDING_MARINE_SCIENTIST","provisional":false,"source":"ACA/reef_habitat/v2_0"},"geometry":{"type":"MultiPolygon","coordinates":[[[[34.99289,29.50597],[34.99281,29.50687],[34.99291,29.5066],[34.99317,29.50678],[34.99334,29.5075],[34.99313,29.50768],[34.99297,29.50732],[34.99287,29.50732],[34.99288,29.50787],[34.99314,29.50786],[34.99315,29.50831],[34.99335,29.50831],[34.99335,29.50822],[34.9935,29.50822],[34.99354,29.50722],[34.99333,29.50705],[34.99342,29.50668],[34.99332,29.50669],[34.99326,29.50615],[34.99315,29.50615],[34.99299,29.50552],[34.99273,29.50543],[34.99272,29.50507],[34.99262,29.50507],[34.99261,29.5048],[34.99246,29.50471],[34.99242,29.50571],[34.99278,29.50561],[34.99269,29.50597],[34.99289,29.50597]]],[[[34.99793,29.51577],[34.99789,29.51641],[34.9981,29.5164],[34.9981,29.51658],[34.99821,29.51658],[34.99825,29.51613],[34.99851,29.51613],[34.99856,29.51595],[34.99882,29.51603],[34.99883,29.51675],[34.99909,29.51693],[34.99909,29.51711],[34.99889,29.51716],[34.99889,29.51729],[34.99915,29.51738],[34.9991,29.51756],[34.99879,29.51757],[34.99873,29.51712],[34.99863,29.51721],[34.99791,29.51713],[34.99802,29.51758],[34.99817,29.51758],[34.99798,29.51807],[34.99799,29.51857],[34.99845,29.51865],[34.99845,29.51847],[34.9983,29.51857],[34.99829,29.51839],[34.99845,29.5182],[34.99865,29.5182],[34.99856,29.51861],[34.99866,29.51861],[34.99882,29.5191],[34.99908,29.51901],[34.99909,29.51937],[34.99919,29.51936],[34.99909,29.51946],[34.9992,29.51973],[34.99899,29.51982],[34.9991,29.52009],[34.999,29.52009],[34.99921,29.52031],[34.99906,29.5204],[34.99916,29.52054],[34.99906,29.52054],[34.99892,29.52117],[34.99928,29.52121],[34.99928,29.52135],[34.99907,29.52135],[34.99908,29.52153],[34.99897,29.52153],[34.99894,29.52235],[34.99935,29.52216],[34.99944,29.5218],[34.99955,29.5218],[34.99954,29.52143],[34.9997,29.52143],[34.9997,29.52179],[34.99955,29.52189],[34.99946,29.52252],[34.99925,29.52234],[34.99926,29.52279],[34.99936,29.52279],[34.99926,29.52306],[34.99942,29.52324],[34.99916,29.5232],[34.99928,29.52374],[34.99907,29.52374],[34.99933,29.52396],[34.99908,29.5241],[34.99908,29.52446],[34.99919,29.52446],[34.99924,29.52473],[34.99909,29.52473],[34.99919,29.52482],[34.9991,29.5251],[34.99915,29.52527],[34.99946,29.52536],[34.99947,29.52554],[34.99911,29.52564],[34.99906,29.52582],[34.99916,29.52591],[34.99942,29.52581],[34.99942,29.52599],[34.99973,29.52599],[34.99969,29.52635],[34.99985,29.52644],[34.99991,29.52707],[34.99955,29.52707],[34.99935,29.52726],[34.99909,29.52726],[34.99909,29.52744],[34.99945,29.52744],[34.99945,29.52726],[34.99981,29.52725],[34.99981,29.52752],[34.99961,29.52761],[34.99972,29.5277],[34.99962,29.52788],[35.00009,29.52815],[35.00018,29.52797],[34.99987,29.52788],[34.99982,29.52761],[35.00007,29.52752],[35.00007,29.52716],[35.00027,29.52724],[35.00042,29.52665],[35.00062,29.52665],[35.0005,29.52557],[35.0006,29.52557],[35.0006,29.5253],[35.0007,29.5253],[35.00078,29.52421],[35.00063,29.52422],[35.00059,29.5225],[35.00033,29.52232],[35.00033,29.52205],[35.00007,29.52206],[35.00009,29.5207],[34.99999,29.52071],[34.99999,29.52053],[34.99978,29.52062],[34.99973,29.52044],[35.00014,29.52025],[35.00018,29.51989],[35.00034,29.51989],[35.00034,29.52016],[35.0008,29.52015],[35.00089,29.51934],[35.00053,29.51934],[35.00053,29.51907],[35.00099,29.51907],[35.00103,29.51866],[35.00114,29.51866],[35.00112,29.51803],[35.00123,29.51803],[35.00121,29.5173],[35.00105,29.51686],[35.00063,29.51641],[35.00068,29.51623],[35.00052,29.51623],[35.00052,29.51605],[35.00015,29.51597],[34.99991,29.51647],[34.99992,29.51696],[34.99971,29.5171],[34.99972,29.51728],[34.99951,29.51737],[34.9997,29.51638],[34.9998,29.51638],[34.9998,29.51611],[34.9999,29.51611],[34.99989,29.51575],[34.99963,29.51548],[34.99927,29.51557],[34.99906,29.51531],[34.9989,29.51531],[34.99874,29.51486],[34.99853,29.51477],[34.99853,29.51459],[34.99837,29.51459],[34.99837,29.5145],[34.99739,29.51452],[34.99745,29.51488],[34.99776,29.51483],[34.99755,29.51479],[34.99755,29.51461],[34.99801,29.5146],[34.99802,29.51469],[34.99781,29.51469],[34.99781,29.51478],[34.99802,29.51478],[34.99793,29.5155],[34.99782,29.51551],[34.99783,29.51578],[34.99793,29.51577]],[[34.99944,29.52144],[34.99943,29.52126],[34.99954,29.52125],[34.99954,29.52143],[34.99944,29.52144]],[[34.99943,29.52126],[34.99933,29.52117],[34.99943,29.52117],[34.99943,29.52126]],[[34.99978,29.5231],[34.99968,29.52333],[34.99957,29.52315],[34.99978,29.5231]],[[35.00073,29.51659],[35.00069,29.51682],[35.00059,29.51686],[35.00063,29.51659],[35.00073,29.51659]]],[[[34.99826,29.52971],[34.99789,29.52949],[34.99789,29.52931],[34.99835,29.52917],[34.99829,29.52881],[34.99798,29.5289],[34.99783,29.52913],[34.99762,29.52895],[34.99737,29.52896],[34.99748,29.52922],[34.99722,29.52923],[34.99727,29.52905],[34.99701,29.52905],[34.99701,29.52923],[34.99686,29.52923],[34.99685,29.52914],[34.99665,29.52915],[34.99665,29.52897],[34.99649,29.52897],[34.9965,29.52933],[34.99619,29.52933],[34.99629,29.52915],[34.99613,29.52915],[34.99614,29.52943],[34.99604,29.52943],[34.99604,29.52961],[34.99583,29.52961],[34.99574,29.52997],[34.99558,29.52979],[34.99532,29.5298],[34.99533,29.53007],[34.99486,29.53003],[34.99476,29.5303],[34.99461,29.53031],[34.99461,29.5304],[34.99487,29.53039],[34.99466,29.53058],[34.99467,29.53067],[34.99487,29.53066],[34.99478,29.53107],[34.99416,29.53112],[34.99405,29.53104],[34.99406,29.53122],[34.9938,29.53131],[34.9938,29.53104],[34.99349,29.53104],[34.99349,29.53113],[34.99318,29.53105],[34.99308,29.53114],[34.99309,29.53159],[34.99334,29.5315],[34.99325,29.53195],[34.99314,29.53195],[34.99314,29.53177],[34.99299,29.53177],[34.99304,29.53204],[34.99263,29.532],[34.99228,29.53246],[34.99197,29.53247],[34.99197,29.53265],[34.99182,29.53265],[34.99182,29.53256],[34.99156,29.53265],[34.9916,29.53229],[34.99135,29.53229],[34.99125,29.53275],[34.99166,29.53279],[34.99167,29.5331],[34.99147,29.53315],[34.99147,29.53328],[34.99168,29.53337],[34.99091,29.53356],[34.99085,29.53325],[34.99095,29.53311],[34.99054,29.53312],[34.99029,29.53366],[34.99008,29.53371],[34.99008,29.53344],[34.98982,29.53354],[34.98978,29.53385],[34.99003,29.53371],[34.9903,29.53398],[34.9903,29.53429],[34.99046,29.53443],[34.99005,29.53452],[34.98979,29.53475],[34.98994,29.53444],[34.99025,29.53434],[34.99025,29.53416],[34.99004,29.53407],[34.98994,29.53435],[34.98968,29.53421],[34.98958,29.53449],[34.98912,29.53463],[34.98902,29.5349],[34.98871,29.53491],[34.98846,29.53522],[34.98795,29.5355],[34.98774,29.53542],[34.98774,29.53528],[34.98831,29.53518],[34.98835,29.53491],[34.98851,29.53491],[34.98851,29.53482],[34.9883,29.53482],[34.9881,29.53509],[34.98804,29.53487],[34.98819,29.53464],[34.98794,29.53474],[34.98793,29.53456],[34.98783,29.53456],[34.98784,29.53483],[34.98778,29.53474],[34.98747,29.53479],[34.98748,29.53488],[34.98768,29.53492],[34.98769,29.5351],[34.98743,29.53506],[34.98748,29.53524],[34.98686,29.53525],[34.98687,29.53552],[34.98733,29.53542],[34.98733,29.53551],[34.98759,29.53551],[34.98759,29.5356],[34.98801,29.53573],[34.98797,29.53622],[34.98813,29.53663],[34.98885,29.53653],[34.9891,29.53625],[34.98931,29.53625],[34.98956,29.53598],[34.98972,29.53597],[34.98981,29.53579],[34.99002,29.53579],[34.99017,29.53551],[34.99048,29.53551],[34.99074,29.53569],[34.99084,29.53555],[34.99095,29.53573],[34.99126,29.53572],[34.99126,29.53563],[34.99172,29.53572],[34.99173,29.5359],[34.99152,29.5359],[34.99152,29.53608],[34.99178,29.53612],[34.99179,29.53635],[34.99199,29.53634],[34.99236,29.53679],[34.99262,29.53679],[34.99262,29.53697],[34.99242,29.53697],[34.99242,29.53715],[34.99263,29.53737],[34.9932,29.53745],[34.9934,29.53732],[34.99392,29.53749],[34.99413,29.53744],[34.99419,29.53767],[34.99439,29.53762],[34.99465,29.53784],[34.99475,29.5377],[34.99496,29.5377],[34.99502,29.53797],[34.99512,29.53788],[34.99501,29.53752],[34.99511,29.53725],[34.9948,29.53725],[34.99469,29.53698],[34.99437,29.53676],[34.99407,29.53685],[34.99406,29.53667],[34.99391,29.53659],[34.99365,29.53664],[34.99349,29.53659],[34.99344,29.53641],[34.99308,29.53642],[34.99281,29.53615],[34.99281,29.53588],[34.99239,29.53571],[34.99218,29.53535],[34.99182,29.53544],[34.99181,29.53508],[34.99155,29.535],[34.99145,29.53482],[34.9916,29.53482],[34.9917,29.53463],[34.99191,29.53463],[34.99216,29.53436],[34.99237,29.53435],[34.99241,29.53417],[34.99262,29.53417],[34.99277,29.53381],[34.99313,29.5338],[34.99313,29.53362],[34.99333,29.53366],[34.99296,29.5329],[34.99316,29.53294],[34.99332,29.53276],[34.99368,29.53276],[34.99378,29.53302],[34.99404,29.53307],[34.99476,29.53256],[34.99496,29.53256],[34.99521,29.53228],[34.99557,29.53219],[34.99567,29.532],[34.99583,29.53205],[34.99593,29.53186],[34.99613,29.53186],[34.99639,29.53168],[34.99638,29.53136],[34.99674,29.5314],[34.99674,29.53131],[34.99695,29.53131],[34.9971,29.53122],[34.9971,29.53103],[34.99766,29.53076],[34.99755,29.53058],[34.99776,29.53057],[34.99776,29.53048],[34.99812,29.53039],[34.99817,29.53021],[34.99837,29.53016],[34.99826,29.52971]],[[34.99486,29.53021],[34.99502,29.5303],[34.99512,29.53012],[34.99533,29.53011],[34.99533,29.53034],[34.99487,29.53039],[34.99486,29.53021]],[[34.9948,29.53743],[34.9948,29.5373],[34.99485,29.53729],[34.9949,29.53738],[34.9948,29.53743]],[[34.98955,29.53566],[34.98945,29.53557],[34.98955,29.53557],[34.98955,29.53566]],[[34.98887,29.53513],[34.98887,29.53499],[34.98903,29.53499],[34.98903,29.53513],[34.98887,29.53513]],[[34.98949,29.53476],[34.98949,29.53498],[34.98918,29.53508],[34.98918,29.53481],[34.98928,29.53472],[34.98949,29.53476]],[[34.99045,29.53411],[34.99045,29.53384],[34.99071,29.53384],[34.99071,29.53411],[34.99045,29.53411]],[[34.99213,29.53291],[34.99223,29.53264],[34.99238,29.53264],[34.99238,29.53246],[34.99295,29.53245],[34.99305,29.53254],[34.9931,29.53222],[34.99335,29.53213],[34.9935,29.53172],[34.99366,29.53172],[34.99376,29.53199],[34.99356,29.53217],[34.99362,29.53235],[34.99336,29.5324],[34.99352,29.53253],[34.99347,29.53262],[34.99285,29.53272],[34.9928,29.53299],[34.99244,29.53286],[34.99224,29.53314],[34.99183,29.53323],[34.99182,29.53305],[34.99213,29.53291]],[[34.99412,29.53171],[34.99412,29.5318],[34.99402,29.5318],[34.99407,29.53158],[34.99432,29.53157],[34.99433,29.53166],[34.99412,29.53171]],[[34.99406,29.5314],[34.99401,29.53135],[34.99406,29.53135],[34.99406,29.5314]]]]}},{"type":"Feature","properties":{"reef_zone_id":"R-02","zone_name":"Port frontage / First Bay & Power Station","area_km2":0.036625,"marine_park_overlap_pct":0.0,"habitat_class":"Coral/Algae","geomorphic_class":"Reef Slope","sensitivity_weight":1.0,"sensitivity_weight_status":"PLACEHOLDER_PENDING_MARINE_SCIENTIST","provisional":false,"source":"ACA/reef_habitat/v2_0"},"geometry":{"type":"MultiPolygon","coordinates":[[[[34.98285,29.48271],[34.98284,29.48253],[34.98264,29.48244],[34.98263,29.48226],[34.98248,29.48217],[34.98247,29.48199],[34.98226,29.4819],[34.98221,29.48163],[34.982,29.48164],[34.98195,29.48146],[34.98184,29.48146],[34.98185,29.48173],[34.98211,29.48173],[34.98212,29.48227],[34.98237,29.48226],[34.98249,29.4828],[34.9828,29.4828],[34.98301,29.48298],[34.983,29.4828],[34.98285,29.48271]]],[[[34.98301,29.48298],[34.98307,29.48361],[34.98338,29.4836],[34.98338,29.48378],[34.98354,29.48378],[34.98381,29.48441],[34.98401,29.4844],[34.98401,29.48422],[34.9838,29.48414],[34.98364,29.48369],[34.98343,29.4836],[34.98338,29.48333],[34.98317,29.48324],[34.98311,29.48297],[34.98301,29.48298]]],[[[34.9846,29.48548],[34.9847,29.4853],[34.9846,29.4853],[34.98454,29.48503],[34.98433,29.48494],[34.98445,29.48548],[34.9846,29.48548]]],[[[34.98598,29.49006],[34.9858,29.48871],[34.9857,29.48871],[34.98564,29.48853],[34.98572,29.49006],[34.98598,29.49006]]],[[[34.98604,29.49042],[34.98589,29.49078],[34.98605,29.49078],[34.98616,29.49114],[34.98626,29.49114],[34.98643,29.49168],[34.98658,29.49167],[34.98658,29.49185],[34.98679,29.49185],[34.98685,29.49212],[34.98705,29.49212],[34.98689,29.49158],[34.98668,29.4914],[34.98667,29.49122],[34.98657,29.49122],[34.98662,29.49104],[34.98652,29.49104],[34.98651,29.49086],[34.9863,29.49069],[34.98635,29.4905],[34.98625,29.49051],[34.98614,29.49006],[34.98598,29.49006],[34.98604,29.49042]]],[[[34.98787,29.49414],[34.98797,29.49404],[34.98796,29.49359],[34.98775,29.4936],[34.98769,29.49315],[34.98759,29.49315],[34.98748,29.49279],[34.98732,29.49279],[34.98738,29.49329],[34.98759,29.49333],[34.98766,29.49409],[34.98787,29.49414]]],[[[34.98948,29.49754],[34.98958,29.49754],[34.98954,29.4979],[34.98985,29.4979],[34.9898,29.49835],[34.99011,29.49834],[34.99017,29.49843],[34.99021,29.49816],[34.9899,29.4979],[34.98984,29.49763],[34.98963,29.49754],[34.98958,29.49718],[34.98937,29.497],[34.9894,29.4961],[34.98919,29.49592],[34.98922,29.49727],[34.98937,29.49727],[34.98948,29.49754]]],[[[34.99216,29.50282],[34.99206,29.50052],[34.99196,29.50053],[34.99196,29.50021],[34.9917,29.50021],[34.99171,29.50085],[34.99181,29.50084],[34.99179,29.50211],[34.99199,29.5021],[34.99201,29.50283],[34.99216,29.50282]]],[[[34.99184,29.50481],[34.9921,29.50494],[34.99198,29.50427],[34.99183,29.50427],[34.99178,29.50445],[34.99184,29.50481]]]]}},{"type":"Feature","properties":{"reef_zone_id":"R-03","zone_name":"Tourist Camp / north Marine Park boundary","area_km2":0.010575,"marine_park_overlap_pct":0.0,"habitat_class":"Coral/Algae","geomorphic_class":"Reef Slope","sensitivity_weight":1.0,"sensitivity_weight_status":"PLACEHOLDER_PENDING_MARINE_SCIENTIST","provisional":false,"source":"ACA/reef_habitat/v2_0"},"geometry":{"type":"MultiPolygon","coordinates":[[[[34.97763,29.47444],[34.97763,29.47417],[34.97705,29.47373],[34.97682,29.47247],[34.97636,29.47238],[34.97636,29.47256],[34.97662,29.47265],[34.97642,29.47292],[34.97642,29.47301],[34.97663,29.47301],[34.97654,29.47391],[34.9768,29.47409],[34.97727,29.47417],[34.97743,29.47444],[34.97763,29.47444]]],[[[34.98058,29.47769],[34.98042,29.47706],[34.98031,29.47706],[34.98038,29.47765],[34.98058,29.47769]]]]}},{"type":"Feature","properties":{"reef_zone_id":"R-04","zone_name":"Marine Science Station / Cedar Pride","area_km2":0.14689195615531792,"marine_park_overlap_pct":96.9,"habitat_class":"Coral/Algae","geomorphic_class":"Outer Reef Flat","sensitivity_weight":1.0,"sensitivity_weight_status":"PLACEHOLDER_PENDING_MARINE_SCIENTIST","provisional":false,"source":"ACA/reef_habitat/v2_0"},"geometry":{"type":"MultiPolygon","coordinates":[[[[34.97166,29.45337],[34.9714,29.45315],[34.97134,29.45288],[34.97108,29.4527],[34.97106,29.45189],[34.97085,29.45171],[34.97089,29.45081],[34.97068,29.45063],[34.97061,29.44973],[34.97035,29.44965],[34.97034,29.44928],[34.96998,29.44902],[34.96997,29.44884],[34.96974,29.44884],[34.96976,29.44999],[34.97028,29.44998],[34.96969,29.45045],[34.9697,29.45092],[34.96981,29.45101],[34.96961,29.45119],[34.96962,29.45218],[34.96952,29.45227],[34.96963,29.45227],[34.96979,29.45281],[34.97,29.45281],[34.96995,29.45317],[34.97016,29.45326],[34.97016,29.45344],[34.97032,29.45343],[34.97032,29.45362],[34.97053,29.45361],[34.97086,29.45451],[34.97117,29.4546],[34.97112,29.45487],[34.97133,29.45495],[34.97149,29.45558],[34.9717,29.45558],[34.97186,29.45603],[34.97202,29.45612],[34.97203,29.45639],[34.97234,29.45647],[34.97229,29.45683],[34.97266,29.4571],[34.97256,29.45755],[34.97319,29.45772],[34.97329,29.45781],[34.97319,29.45799],[34.97386,29.45812],[34.97392,29.45825],[34.97356,29.45817],[34.97356,29.45826],[34.97366,29.45826],[34.97366,29.45844],[34.97403,29.45852],[34.97403,29.45861],[34.97454,29.45856],[34.97464,29.45838],[34.97475,29.45847],[34.97485,29.45838],[34.97521,29.45837],[34.97521,29.45846],[34.97526,29.45832],[34.97557,29.45836],[34.97572,29.45818],[34.9752,29.45801],[34.97483,29.45765],[34.97463,29.45766],[34.97447,29.4573],[34.97421,29.45721],[34.97404,29.4564],[34.97383,29.45641],[34.97383,29.45623],[34.97367,29.45614],[34.97367,29.45596],[34.97346,29.45587],[34.9734,29.4556],[34.9732,29.45556],[34.97304,29.45529],[34.97283,29.45529],[34.97288,29.45502],[34.97277,29.45502],[34.97277,29.45475],[34.97256,29.45457],[34.9725,29.45421],[34.97229,29.45422],[34.97229,29.45404],[34.97213,29.45404],[34.97198,29.45386],[34.97197,29.45368],[34.97166,29.45369],[34.97166,29.45337]]],[[[34.975,29.46072],[34.9749,29.4609],[34.97515,29.4609],[34.9752,29.46072],[34.975,29.46072]]],[[[34.9749,29.46131],[34.97511,29.46135],[34.97502,29.46194],[34.97487,29.46203],[34.97498,29.46248],[34.97529,29.46256],[34.97526,29.46126],[34.9749,29.46122],[34.9749,29.46131]]]]}},{"type":"Feature","properties":{"reef_zone_id":"R-05","zone_name":"Japanese Garden / Gorgonian","area_km2":0.06942578091378408,"marine_park_overlap_pct":100.0,"habitat_class":"Coral/Algae","geomorphic_class":"Reef Slope","sensitivity_weight":1.0,"sensitivity_weight_status":"PLACEHOLDER_PENDING_MARINE_SCIENTIST","provisional":false,"source":"ACA/reef_habitat/v2_0"},"geometry":{"type":"MultiPolygon","coordinates":[[[[34.96968,29.43923],[34.96951,29.44068],[34.96935,29.44077],[34.96925,29.44068],[34.96925,29.44086],[34.96946,29.44095],[34.96942,29.44149],[34.96952,29.44149],[34.96952,29.44167],[34.96942,29.44167],[34.96928,29.44217],[34.96917,29.44217],[34.96918,29.44262],[34.96898,29.44263],[34.96898,29.44281],[34.96888,29.44281],[34.96889,29.44326],[34.96873,29.44335],[34.96874,29.44398],[34.96854,29.44408],[34.96854,29.44426],[34.96834,29.44426],[34.96834,29.44435],[34.9688,29.44434],[34.96891,29.44461],[34.96901,29.44461],[34.96906,29.44434],[34.969,29.44398],[34.96926,29.44407],[34.96936,29.44398],[34.96945,29.44316],[34.96961,29.44316],[34.9697,29.44266],[34.9699,29.44266],[34.96999,29.44158],[34.97009,29.44157],[34.96998,29.44112],[34.97018,29.44103],[34.97016,29.43977],[34.97026,29.43977],[34.97015,29.4395],[34.97026,29.4395],[34.97025,29.43932],[34.97015,29.43932],[34.97015,29.43914],[34.9705,29.43877],[34.97049,29.43847],[34.96988,29.43848],[34.96979,29.43923],[34.96968,29.43923]]],[[[34.96683,29.44631],[34.96684,29.44667],[34.9671,29.44667],[34.96721,29.44703],[34.96736,29.44712],[34.96726,29.44739],[34.96758,29.44748],[34.96753,29.44775],[34.96784,29.44774],[34.96805,29.44806],[34.9682,29.44805],[34.96816,29.44823],[34.96826,29.44832],[34.96883,29.44831],[34.96883,29.4484],[34.96909,29.44831],[34.96935,29.44849],[34.96935,29.44867],[34.96945,29.44867],[34.96941,29.4493],[34.96952,29.4493],[34.96952,29.44957],[34.96963,29.44957],[34.96964,29.45029],[34.96976,29.45045],[34.97028,29.44998],[34.96976,29.44999],[34.96971,29.44848],[34.96945,29.4484],[34.96945,29.44821],[34.96924,29.44822],[34.96924,29.44813],[34.96882,29.44813],[34.96882,29.44786],[34.9682,29.44787],[34.9682,29.4476],[34.96783,29.44756],[34.96783,29.44729],[34.96762,29.44729],[34.96756,29.4468],[34.9672,29.44658],[34.96745,29.44621],[34.96744,29.44599],[34.96755,29.44599],[34.96754,29.44563],[34.9678,29.44562],[34.96785,29.44544],[34.9681,29.44544],[34.96825,29.44516],[34.96856,29.44507],[34.96856,29.44489],[34.9682,29.44489],[34.96819,29.44471],[34.96773,29.44481],[34.96784,29.44508],[34.96753,29.44518],[34.96748,29.44536],[34.96717,29.44532],[34.96718,29.44559],[34.96682,29.44568],[34.96683,29.44622],[34.96673,29.44632],[34.96683,29.44631]],[[34.96846,29.44507],[34.96835,29.44498],[34.96845,29.44498],[34.96846,29.44507]]]]}},{"type":"Feature","properties":{"reef_zone_id":"R-06","zone_name":"Black Rock / Blue Coral","area_km2":0.18631431263168502,"marine_park_overlap_pct":100.0,"habitat_class":"Coral/Algae","geomorphic_class":"Outer Reef Flat","sensitivity_weight":1.0,"sensitivity_weight_status":"PLACEHOLDER_PENDING_MARINE_SCIENTIST","provisional":false,"source":"ACA/reef_habitat/v2_0"},"geometry":{"type":"Polygon","coordinates":[[[34.97231,29.42313],[34.97214,29.42233],[34.97229,29.42223],[34.97229,29.42205],[34.9726,29.42191],[34.97264,29.42173],[34.97259,29.4216],[34.97238,29.42155],[34.97233,29.42138],[34.97212,29.42151],[34.97207,29.42133],[34.97227,29.4212],[34.97216,29.42084],[34.97247,29.42083],[34.97231,29.42056],[34.97242,29.42056],[34.97241,29.42007],[34.97256,29.42002],[34.97256,29.41979],[34.9723,29.41984],[34.97224,29.41957],[34.97239,29.41939],[34.9726,29.41939],[34.9726,29.41961],[34.97276,29.41965],[34.97275,29.41947],[34.97286,29.41947],[34.97295,29.41866],[34.97274,29.41875],[34.97278,29.41794],[34.97293,29.41794],[34.97293,29.41807],[34.97314,29.41802],[34.97309,29.41821],[34.97319,29.4182],[34.97329,29.41784],[34.9736,29.41766],[34.97349,29.41739],[34.97375,29.41743],[34.97431,29.41706],[34.9744,29.41661],[34.97481,29.41642],[34.97485,29.41601],[34.97464,29.41588],[34.97464,29.41575],[34.97479,29.41552],[34.97438,29.41571],[34.97439,29.41616],[34.97408,29.41621],[34.97419,29.41652],[34.97394,29.41661],[34.97393,29.41648],[34.97383,29.41648],[34.97373,29.41657],[34.97359,29.41721],[34.97325,29.41712],[34.97326,29.41746],[34.97277,29.41749],[34.97275,29.41791],[34.97242,29.41795],[34.97238,29.41858],[34.97248,29.41867],[34.97238,29.41876],[34.97249,29.41885],[34.97226,29.41894],[34.97226,29.41928],[34.97203,29.4193],[34.97188,29.41949],[34.97194,29.42003],[34.97184,29.41998],[34.97184,29.42007],[34.97205,29.42021],[34.97184,29.42034],[34.97205,29.42043],[34.97179,29.42044],[34.97185,29.42062],[34.97175,29.42071],[34.97185,29.4208],[34.9717,29.42089],[34.9717,29.42107],[34.9715,29.42098],[34.97141,29.42161],[34.97151,29.42161],[34.97151,29.42179],[34.97125,29.4218],[34.97126,29.42198],[34.97095,29.42198],[34.97095,29.42216],[34.97131,29.42207],[34.97121,29.42243],[34.97106,29.42234],[34.97096,29.42248],[34.97106,29.42261],[34.97122,29.42252],[34.97122,29.42279],[34.97132,29.42279],[34.97143,29.42306],[34.97133,29.42315],[34.97144,29.42324],[34.9714,29.42387],[34.9715,29.42378],[34.97171,29.42387],[34.97161,29.42432],[34.97141,29.42432],[34.97141,29.42441],[34.97161,29.42441],[34.97162,29.42459],[34.97187,29.42458],[34.97194,29.42513],[34.97214,29.42512],[34.97194,29.42531],[34.97206,29.42639],[34.97222,29.42647],[34.97213,29.42729],[34.97239,29.42746],[34.9726,29.42746],[34.97266,29.42782],[34.97286,29.42782],[34.97292,29.42809],[34.97313,29.42809],[34.97313,29.42836],[34.9734,29.42862],[34.97356,29.42907],[34.97341,29.42916],[34.97346,29.42934],[34.9732,29.42935],[34.97314,29.42899],[34.97304,29.42899],[34.9731,29.42953],[34.97357,29.42952],[34.97367,29.42961],[34.97368,29.42979],[34.97347,29.42997],[34.97373,29.42997],[34.97374,29.4306],[34.97385,29.43069],[34.97375,29.43078],[34.97395,29.43087],[34.97391,29.43114],[34.97412,29.43123],[34.97412,29.43168],[34.97392,29.43168],[34.97392,29.43186],[34.97382,29.43186],[34.97377,29.43223],[34.97367,29.43223],[34.97383,29.43259],[34.97373,29.43259],[34.97368,29.43286],[34.97348,29.43286],[34.97348,29.43304],[34.97328,29.43323],[34.97339,29.43358],[34.97323,29.43359],[34.97324,29.43368],[34.97277,29.43364],[34.97247,29.434],[34.97247,29.43418],[34.97232,29.43419],[34.97232,29.43437],[34.97212,29.43437],[34.97212,29.43455],[34.97196,29.43455],[34.97197,29.43482],[34.97166,29.43474],[34.97161,29.43501],[34.9713,29.4351],[34.97116,29.43556],[34.97085,29.43565],[34.97071,29.4362],[34.9705,29.43624],[34.97051,29.43661],[34.97035,29.43661],[34.97036,29.43697],[34.97026,29.43724],[34.97016,29.43724],[34.97007,29.43778],[34.96997,29.43779],[34.96988,29.43848],[34.97049,29.43847],[34.97053,29.43751],[34.97068,29.4375],[34.97068,29.43723],[34.97088,29.43723],[34.97088,29.4371],[34.97098,29.43709],[34.97107,29.43646],[34.97123,29.43646],[34.97122,29.43628],[34.97143,29.43619],[34.97168,29.43564],[34.97188,29.43564],[34.97203,29.43527],[34.97224,29.43527],[34.97234,29.43509],[34.97259,29.435],[34.97259,29.43491],[34.97238,29.43491],[34.97233,29.43473],[34.97248,29.43455],[34.97284,29.43454],[34.97284,29.43445],[34.97268,29.43445],[34.97268,29.43427],[34.97294,29.43436],[34.97293,29.43409],[34.9735,29.43421],[34.97345,29.43399],[34.97375,29.43385],[34.97374,29.43313],[34.974,29.43312],[34.97409,29.43258],[34.9744,29.43258],[34.97438,29.43177],[34.97454,29.43176],[34.97454,29.43158],[34.97464,29.43158],[34.97467,29.4305],[34.97457,29.4305],[34.97456,29.43005],[34.97445,29.43005],[34.97445,29.42973],[34.97419,29.42965],[34.97428,29.42906],[34.97402,29.42906],[34.97385,29.42807],[34.97364,29.42799],[34.97364,29.42772],[34.97338,29.42763],[34.97332,29.42727],[34.97311,29.42718],[34.97323,29.42565],[34.97313,29.42565],[34.97284,29.42412],[34.97274,29.42412],[34.97268,29.42367],[34.97247,29.42349],[34.97241,29.42313],[34.97231,29.42313]],[[34.9722,29.42025],[34.97231,29.42038],[34.97226,29.42038],[34.9722,29.42025]],[[34.97313,29.41771],[34.97308,29.41762],[34.97313,29.41762],[34.97313,29.41771]],[[34.97443,29.43122],[34.97448,29.43136],[34.97438,29.4314],[34.97432,29.43127],[34.97443,29.43122]]]}},{"type":"Feature","properties":{"reef_zone_id":"R-07","zone_name":"Tala Bay / Seven Sisters","area_km2":0.12654295029921298,"marine_park_overlap_pct":92.4,"habitat_class":"Rock","geomorphic_class":"Outer Reef Flat","sensitivity_weight":1.0,"sensitivity_weight_status":"PLACEHOLDER_PENDING_MARINE_SCIENTIST","provisional":false,"source":"ACA/reef_habitat/v2_0"},"geometry":{"type":"MultiPolygon","coordinates":[[[[34.96698,29.40061],[34.96708,29.40052],[34.96698,29.40052],[34.96698,29.40061]]],[[[34.96667,29.40075],[34.96657,29.40057],[34.96657,29.4008],[34.96667,29.40075]]],[[[34.96798,29.40177],[34.96772,29.40141],[34.96762,29.40159],[34.96746,29.4016],[34.96756,29.40123],[34.9673,29.40106],[34.9673,29.40124],[34.9672,29.40124],[34.96726,29.40196],[34.96747,29.40196],[34.96753,29.40223],[34.96784,29.40231],[34.96789,29.40258],[34.96847,29.40294],[34.96853,29.4033],[34.96873,29.4032],[34.96874,29.40347],[34.96889,29.40347],[34.9691,29.40374],[34.96972,29.40382],[34.96972,29.40391],[34.96988,29.40382],[34.96988,29.40391],[34.97045,29.40394],[34.97045,29.40403],[34.97086,29.40403],[34.97107,29.40421],[34.97133,29.4042],[34.97133,29.40447],[34.97169,29.40447],[34.97169,29.40456],[34.97221,29.40437],[34.97232,29.40473],[34.97278,29.40472],[34.97283,29.40463],[34.97283,29.4049],[34.9735,29.40489],[34.97356,29.40503],[34.97382,29.40502],[34.97382,29.40529],[34.97449,29.40528],[34.97455,29.40555],[34.97475,29.40555],[34.97481,29.40582],[34.97512,29.40581],[34.97518,29.40627],[34.97544,29.40626],[34.97544,29.40644],[34.97581,29.40671],[34.97581,29.40689],[34.97607,29.40688],[34.97607,29.40706],[34.97617,29.40706],[34.97608,29.40733],[34.97633,29.40733],[34.97634,29.4076],[34.97654,29.4076],[34.97662,29.40868],[34.97652,29.40877],[34.97682,29.40877],[34.97683,29.40886],[34.97698,29.40876],[34.97708,29.40885],[34.97715,29.40939],[34.977,29.40967],[34.97715,29.40975],[34.97706,29.41021],[34.97727,29.41038],[34.97723,29.41102],[34.97754,29.41101],[34.97759,29.4111],[34.97764,29.41088],[34.97762,29.40975],[34.97751,29.40975],[34.97745,29.40903],[34.97796,29.40907],[34.97796,29.40898],[34.97843,29.40897],[34.97842,29.40888],[34.97889,29.40887],[34.97889,29.40914],[34.97879,29.40914],[34.97889,29.40923],[34.97885,29.40977],[34.97911,29.40986],[34.97952,29.40963],[34.9791,29.40905],[34.97915,29.40891],[34.9794,29.40886],[34.97929,29.40859],[34.97924,29.40869],[34.97914,29.4086],[34.97868,29.4086],[34.97868,29.40869],[34.9778,29.40871],[34.97781,29.40889],[34.97734,29.40885],[34.97727,29.40795],[34.97691,29.40804],[34.97691,29.40786],[34.97706,29.40786],[34.97706,29.40777],[34.97691,29.40777],[34.9769,29.40741],[34.97706,29.40741],[34.977,29.40714],[34.97664,29.40697],[34.97664,29.40706],[34.97633,29.40715],[34.97663,29.40678],[34.97616,29.40643],[34.9761,29.40616],[34.9759,29.40616],[34.97579,29.40599],[34.97564,29.40599],[34.97516,29.40545],[34.97485,29.40537],[34.97454,29.4051],[34.97418,29.40511],[34.97412,29.40493],[34.9735,29.40476],[34.97345,29.40462],[34.97267,29.40445],[34.97267,29.40436],[34.97231,29.40437],[34.97194,29.4041],[34.97158,29.40411],[34.97142,29.40393],[34.97106,29.40384],[34.97085,29.40358],[34.97059,29.40358],[34.97023,29.40332],[34.96981,29.40328],[34.96971,29.4031],[34.96955,29.4031],[34.96944,29.40256],[34.96923,29.40256],[34.96918,29.40238],[34.96882,29.4023],[34.96861,29.40203],[34.96835,29.40195],[34.96829,29.40177],[34.96798,29.40177]],[[34.97664,29.40706],[34.97669,29.40714],[34.97659,29.40715],[34.97664,29.40706]]],[[[34.97223,29.41894],[34.97223,29.41912],[34.97213,29.41912],[34.97213,29.41928],[34.97226,29.41928],[34.97223,29.41894]]],[[[34.97276,29.41965],[34.9726,29.41939],[34.97239,29.41939],[34.97224,29.41957],[34.9723,29.41984],[34.97256,29.41979],[34.97256,29.42002],[34.97241,29.42007],[34.97242,29.42056],[34.97231,29.42056],[34.97247,29.42083],[34.97216,29.42084],[34.97227,29.4212],[34.97207,29.42133],[34.97212,29.42151],[34.97233,29.42138],[34.97238,29.42155],[34.97259,29.4216],[34.97264,29.42173],[34.97284,29.42119],[34.97294,29.42119],[34.97283,29.42083],[34.97304,29.42082],[34.97287,29.4201],[34.97277,29.42011],[34.97276,29.41965]]],[[[34.97533,29.41429],[34.97569,29.41406],[34.97558,29.41384],[34.9762,29.41356],[34.97624,29.41329],[34.97665,29.41301],[34.9767,29.41283],[34.97618,29.41284],[34.97619,29.41302],[34.97573,29.41325],[34.97563,29.41343],[34.97552,29.41343],[34.97552,29.41325],[34.97537,29.41344],[34.97516,29.41344],[34.97517,29.41362],[34.97501,29.41371],[34.97512,29.41398],[34.97471,29.41408],[34.97472,29.41426],[34.97456,29.41426],[34.97473,29.41498],[34.97494,29.41498],[34.97483,29.41507],[34.97494,29.41534],[34.97484,29.41534],[34.97479,29.41565],[34.97464,29.41575],[34.97464,29.41588],[34.97485,29.41601],[34.97481,29.41633],[34.97511,29.41597],[34.9751,29.4156],[34.9752,29.4156],[34.97539,29.41465],[34.97533,29.41429]],[[34.97558,29.41361],[34.97563,29.41366],[34.97558,29.41366],[34.97558,29.41361]]],[[[34.97476,29.41647],[34.9744,29.41661],[34.97435,29.41688],[34.97476,29.4166],[34.97476,29.41647]]],[[[34.97436,29.41697],[34.9743,29.41688],[34.9743,29.41697],[34.97436,29.41697]]],[[[34.97302,29.41694],[34.97292,29.41746],[34.97326,29.41746],[34.97322,29.41694],[34.97302,29.41694]]],[[[34.97385,29.41734],[34.97395,29.41738],[34.97395,29.41729],[34.97385,29.41734]]],[[[34.97369,29.41738],[34.97349,29.41739],[34.97349,29.41752],[34.97365,29.41757],[34.97369,29.41738]]],[[[34.97303,29.41771],[34.97313,29.41771],[34.97313,29.41762],[34.97308,29.41762],[34.97303,29.41771]]],[[[34.97275,29.41791],[34.97275,29.41758],[34.97241,29.41767],[34.97247,29.41792],[34.97275,29.41791]]],[[[34.97314,29.41802],[34.97293,29.41812],[34.97309,29.41821],[34.97314,29.41802]]]]}},{"type":"Feature","properties":{"reef_zone_id":"R-08","zone_name":"Royal Diving Club / Yamanieh to Saudi border","area_km2":0.195575,"marine_park_overlap_pct":10.3,"habitat_class":"Rock","geomorphic_class":"Outer Reef Flat","sensitivity_weight":1.0,"sensitivity_weight_status":"PLACEHOLDER_PENDING_MARINE_SCIENTIST","provisional":false,"source":"ACA/reef_habitat/v2_0"},"geometry":{"type":"MultiPolygon","coordinates":[[[[34.95826,29.35662],[34.95784,29.35649],[34.95784,29.35631],[34.95753,29.35636],[34.95753,29.35622],[34.95722,29.35623],[34.95696,29.35596],[34.95679,29.35542],[34.95648,29.35516],[34.95641,29.35444],[34.95626,29.35453],[34.95625,29.35421],[34.95615,29.35417],[34.95615,29.35403],[34.9563,29.35403],[34.9563,29.35381],[34.95604,29.35399],[34.95522,29.35396],[34.95522,29.35423],[34.95497,29.3545],[34.95499,29.3554],[34.95505,29.35567],[34.95525,29.35567],[34.95525,29.35585],[34.95562,29.35621],[34.95598,29.35625],[34.95603,29.35616],[34.95604,29.35634],[34.95634,29.35624],[34.9564,29.35651],[34.95702,29.3565],[34.95702,29.35659],[34.95738,29.35659],[34.95738,29.35668],[34.95743,29.35659],[34.95754,29.35667],[34.9581,29.35667],[34.958,29.35694],[34.95836,29.35684],[34.95837,29.35693],[34.95873,29.35693],[34.95873,29.35702],[34.95924,29.35692],[34.9594,29.35714],[34.95955,29.35705],[34.95966,29.35714],[34.95965,29.35696],[34.95981,29.35696],[34.95981,29.35687],[34.95893,29.35683],[34.95846,29.35648],[34.9583,29.35648],[34.95826,29.35662]],[[34.95671,29.35633],[34.9565,29.35624],[34.9567,29.35624],[34.95671,29.35633]],[[34.95556,29.35589],[34.95546,29.35594],[34.95541,29.35576],[34.95551,29.35576],[34.95556,29.35589]],[[34.95508,29.35459],[34.95543,29.35418],[34.95589,29.35417],[34.95589,29.35431],[34.95564,29.35431],[34.95549,29.35467],[34.95534,29.35472],[34.95529,29.35517],[34.95509,29.35513],[34.95508,29.35459]],[[34.95617,29.35516],[34.95607,29.35516],[34.95606,29.35503],[34.95617,29.35503],[34.95617,29.35516]]],[[[34.96116,29.35766],[34.96101,29.35766],[34.9609,29.35748],[34.96064,29.35749],[34.96075,29.35758],[34.9607,29.35794],[34.96101,29.35793],[34.96101,29.35802],[34.96137,29.35811],[34.96143,29.35847],[34.96117,29.35838],[34.96118,29.35856],[34.96097,29.35856],[34.96118,29.35883],[34.96164,29.35873],[34.96164,29.35855],[34.96262,29.35854],[34.96262,29.35845],[34.96241,29.35845],[34.96241,29.35827],[34.96215,29.35828],[34.96199,29.35801],[34.96142,29.35793],[34.96142,29.35775],[34.96116,29.35775],[34.96116,29.35766]],[[34.96143,29.35847],[34.96154,29.35856],[34.96143,29.35856],[34.96143,29.35847]],[[34.96133,29.35847],[34.96128,29.35856],[34.96128,29.35847],[34.96133,29.35847]]],[[[34.96133,29.36663],[34.96124,29.36736],[34.96145,29.36744],[34.9614,29.36763],[34.96119,29.36754],[34.9611,29.36772],[34.96089,29.36772],[34.96074,29.36791],[34.96187,29.36789],[34.96191,29.36708],[34.9618,29.36708],[34.96181,29.36762],[34.96161,29.36762],[34.9616,29.36708],[34.96144,29.36708],[34.96144,29.36681],[34.9618,29.3669],[34.9618,29.36672],[34.96133,29.36663]]],[[[34.9582,29.36727],[34.9582,29.367],[34.95809,29.367],[34.95805,29.36727],[34.9582,29.36727]]],[[[34.96217,29.37564],[34.96227,29.37519],[34.96206,29.37524],[34.96207,29.37556],[34.96181,29.37565],[34.96182,29.37579],[34.96151,29.37579],[34.96151,29.37606],[34.96182,29.37615],[34.96197,29.37574],[34.96217,29.37564]]],[[[34.96295,29.37834],[34.96192,29.37831],[34.96187,29.37849],[34.96202,29.37858],[34.9629,29.37861],[34.96296,29.37897],[34.96317,29.37897],[34.96307,29.37933],[34.96333,29.37942],[34.96349,29.37969],[34.96369,29.37959],[34.9637,29.37977],[34.9638,29.37977],[34.9638,29.38004],[34.9636,29.38023],[34.96366,29.3804],[34.96356,29.3805],[34.96362,29.38104],[34.96403,29.3813],[34.96416,29.38238],[34.96431,29.38238],[34.96441,29.38202],[34.96431,29.38202],[34.96425,29.38175],[34.9644,29.38175],[34.9644,29.38166],[34.96425,29.38166],[34.96424,29.3813],[34.96414,29.3813],[34.96424,29.38112],[34.96403,29.38103],[34.96406,29.38004],[34.96416,29.37999],[34.96405,29.37959],[34.96342,29.37905],[34.96326,29.37861],[34.96295,29.37834]]],[[[34.96272,29.35863],[34.96253,29.35926],[34.96263,29.35926],[34.96264,29.35944],[34.96295,29.35953],[34.96305,29.3593],[34.96289,29.35908],[34.96288,29.35867],[34.96272,29.35863]]],[[[34.96272,29.37455],[34.96205,29.3747],[34.96211,29.37483],[34.96236,29.37483],[34.96227,29.37519],[34.96242,29.37519],[34.96242,29.37501],[34.96263,29.37501],[34.96262,29.37474],[34.96272,29.37473],[34.96272,29.37455]]],[[[34.96289,29.37518],[34.96289,29.37536],[34.96304,29.37536],[34.96304,29.37518],[34.96289,29.37518]]],[[[34.96351,29.37535],[34.96331,29.37554],[34.96326,29.37581],[34.96331,29.3759],[34.96362,29.37589],[34.96362,29.37598],[34.96388,29.37571],[34.96387,29.37553],[34.96536,29.37551],[34.96547,29.37564],[34.96578,29.37564],[34.96577,29.37519],[34.96546,29.37519],[34.96546,29.37533],[34.96516,29.37542],[34.9651,29.3752],[34.96495,29.37533],[34.96407,29.37526],[34.96411,29.37444],[34.96406,29.37462],[34.96385,29.37463],[34.96375,29.37481],[34.9635,29.3749],[34.9634,29.37527],[34.96371,29.37526],[34.96371,29.37535],[34.96351,29.37535]]],[[[34.96244,29.37591],[34.96244,29.37618],[34.96224,29.37619],[34.96214,29.37637],[34.96188,29.37633],[34.96188,29.37642],[34.96224,29.37646],[34.96235,29.37672],[34.96225,29.37673],[34.96225,29.37691],[34.96246,29.3769],[34.96236,29.37718],[34.96215,29.37722],[34.96215,29.37731],[34.96237,29.37754],[34.96278,29.37753],[34.96297,29.37708],[34.96323,29.37698],[34.96322,29.37653],[34.96332,29.37653],[34.96332,29.37635],[34.96353,29.37626],[34.96357,29.37608],[34.96316,29.37599],[34.96316,29.37617],[34.9627,29.37618],[34.96269,29.37591],[34.96244,29.37591]]],[[[34.96362,29.39719],[34.96352,29.39728],[34.96367,29.39728],[34.96368,29.39755],[34.96393,29.39754],[34.96394,29.39763],[34.96404,29.39763],[34.96398,29.39727],[34.96439,29.39736],[34.9646,29.39753],[34.96486,29.39753],[34.96495,29.39699],[34.96506,29.39699],[34.96495,29.39658],[34.9653,29.39644],[34.96525,29.39622],[34.96484,29.39627],[34.96493,29.39595],[34.96468,29.39591],[34.96466,29.39532],[34.96456,29.39532],[34.96451,29.39555],[34.96448,29.39636],[34.96443,29.39645],[34.96412,29.39646],[34.96423,29.39664],[34.96402,29.39682],[34.96388,29.39745],[34.96378,29.39746],[34.96377,29.39701],[34.96361,29.39701],[34.96362,29.39719]]],[[[34.96447,29.3826],[34.96416,29.38256],[34.96416,29.38265],[34.96442,29.38274],[34.96448,29.38292],[34.96484,29.38318],[34.9651,29.38318],[34.9651,29.38327],[34.96474,29.38328],[34.96475,29.38346],[34.96531,29.38345],[34.96547,29.38363],[34.96542,29.38381],[34.96558,29.38381],[34.96568,29.38398],[34.96594,29.38389],[34.9661,29.38425],[34.96631,29.38425],[34.96637,29.38488],[34.96622,29.38506],[34.96658,29.38505],[34.96664,29.38532],[34.96694,29.38532],[34.967,29.3855],[34.9669,29.38555],[34.9671,29.38559],[34.96711,29.38572],[34.96716,29.38559],[34.96731,29.38563],[34.96722,29.38604],[34.96727,29.38617],[34.96753,29.38626],[34.96748,29.38648],[34.96764,29.38684],[34.9678,29.3867],[34.96775,29.3872],[34.96812,29.38733],[34.96816,29.38674],[34.96779,29.38652],[34.96789,29.38639],[34.96778,29.38589],[34.96798,29.3858],[34.96793,29.38553],[34.96767,29.38549],[34.96766,29.38513],[34.96735,29.38504],[34.96703,29.3846],[34.96667,29.3846],[34.96666,29.38406],[34.9664,29.38397],[34.9664,29.38379],[34.96619,29.38371],[34.96603,29.38344],[34.96583,29.38344],[34.96577,29.38326],[34.9652,29.38309],[34.96515,29.38291],[34.96494,29.38291],[34.96447,29.3826]],[[34.96806,29.38706],[34.96791,29.38706],[34.9679,29.38679],[34.968,29.38675],[34.96806,29.38706]],[[34.96753,29.38612],[34.96763,29.38603],[34.96763,29.38612],[34.96753,29.38612]],[[34.96747,29.38599],[34.96732,29.38599],[34.96732,29.38585],[34.96747,29.38585],[34.96747,29.38599]],[[34.96673,29.38492],[34.96663,29.38501],[34.96663,29.38492],[34.96673,29.38492]],[[34.96704,29.38482],[34.96688,29.38473],[34.96704,29.38473],[34.96704,29.38482]]],[[[34.96439,29.3919],[34.9646,29.39189],[34.9646,29.39208],[34.96414,29.39217],[34.96425,29.39253],[34.96415,29.39253],[34.9642,29.3928],[34.96405,29.39299],[34.96441,29.3928],[34.96466,29.39226],[34.96521,29.39171],[34.96531,29.39121],[34.96566,29.39102],[34.96622,29.39052],[34.96637,29.3902],[34.96667,29.39001],[34.96667,29.38974],[34.96712,29.38924],[34.96697,29.38915],[34.96691,29.38884],[34.96681,29.38907],[34.96666,29.38911],[34.96677,29.38947],[34.96646,29.38952],[34.96631,29.38979],[34.9661,29.38984],[34.96626,29.39007],[34.96574,29.38989],[34.96559,29.39008],[34.96565,29.39053],[34.96529,29.39062],[34.9653,29.3908],[34.9652,29.3908],[34.96519,29.39062],[34.96494,29.39072],[34.96515,29.39089],[34.96504,29.3909],[34.96515,29.39107],[34.96484,29.39126],[34.96495,29.39162],[34.96475,29.39162],[34.96475,29.3918],[34.9647,29.39171],[34.96439,29.39172],[34.96439,29.3919]],[[34.9658,29.39012],[34.96596,29.39021],[34.96575,29.39021],[34.9658,29.39012]]],[[[34.96414,29.39754],[34.9643,29.39781],[34.96431,29.39817],[34.96467,29.39835],[34.96452,29.39853],[34.96452,29.39871],[34.96468,29.3988],[34.96458,29.39893],[34.96489,29.39915],[34.96494,29.39906],[34.96556,29.39914],[34.96593,29.3995],[34.96593,29.39972],[34.96603,29.39963],[34.9664,29.39972],[34.96646,29.40008],[34.96656,29.40008],[34.96646,29.40053],[34.96667,29.40062],[34.96662,29.4008],[34.96683,29.40079],[34.96703,29.40052],[34.96703,29.40025],[34.96692,29.40025],[34.96676,29.39971],[34.9665,29.39954],[34.96649,29.39936],[34.96613,29.39936],[34.96613,29.39918],[34.96582,29.39919],[34.96582,29.3991],[34.96602,29.39909],[34.96602,29.39873],[34.96591,29.39864],[34.96586,29.39873],[34.9653,29.3987],[34.96524,29.39852],[34.96503,29.39843],[34.96523,29.39816],[34.96477,29.39807],[34.96466,29.39789],[34.96476,29.3978],[34.9644,29.39772],[34.96424,29.39754],[34.96414,29.39754]]]]}}]}