{"type":"FeatureCollection","features":[{"type":"Feature","properties":{},"geometry":{"type":"MultiLineString","coordinates":[[[34.95724,29.54897],[34.95723,29.54852],[34.95671,29.54853],[34.9567,29.54808],[34.95619,29.54808],[34.95618,29.54763],[34.95566,29.54764],[34.95565,29.54719],[34.95514,29.5472],[34.95513,29.54675],[34.95461,29.54675],[34.9546,29.54585],[34.95408,29.54586],[34.95407,29.54541],[34.95356,29.54542],[34.95354,29.54451],[34.95302,29.54452],[34.95301,29.54407],[34.9525,29.54408],[34.95249,29.54363],[34.95197,29.54364],[34.95196,29.54273],[34.95144,29.54274],[34.95143,29.54229],[34.95092,29.5423],[34.95091,29.54185],[34.95039,29.54185],[34.95038,29.5414],[34.94987,29.54141],[34.94986,29.54096],[34.94934,29.54097],[34.94933,29.54052],[34.94882,29.54052],[34.9488,29.53962],[34.94829,29.53963],[34.94828,29.53918],[34.94776,29.53919],[34.94774,29.53828],[34.94723,29.53829],[34.9472,29.53694],[34.94669,29.53695],[34.94667,29.53604],[34.94615,29.53605],[34.94614,29.5356],[34.94563,29.53561],[34.94561,29.53471],[34.9451,29.53471],[34.94509,29.53426],[34.94406,29.53428],[34.94405,29.53383],[34.94353,29.53383],[34.94351,29.53293],[34.943,29.53294],[34.94299,29.53249],[34.94247,29.5325],[34.94246,29.53159],[34.94194,29.5316],[34.94193,29.53115],[34.94142,29.53116],[34.94141,29.53071],[34.94089,29.53071],[34.94088,29.53026],[34.94037,29.53027],[34.94036,29.52982],[34.93984,29.52983],[34.93984,29.52938],[34.9388,29.52939],[34.9388,29.52894],[34.93828,29.52895],[34.93827,29.5285],[34.93776,29.52851],[34.93775,29.52805],[34.93723,29.52806],[34.93722,29.52761],[34.93671,29.52762],[34.9367,29.52717],[34.93618,29.52717],[34.93617,29.52672],[34.93566,29.52673],[34.93564,29.52583],[34.93513,29.52584],[34.93512,29.52539],[34.9346,29.52539],[34.93459,29.52494],[34.93408,29.52495],[34.93407,29.5245],[34.93355,29.52451],[34.93354,29.5236],[34.93302,29.52361],[34.93299,29.52181],[34.93247,29.52182],[34.93244,29.52001],[34.93192,29.52002],[34.93191,29.51957],[34.9314,29.51958],[34.93139,29.51912],[34.92984,29.51915],[34.92983,29.5187],[34.92828,29.51872],[34.92828,29.51827],[34.92724,29.51828],[34.92724,29.51783],[34.92672,29.51784],[34.92671,29.51739],[34.9262,29.51739],[34.92613,29.51379],[34.9251,29.5138],[34.92509,29.51335],[34.92457,29.51336],[34.92456,29.51291],[34.92405,29.51291],[34.92397,29.50886],[34.92346,29.50886],[34.92343,29.50751],[34.92291,29.50752],[34.92291,29.50707],[34.92239,29.50707],[34.92237,29.50617],[34.92186,29.50618],[34.92185,29.50573],[34.92133,29.50574],[34.92132,29.50483],[34.9208,29.50484],[34.92077,29.50304],[34.92025,29.50304],[34.92014,29.49718],[34.91963,29.49719],[34.91962,29.49674],[34.9191,29.49675],[34.91909,29.49629],[34.91755,29.49632],[34.91754,29.49587],[34.91599,29.49589],[34.916,29.49634],[34.91548,29.49635],[34.91548,29.4959],[34.9129,29.49593],[34.91289,29.49548],[34.91186,29.4955],[34.91185,29.49505],[34.91082,29.49506],[34.91081,29.49461],[34.91029,29.49462],[34.91029,29.49417],[34.90977,29.49417],[34.90976,29.49372],[34.90925,29.49373],[34.90924,29.49328],[34.90872,29.49329],[34.90871,29.49283],[34.9082,29.49284],[34.90818,29.49194],[34.90767,29.49195],[34.90766,29.4915],[34.90714,29.4915],[34.90713,29.4906],[34.90661,29.49061],[34.9066,29.49016],[34.90609,29.49017],[34.90608,29.48971],[34.90556,29.48972],[34.90555,29.48927],[34.90504,29.48928],[34.90502,29.48838],[34.90451,29.48838],[34.9045,29.48793],[34.90398,29.48794],[34.90397,29.48749],[34.90346,29.4875],[34.90345,29.48705],[34.90293,29.48705],[34.90293,29.4866],[34.90241,29.48661],[34.9024,29.48616],[34.90189,29.48617],[34.90188,29.48571],[34.88744,29.48592],[34.88745,29.48637],[34.88281,29.48644],[34.8828,29.48599],[34.88074,29.48601],[34.88073,29.48556],[34.87919,29.48559],[34.87918,29.48513],[34.87815,29.48515],[34.87814,29.4847],[34.87711,29.48471],[34.8771,29.48426],[34.87607,29.48428],[34.87606,29.48383],[34.87503,29.48384],[34.87502,29.48339],[34.87451,29.4834],[34.8745,29.48295],[34.87398,29.48295],[34.87397,29.4825],[34.87346,29.48251],[34.87344,29.48161],[34.87293,29.48161],[34.87291,29.48071],[34.87239,29.48072],[34.87237,29.47937],[34.87185,29.47937],[34.87184,29.47847],[34.87132,29.47848],[34.87131,29.47758],[34.87079,29.47758],[34.87077,29.47668],[34.87026,29.47669],[34.87024,29.47579],[34.86973,29.47579],[34.86972,29.47534],[34.8692,29.47535],[34.86919,29.4749],[34.86868,29.47491],[34.86867,29.47446],[34.86816,29.47446],[34.86815,29.47401],[34.86712,29.47403],[34.86711,29.47358],[34.86659,29.47358],[34.86658,29.47313],[34.86555,29.47315],[34.86554,29.47269],[34.86451,29.47271],[34.86451,29.47226],[34.86347,29.47227],[34.86347,29.47182],[34.86244,29.47184],[34.86243,29.47138],[34.86191,29.47139],[34.8619,29.47049],[34.86138,29.4705],[34.86136,29.4696],[34.86085,29.4696],[34.86083,29.4687],[34.86032,29.46871],[34.86031,29.46826],[34.85979,29.46826],[34.85978,29.46736],[34.85926,29.46737],[34.85925,29.46692],[34.85874,29.46693],[34.85873,29.46647],[34.85821,29.46648],[34.8582,29.46558],[34.85768,29.46559],[34.85767,29.46514],[34.85716,29.46514],[34.85714,29.46424],[34.85663,29.46425],[34.85661,29.46335],[34.85609,29.46335],[34.85608,29.46245],[34.85556,29.46246],[34.85553,29.46065],[34.85605,29.46065],[34.85602,29.45929],[34.85654,29.45929],[34.85649,29.45703],[34.85701,29.45702],[34.85694,29.45296],[34.85745,29.45296],[34.85742,29.45115],[34.8569,29.45116],[34.85688,29.44981],[34.85636,29.44981],[34.85636,29.44936],[34.85584,29.44937],[34.85582,29.44847],[34.85531,29.44848],[34.8553,29.44803],[34.85478,29.44803],[34.85473,29.44488],[34.85421,29.44488],[34.85419,29.44353],[34.85367,29.44354],[34.85366,29.44263],[34.85314,29.44264],[34.85313,29.44219],[34.85262,29.4422],[34.8526,29.4413],[34.85209,29.4413],[34.85208,29.44085],[34.85156,29.44086],[34.85155,29.44041],[34.85104,29.44041],[34.85103,29.43996],[34.85051,29.43997],[34.8505,29.43907],[34.84998,29.43908],[34.84995,29.43727],[34.84944,29.43728],[34.84943,29.43683],[34.84891,29.43684],[34.8489,29.43638],[34.84839,29.43639],[34.84838,29.43594],[34.84735,29.43595],[34.84734,29.4355],[34.8458,29.43553],[34.84579,29.43507],[34.84476,29.43509],[34.84475,29.43464],[34.8432,29.43466],[34.84319,29.43421],[34.84113,29.43424],[34.84113,29.43379],[34.84061,29.43379],[34.8406,29.43334],[34.84009,29.43335],[34.84008,29.4329],[34.83956,29.4329],[34.83955,29.432],[34.83903,29.43201],[34.83901,29.43066],[34.83849,29.43066],[34.83848,29.42976],[34.83796,29.42977],[34.83795,29.42932],[34.83744,29.42932],[34.83743,29.42887],[34.83588,29.42889],[34.83588,29.42844],[34.8333,29.42848],[34.83331,29.42893],[34.83228,29.42894],[34.83227,29.42849],[34.83124,29.42851],[34.83122,29.42761],[34.83071,29.42761],[34.83069,29.42671],[34.83121,29.4267],[34.83119,29.4258],[34.83171,29.42579],[34.83167,29.42399],[34.83219,29.42398],[34.83218,29.42353],[34.83166,29.42354],[34.83165,29.42264],[34.82959,29.42267],[34.82957,29.42176],[34.82906,29.42177],[34.82904,29.42087],[34.82853,29.42088],[34.82844,29.41637],[34.82793,29.41637],[34.82791,29.41547],[34.8274,29.41548],[34.82739,29.41503],[34.82687,29.41503],[34.82687,29.41458],[34.82635,29.41459],[34.82634,29.41414],[34.82583,29.41415],[34.82582,29.41369],[34.82531,29.4137],[34.8253,29.41325],[34.82478,29.41326],[34.82477,29.41236],[34.82374,29.41237],[34.82373,29.41192],[34.82321,29.41193],[34.8232,29.41147],[34.82269,29.41148],[34.82268,29.41103],[34.82114,29.41105],[34.82113,29.4106],[34.81958,29.41062],[34.81957,29.41017],[34.81906,29.41018],[34.81905,29.40973],[34.81854,29.40973],[34.81853,29.40928],[34.81801,29.40929],[34.81798,29.40749],[34.81747,29.40749],[34.81738,29.40253],[34.81686,29.40254],[34.81684,29.40118],[34.81632,29.40119],[34.81631,29.40074],[34.81477,29.40076],[34.81478,29.40121],[34.81426,29.40122],[34.81427,29.40167],[34.81273,29.40169],[34.81272,29.40124],[34.8122,29.40125],[34.81219,29.4008],[34.81168,29.4008],[34.81166,29.39945],[34.81114,29.39946],[34.81111,29.39765],[34.81059,29.39766],[34.81051,29.39315],[34.81103,29.39314],[34.81096,29.38953],[34.81045,29.38954],[34.81031,29.38142],[34.80979,29.38143],[34.80978,29.38098],[34.80927,29.38099],[34.80925,29.38008],[34.80874,29.38009],[34.80873,29.37964],[34.80821,29.37965],[34.80821,29.3792],[34.80769,29.3792],[34.80768,29.37875],[34.80717,29.37876],[34.80716,29.37831],[34.80664,29.37831],[34.80664,29.37786],[34.80612,29.37787],[34.80611,29.37742],[34.8056,29.37743],[34.80559,29.37698],[34.80508,29.37698],[34.80507,29.37653],[34.80455,29.37654],[34.80454,29.37609],[34.80403,29.37609],[34.80402,29.37564],[34.80351,29.37565],[34.80349,29.37475],[34.80298,29.37475],[34.80297,29.3743],[34.80245,29.37431],[34.80245,29.37386],[34.80142,29.37387],[34.80141,29.37342],[34.80038,29.37344],[34.80037,29.37299],[34.79934,29.373],[34.79921,29.36578],[34.79973,29.36578],[34.79921,29.33646],[34.79973,29.33645],[34.79921,29.30713],[34.79973,29.30712],[34.79921,29.27781],[34.79973,29.2778],[34.79923,29.24938],[34.82495,29.24903],[34.82495,29.24949],[34.85736,29.24904],[34.85736,29.24949],[34.88977,29.24904],[34.88977,29.24949],[34.92115,29.24904],[34.92116,29.24949],[34.93916,29.24923],[34.93918,29.25058],[34.9397,29.25058],[34.9397,29.25103],[34.94022,29.25102],[34.94024,29.25192],[34.94075,29.25191],[34.94077,29.25327],[34.94026,29.25327],[34.94027,29.25373],[34.93975,29.25373],[34.93977,29.25464],[34.93926,29.25464],[34.93927,29.25554],[34.93876,29.25555],[34.93878,29.25645],[34.93929,29.25645],[34.93931,29.25735],[34.93982,29.25734],[34.93985,29.25869],[34.93933,29.2587],[34.93936,29.26006],[34.93885,29.26006],[34.93885,29.26051],[34.93834,29.26052],[34.93837,29.26187],[34.93785,29.26188],[34.93788,29.26323],[34.93736,29.26324],[34.93738,29.26414],[34.93635,29.26416],[34.93638,29.26596],[34.93587,29.26597],[34.93588,29.26642],[34.93485,29.26644],[34.93486,29.26689],[34.93383,29.2669],[34.93384,29.26735],[34.93332,29.26736],[34.93333,29.26781],[34.93282,29.26782],[34.93283,29.26827],[34.93231,29.26828],[34.93233,29.26918],[34.93181,29.26919],[34.93183,29.27009],[34.93132,29.2701],[34.93144,29.27686],[34.93196,29.27685],[34.93198,29.27821],[34.93147,29.27822],[34.93149,29.27912],[34.932,29.27911],[34.93203,29.28091],[34.93152,29.28092],[34.93155,29.28227],[34.93103,29.28228],[34.93104,29.28273],[34.93053,29.28274],[34.93056,29.28454],[34.93004,29.28455],[34.93006,29.28545],[34.92955,29.28546],[34.92956,29.28636],[34.92854,29.28638],[34.92862,29.29089],[34.92913,29.29088],[34.92915,29.29178],[34.93224,29.29174],[34.93225,29.29219],[34.93276,29.29218],[34.93278,29.29308],[34.93226,29.29309],[34.93227,29.29354],[34.93279,29.29354],[34.93282,29.29534],[34.93334,29.29533],[34.93335,29.29623],[34.93387,29.29623],[34.93388,29.29668],[34.93439,29.29667],[34.93443,29.29892],[34.93392,29.29893],[34.93393,29.29938],[34.93444,29.29938],[34.93445,29.29983],[34.93651,29.2998],[34.93649,29.2989],[34.93701,29.29889],[34.93701,29.29934],[34.93907,29.29931],[34.93906,29.29886],[34.94009,29.29884],[34.94008,29.29839],[34.9406,29.29838],[34.94061,29.29884],[34.94215,29.29881],[34.94216,29.29926],[34.94319,29.29925],[34.9432,29.2997],[34.94371,29.29969],[34.94374,29.30105],[34.94477,29.30103],[34.94476,29.30058],[34.94527,29.30057],[34.94526,29.30012],[34.94835,29.30008],[34.94837,29.30098],[34.9494,29.30096],[34.94941,29.30141],[34.94992,29.30141],[34.94994,29.30231],[34.95045,29.3023],[34.95046,29.30275],[34.95097,29.30274],[34.95099,29.30365],[34.95151,29.30364],[34.95152,29.30409],[34.95203,29.30408],[34.95208,29.30679],[34.95157,29.3068],[34.95159,29.30815],[34.95108,29.30816],[34.95113,29.31086],[34.95061,29.31087],[34.95063,29.31177],[34.95012,29.31178],[34.95013,29.31268],[34.94962,29.31269],[34.94964,29.31359],[34.94912,29.3136],[34.94914,29.3145],[34.94862,29.31451],[34.94863,29.31496],[34.94812,29.31497],[34.94814,29.31587],[34.94762,29.31588],[34.94766,29.31768],[34.94817,29.31767],[34.9482,29.31948],[34.94769,29.31948],[34.94772,29.32084],[34.9472,29.32085],[34.94722,29.32175],[34.9467,29.32175],[34.94671,29.32221],[34.9462,29.32221],[34.94621,29.32266],[34.94569,29.32267],[34.94571,29.32357],[34.94519,29.32358],[34.94521,29.32448],[34.9447,29.32449],[34.9447,29.32494],[34.94419,29.32495],[34.9442,29.3254],[34.94471,29.32539],[34.94473,29.32629],[34.94525,29.32629],[34.94525,29.32674],[34.94628,29.32672],[34.94629,29.32717],[34.94681,29.32717],[34.94681,29.32762],[34.94733,29.32761],[34.94739,29.33077],[34.9479,29.33076],[34.94791,29.33121],[34.94843,29.3312],[34.94844,29.33211],[34.94947,29.33209],[34.94948,29.33254],[34.95154,29.33251],[34.95155,29.33296],[34.95206,29.33295],[34.95208,29.33386],[34.9526,29.33385],[34.95261,29.3343],[34.95312,29.33429],[34.95316,29.33655],[34.95265,29.33656],[34.95266,29.33701],[34.95163,29.33702],[34.95164,29.33747],[34.95112,29.33748],[34.95114,29.33838],[34.95062,29.33839],[34.95063,29.33884],[34.95012,29.33885],[34.95013,29.3393],[34.94961,29.33931],[34.94962,29.33976],[34.94911,29.33977],[34.94911,29.34022],[34.9486,29.34022],[34.94861,29.34067],[34.94809,29.34068],[34.94812,29.34204],[34.94863,29.34203],[34.94862,29.34158],[34.95068,29.34155],[34.95072,29.34335],[34.95123,29.34334],[34.95126,29.3447],[34.95074,29.3447],[34.95075,29.34515],[34.95127,29.34515],[34.95128,29.3456],[34.95179,29.34559],[34.9518,29.34604],[34.95231,29.34603],[34.95233,29.34694],[34.95285,29.34693],[34.95286,29.34783],[34.95389,29.34782],[34.95393,29.34962],[34.95444,29.34961],[34.95445,29.35006],[34.95497,29.35006],[34.95497,29.35051],[34.95549,29.3505],[34.9555,29.35095],[34.95601,29.35094],[34.95602,29.35139],[34.95654,29.35139],[34.95654,29.35184],[34.95757,29.35182],[34.95758,29.35227],[34.9581,29.35227],[34.95812,29.35362],[34.95761,29.35363],[34.95762,29.35408],[34.9571,29.35408],[34.95711,29.35454],[34.9566,29.35454],[34.95661,29.35545],[34.95919,29.35541],[34.9592,29.35586],[34.96074,29.35584],[34.96076,29.35674],[34.96127,29.35673],[34.96128,29.35718],[34.9618,29.35717],[34.96189,29.36213],[34.96138,29.36214],[34.96142,29.3644],[34.96193,29.36439],[34.96205,29.37025],[34.96256,29.37025],[34.96269,29.37701],[34.96321,29.377],[34.96323,29.37836],[34.96375,29.37835],[34.96376,29.37925],[34.96428,29.37924],[34.9643,29.38014],[34.96481,29.38014],[34.96484,29.38149],[34.96432,29.3815],[34.96434,29.3824],[34.96383,29.38241],[34.96383,29.38286],[34.96332,29.38287],[34.96333,29.38332],[34.96281,29.38332],[34.96282,29.38378],[34.9654,29.38374],[34.96542,29.38509],[34.96491,29.3851],[34.96498,29.38871],[34.96446,29.38871],[34.9645,29.39052],[34.96398,29.39053],[34.964,29.39143],[34.96348,29.39144],[34.9635,29.39234],[34.96299,29.39234],[34.96301,29.3937],[34.9625,29.39371],[34.96254,29.39596],[34.96306,29.39595],[34.96307,29.39685],[34.96359,29.39685],[34.9636,29.3973],[34.96411,29.39729],[34.96412,29.39774],[34.96515,29.39773],[34.96516,29.39818],[34.96619,29.39816],[34.9662,29.39861],[34.96517,29.39863],[34.96518,29.39908],[34.96569,29.39907],[34.9657,29.39952],[34.96621,29.39952],[34.96624,29.40087],[34.96676,29.40086],[34.96676,29.40131],[34.96728,29.4013],[34.96729,29.40175],[34.9678,29.40175],[34.96782,29.40265],[34.96834,29.40264],[34.96834,29.40309],[34.96886,29.40309],[34.96883,29.40173],[34.96986,29.40172],[34.96987,29.40217],[34.97039,29.40216],[34.9704,29.40261],[34.97091,29.4026],[34.97092,29.40305],[34.97143,29.40305],[34.97145,29.40395],[34.97197,29.40394],[34.97198,29.40439],[34.97249,29.40438],[34.97251,29.40529],[34.97302,29.40528],[34.97307,29.40753],[34.97358,29.40753],[34.97363,29.41023],[34.97415,29.41022],[34.97425,29.41564],[34.97374,29.41564],[34.97376,29.41655],[34.97324,29.41655],[34.97326,29.41746],[34.97274,29.41746],[34.97275,29.41791],[34.97224,29.41792],[34.97226,29.41928],[34.97175,29.41928],[34.9718,29.42199],[34.97232,29.42198],[34.97232,29.42243],[34.97181,29.42244],[34.97184,29.42379],[34.97235,29.42379],[34.97236,29.42424],[34.97339,29.42422],[34.97338,29.42377],[34.9739,29.42376],[34.97389,29.42331],[34.9744,29.4233],[34.97439,29.42285],[34.97388,29.42286],[34.97387,29.42241],[34.97439,29.4224],[34.97436,29.42105],[34.97487,29.42104],[34.97481,29.41788],[34.97533,29.41788],[34.97532,29.41743],[34.97635,29.41741],[34.97639,29.41967],[34.97588,29.41967],[34.97589,29.42012],[34.97537,29.42013],[34.97542,29.42239],[34.9749,29.42239],[34.97496,29.42555],[34.97445,29.42556],[34.97446,29.42646],[34.97292,29.42648],[34.97294,29.42739],[34.97242,29.42739],[34.97243,29.42784],[34.97294,29.42784],[34.97296,29.42874],[34.97348,29.42873],[34.97349,29.42918],[34.974,29.42917],[34.97401,29.42963],[34.97452,29.42962],[34.97453,29.43007],[34.97505,29.43006],[34.97507,29.43141],[34.97456,29.43142],[34.97457,29.43187],[34.97405,29.43188],[34.97407,29.43278],[34.97356,29.43279],[34.97356,29.43324],[34.97305,29.43325],[34.97306,29.4337],[34.97254,29.43371],[34.97256,29.43461],[34.97204,29.43462],[34.97205,29.43507],[34.97154,29.43508],[34.97156,29.43598],[34.97104,29.43599],[34.97108,29.43824],[34.97057,29.43825],[34.97069,29.44456],[34.97121,29.44455],[34.97122,29.44546],[34.97019,29.44547],[34.9702,29.44592],[34.96969,29.44593],[34.9697,29.44638],[34.97021,29.44637],[34.97025,29.44863],[34.96974,29.44864],[34.96976,29.44999],[34.97028,29.44998],[34.97031,29.45179],[34.97083,29.45178],[34.97086,29.45313],[34.97137,29.45312],[34.97138,29.45357],[34.97293,29.45355],[34.97294,29.45445],[34.97346,29.45445],[34.97349,29.45625],[34.97401,29.45624],[34.97403,29.45714],[34.97454,29.45714],[34.97453,29.45669],[34.97659,29.45666],[34.97669,29.46162],[34.97618,29.46162],[34.97618,29.46207],[34.97567,29.46208],[34.9757,29.46344],[34.97518,29.46344],[34.97519,29.46389],[34.97467,29.4639],[34.9747,29.46525],[34.97521,29.46525],[34.97522,29.4657],[34.97574,29.46569],[34.97578,29.46795],[34.97527,29.46795],[34.97528,29.4684],[34.97476,29.46841],[34.97478,29.46931],[34.97529,29.46931],[34.97532,29.47066],[34.97584,29.47065],[34.97585,29.47155],[34.97688,29.47154],[34.97691,29.47289],[34.97743,29.47288],[34.97744,29.47379],[34.97847,29.47377],[34.97848,29.47422],[34.979,29.47421],[34.97903,29.47602],[34.97955,29.47601],[34.97957,29.47736],[34.98009,29.47735],[34.9801,29.47781],[34.98061,29.4778],[34.98068,29.48096],[34.98119,29.48095],[34.9812,29.4814],[34.98172,29.48139],[34.98173,29.48229],[34.98225,29.48229],[34.98227,29.48319],[34.98278,29.48318],[34.9828,29.48408],[34.98331,29.48407],[34.98332,29.48452],[34.98384,29.48452],[34.98385,29.48497],[34.98436,29.48496],[34.98438,29.48586],[34.9849,29.48585],[34.98497,29.48946],[34.98548,29.48945],[34.9855,29.49036],[34.98601,29.49035],[34.98604,29.4917],[34.98656,29.49169],[34.98657,29.4926],[34.98709,29.49259],[34.98711,29.49349],[34.98762,29.49348],[34.98765,29.49484],[34.98868,29.49482],[34.98872,29.49662],[34.98923,29.49662],[34.98925,29.49752],[34.98976,29.49751],[34.98978,29.49841],[34.9903,29.49841],[34.99031,29.49886],[34.99082,29.49885],[34.99084,29.49975],[34.99135,29.49974],[34.9914,29.502],[34.99191,29.50199],[34.99199,29.5056],[34.9925,29.50559],[34.99251,29.50604],[34.99354,29.50603],[34.99358,29.50783],[34.99306,29.50784],[34.9931,29.51009],[34.99362,29.51008],[34.99365,29.51144],[34.99416,29.51143],[34.99419,29.51278],[34.9947,29.51278],[34.99474,29.51458],[34.99526,29.51457],[34.99527,29.51547],[34.99579,29.51547],[34.99582,29.51682],[34.99633,29.51681],[34.99634,29.51726],[34.99789,29.51724],[34.99785,29.51543],[34.99991,29.5154],[34.99996,29.51766],[34.99893,29.51767],[34.99894,29.51813],[34.99997,29.51811],[34.99998,29.51856],[35.00049,29.51855],[35.00054,29.52126],[35.00003,29.52127],[35.00014,29.52713],[34.99963,29.52714],[34.99964,29.52759],[34.99912,29.5276],[34.99914,29.5285],[34.99862,29.52851],[34.99864,29.52941],[34.99916,29.5294],[34.99918,29.53075],[34.99867,29.53076],[34.99868,29.53121],[34.99816,29.53122],[34.99818,29.53212],[34.99612,29.53215],[34.99613,29.5326],[34.99561,29.53261],[34.9956,29.53216],[34.99405,29.53218],[34.99406,29.53263],[34.99355,29.53264],[34.99356,29.53309],[34.99304,29.5331],[34.99305,29.53355],[34.99253,29.53356],[34.99254,29.53401],[34.99203,29.53402],[34.99203,29.53447],[34.99152,29.53448],[34.99153,29.53493],[34.99101,29.53494],[34.99103,29.53584],[34.99051,29.53585],[34.99053,29.53675],[34.9895,29.53676],[34.98951,29.53721],[34.98848,29.53723],[34.98849,29.53768],[34.98797,29.53769],[34.98798,29.53814],[34.98746,29.53815],[34.98747,29.5386],[34.98593,29.53862],[34.98593,29.53907],[34.98439,29.53909],[34.9844,29.53955],[34.98336,29.53956],[34.98337,29.54001],[34.98234,29.54003],[34.98235,29.54048],[34.98132,29.54049],[34.98133,29.54094],[34.98081,29.54095],[34.98082,29.5414],[34.97979,29.54142],[34.9798,29.54187],[34.97928,29.54188],[34.97929,29.54233],[34.97826,29.54234],[34.97827,29.5428],[34.97724,29.54281],[34.97725,29.54326],[34.97621,29.54328],[34.97622,29.54373],[34.97571,29.54374],[34.97572,29.54419],[34.97468,29.5442],[34.97469,29.54465],[34.97418,29.54466],[34.9742,29.54556],[34.97368,29.54557],[34.97369,29.54602],[34.97214,29.54604],[34.97215,29.5465],[34.97267,29.54649],[34.97267,29.54694],[34.97113,29.54696],[34.97112,29.54651],[34.97009,29.54653],[34.97008,29.54607],[34.96905,29.54609],[34.96904,29.54564],[34.96646,29.54568],[34.96647,29.54613],[34.9644,29.54616],[34.96441,29.54661],[34.96338,29.54662],[34.96339,29.54708],[34.96236,29.54709],[34.96237,29.54754],[34.96134,29.54756],[34.96134,29.54801],[34.96083,29.54802],[34.96084,29.54847],[34.95981,29.54848],[34.95981,29.54893],[34.95724,29.54897]],[[34.85971,29.46375],[34.86023,29.46375],[34.86021,29.46284],[34.85969,29.46285],[34.85971,29.46375]],[[34.81977,29.39212],[34.8208,29.39211],[34.82079,29.39166],[34.82182,29.39164],[34.82181,29.39119],[34.82233,29.39118],[34.82232,29.39073],[34.82283,29.39073],[34.82283,29.39028],[34.82334,29.39027],[34.82333,29.38982],[34.82385,29.38981],[34.82384,29.38936],[34.82436,29.38935],[34.82435,29.3889],[34.82486,29.38889],[34.82485,29.38844],[34.82537,29.38844],[34.82536,29.38798],[34.82588,29.38798],[34.82586,29.38708],[34.82637,29.38707],[34.82633,29.38481],[34.82582,29.38482],[34.82581,29.38437],[34.8253,29.38438],[34.82529,29.38393],[34.82477,29.38393],[34.82477,29.38348],[34.82374,29.3835],[34.82373,29.38304],[34.82218,29.38307],[34.82217,29.38261],[34.82063,29.38264],[34.82064,29.38309],[34.81961,29.3831],[34.81962,29.38355],[34.8191,29.38356],[34.81912,29.38446],[34.8186,29.38447],[34.81861,29.38492],[34.81809,29.38493],[34.81813,29.38673],[34.81761,29.38674],[34.81762,29.38719],[34.81813,29.38718],[34.81817,29.38899],[34.81868,29.38898],[34.81871,29.39078],[34.81923,29.39078],[34.81924,29.39168],[34.81976,29.39167],[34.81977,29.39212]],[[34.95893,29.36895],[34.96048,29.36892],[34.96047,29.36847],[34.95944,29.36849],[34.95942,29.36758],[34.95891,29.36759],[34.9589,29.36714],[34.95838,29.36715],[34.95841,29.3685],[34.95892,29.36849],[34.95893,29.36895]]]}}]}