{"type":"FeatureCollection","features":[{"type":"Feature","properties":{"waterway":"drain"},"geometry":{"type":"LineString","coordinates":[[35.02844,29.60253],[35.02791,29.60296]]}},{"type":"Feature","properties":{"waterway":"canal"},"geometry":{"type":"LineString","coordinates":[[35.04174,29.59835],[35.02844,29.60253]]}},{"type":"Feature","properties":{"waterway":"canal"},"geometry":{"type":"LineString","coordinates":[[35.02791,29.60296],[35.02321,29.60494],[35.02157,29.60642]]}},{"type":"Feature","properties":{"name_ar":"وادي اليتيم","name_en":"Wadi al Uitm","waterway":"river","intermittent":"yes"},"geometry":{"type":"MultiLineString","coordinates":[[[35.13595,29.66415],[35.14129,29.66581],[35.14237,29.66648],[35.14254,29.66898],[35.14316,29.67073],[35.14634,29.67484],[35.14857,29.677],[35.15,29.67932]],[[35.15,29.5654],[35.14716,29.56327],[35.14664,29.56242],[35.14598,29.55888],[35.14537,29.55787],[35.14238,29.55549],[35.1418,29.55438],[35.14209,29.55346],[35.14118,29.55137],[35.13797,29.54945],[35.13501,29.54632],[35.13359,29.54565],[35.13059,29.54613],[35.12818,29.54837],[35.12587,29.55259],[35.12398,29.55868],[35.1208,29.56095],[35.11647,29.56039],[35.11419,29.55886],[35.1117,29.55912],[35.10938,29.5619],[35.10839,29.56249],[35.10762,29.56239],[35.10484,29.56021],[35.10247,29.5591],[35.09876,29.55793],[35.09666,29.55774],[35.07986,29.56394],[35.0797,29.56545],[35.08018,29.56674]]]}},{"type":"Feature","properties":{"waterway":"canal"},"geometry":{"type":"LineString","coordinates":[[34.9777,29.37621],[34.97766,29.37493],[34.97691,29.37426],[34.97472,29.37427],[34.97297,29.3748],[34.96795,29.3748]]}},{"type":"Feature","properties":{"waterway":"canal"},"geometry":{"type":"LineString","coordinates":[[34.97411,29.37045],[34.97411,29.37039]]}},{"type":"Feature","properties":{"waterway":"canal"},"geometry":{"type":"LineString","coordinates":[[34.9777,29.37636],[34.9777,29.37621]]}},{"type":"Feature","properties":{"waterway":"canal"},"geometry":{"type":"LineString","coordinates":[[34.97636,29.37554],[34.97624,29.37541]]}},{"type":"Feature","properties":{"waterway":"canal"},"geometry":{"type":"LineString","coordinates":[[34.97467,29.37024],[34.97468,29.3702]]}},{"type":"Feature","properties":{"waterway":"canal"},"geometry":{"type":"LineString","coordinates":[[34.97614,29.37643],[34.97614,29.37625]]}},{"type":"Feature","properties":{"waterway":"canal"},"geometry":{"type":"LineString","coordinates":[[34.97624,29.37541],[34.97576,29.3751]]}},{"type":"Feature","properties":{"waterway":"canal"},"geometry":{"type":"LineString","coordinates":[[34.97615,29.3753],[34.97593,29.37426]]}},{"type":"Feature","properties":{"waterway":"canal"},"geometry":{"type":"LineString","coordinates":[[34.9747,29.37134],[34.97475,29.37146]]}},{"type":"Feature","properties":{"waterway":"canal"},"geometry":{"type":"LineString","coordinates":[[34.97614,29.37625],[34.97559,29.37427]]}},{"type":"Feature","properties":{"waterway":"drain"},"geometry":{"type":"LineString","coordinates":[[35.02322,29.62318],[35.0229,29.62238]]}},{"type":"Feature","properties":{"waterway":"drain"},"geometry":{"type":"LineString","coordinates":[[35.02487,29.63048],[35.02515,29.62871],[35.02379,29.62478],[35.02451,29.62361]]}},{"type":"Feature","properties":{"waterway":"drain"},"geometry":{"type":"LineString","coordinates":[[35.0229,29.62238],[35.02272,29.62036]]}},{"type":"Feature","properties":{"waterway":"drain"},"geometry":{"type":"LineString","coordinates":[[35.02266,29.61679],[35.02277,29.61676]]}},{"type":"Feature","properties":{"waterway":"drain"},"geometry":{"type":"LineString","coordinates":[[35.02376,29.62467],[35.02322,29.62318]]}},{"type":"Feature","properties":{"waterway":"drain"},"geometry":{"type":"LineString","coordinates":[[35.02277,29.61676],[35.02402,29.61644]]}},{"type":"Feature","properties":{"waterway":"drain"},"geometry":{"type":"LineString","coordinates":[[35.0205,29.61209],[35.02195,29.61624],[35.02227,29.61689],[35.02266,29.61679]]}},{"type":"Feature","properties":{"waterway":"drain"},"geometry":{"type":"LineString","coordinates":[[35.02379,29.62478],[35.02376,29.62467]]}},{"type":"Feature","properties":{"waterway":"drain"},"geometry":{"type":"LineString","coordinates":[[35.01755,29.60258],[35.01751,29.60246]]}},{"type":"Feature","properties":{"waterway":"drain"},"geometry":{"type":"LineString","coordinates":[[35.01848,29.60525],[35.0179,29.60358]]}},{"type":"Feature","properties":{"waterway":"drain"},"geometry":{"type":"LineString","coordinates":[[35.0185,29.60531],[35.01848,29.60525]]}},{"type":"Feature","properties":{"waterway":"drain"},"geometry":{"type":"LineString","coordinates":[[35.01751,29.60246],[35.01738,29.60207],[35.018,29.60184]]}},{"type":"Feature","properties":{"waterway":"drain"},"geometry":{"type":"LineString","coordinates":[[35.02272,29.62036],[35.0218,29.61748]]}},{"type":"Feature","properties":{"waterway":"drain"},"geometry":{"type":"LineString","coordinates":[[35.0218,29.61748],[35.02227,29.61689]]}},{"type":"Feature","properties":{"waterway":"drain"},"geometry":{"type":"LineString","coordinates":[[35.02451,29.62361],[35.02432,29.62269]]}},{"type":"Feature","properties":{"waterway":"drain"},"geometry":{"type":"LineString","coordinates":[[35.02597,29.62192],[35.02652,29.62189],[35.02676,29.62269],[35.02727,29.62296]]}},{"type":"Feature","properties":{"waterway":"drain"},"geometry":{"type":"LineString","coordinates":[[35.02602,29.62188],[35.02599,29.62154],[35.02656,29.62137],[35.02656,29.62165]]}},{"type":"Feature","properties":{"waterway":"drain"},"geometry":{"type":"LineString","coordinates":[[35.0179,29.60358],[35.01763,29.60282]]}},{"type":"Feature","properties":{"waterway":"drain"},"geometry":{"type":"LineString","coordinates":[[35.01763,29.60282],[35.01755,29.60258]]}},{"type":"Feature","properties":{"waterway":"canal"},"geometry":{"type":"LineString","coordinates":[[35.02746,29.62271],[35.02074,29.60558]]}},{"type":"Feature","properties":{"waterway":"canal"},"geometry":{"type":"LineString","coordinates":[[35.02487,29.63048],[35.0258,29.63017],[35.02644,29.62921],[35.0265,29.6279],[35.02775,29.62499],[35.02754,29.62293]]}},{"type":"Feature","properties":{"waterway":"canal"},"geometry":{"type":"LineString","coordinates":[[35.02754,29.62293],[35.02746,29.62271]]}},{"type":"Feature","properties":{"waterway":"drain"},"geometry":{"type":"LineString","coordinates":[[35.02482,29.63097],[35.02487,29.63048]]}},{"type":"Feature","properties":{"waterway":"canal"},"geometry":{"type":"LineString","coordinates":[[35.01874,29.60189],[35.01867,29.60177]]}},{"type":"Feature","properties":{"waterway":"canal"},"geometry":{"type":"LineString","coordinates":[[35.02064,29.60538],[35.01874,29.60189]]}},{"type":"Feature","properties":{"waterway":"canal"},"geometry":{"type":"LineString","coordinates":[[35.01867,29.60177],[35.01609,29.59687]]}},{"type":"Feature","properties":{"waterway":"canal"},"geometry":{"type":"LineString","coordinates":[[35.02074,29.60558],[35.02064,29.60538]]}},{"type":"Feature","properties":{"waterway":"canal"},"geometry":{"type":"LineString","coordinates":[[35.02139,29.60658],[35.02128,29.60667]]}},{"type":"Feature","properties":{"waterway":"canal"},"geometry":{"type":"LineString","coordinates":[[35.02157,29.60642],[35.02139,29.60658]]}},{"type":"Feature","properties":{"waterway":"drain"},"geometry":{"type":"LineString","coordinates":[[35.02746,29.62294],[35.02754,29.62293]]}},{"type":"Feature","properties":{"waterway":"drain"},"geometry":{"type":"LineString","coordinates":[[35.02727,29.62296],[35.02746,29.62294]]}},{"type":"Feature","properties":{"waterway":"canal"},"geometry":{"type":"LineString","coordinates":[[35.01653,29.59672],[35.01698,29.59657]]}},{"type":"Feature","properties":{"waterway":"canal"},"geometry":{"type":"LineString","coordinates":[[35.01609,29.59687],[35.01653,29.59672]]}},{"type":"Feature","properties":{"waterway":"canal"},"geometry":{"type":"LineString","coordinates":[[35.02495,29.59328],[35.04072,29.58793],[35.04184,29.58833],[35.04336,29.59165]]}},{"type":"Feature","properties":{"waterway":"canal"},"geometry":{"type":"LineString","coordinates":[[35.01609,29.59687],[35.01459,29.59417],[35.01257,29.59279],[35.01146,29.5898]]}},{"type":"Feature","properties":{"waterway":"canal"},"geometry":{"type":"LineString","coordinates":[[35.02433,29.59401],[35.02495,29.59328]]}},{"type":"Feature","properties":{"waterway":"canal"},"geometry":{"type":"LineString","coordinates":[[35.01698,29.59657],[35.02433,29.59401]]}},{"type":"Feature","properties":{"waterway":"drain"},"geometry":{"type":"LineString","coordinates":[[35.02656,29.62137],[35.02645,29.62077]]}},{"type":"Feature","properties":{"waterway":"drain"},"geometry":{"type":"LineString","coordinates":[[35.01865,29.60632],[35.01876,29.60623]]}},{"type":"Feature","properties":{"waterway":"drain"},"geometry":{"type":"LineString","coordinates":[[35.01906,29.60788],[35.01865,29.60632]]}},{"type":"Feature","properties":{"waterway":"drain"},"geometry":{"type":"LineString","coordinates":[[35.01876,29.60623],[35.0185,29.60531]]}},{"type":"Feature","properties":{"waterway":"drain"},"geometry":{"type":"LineString","coordinates":[[35.01852,29.60809],[35.01906,29.60788]]}},{"type":"Feature","properties":{"waterway":"drain"},"geometry":{"type":"LineString","coordinates":[[35.01898,29.60944],[35.01876,29.60882]]}},{"type":"Feature","properties":{"waterway":"drain"},"geometry":{"type":"LineString","coordinates":[[35.01876,29.60882],[35.01852,29.60809]]}},{"type":"Feature","properties":{"waterway":"drain"},"geometry":{"type":"LineString","coordinates":[[35.01954,29.61103],[35.01898,29.60944]]}},{"type":"Feature","properties":{"waterway":"stream","intermittent":"yes"},"geometry":{"type":"LineString","coordinates":[[35.09107,29.46839],[35.08628,29.46899],[35.08459,29.46864],[35.08275,29.46899],[35.08074,29.46998]]}},{"type":"Feature","properties":{"waterway":"stream","intermittent":"yes"},"geometry":{"type":"LineString","coordinates":[[35.05506,29.4349],[35.05469,29.43623],[35.05316,29.43803],[35.05297,29.43885],[35.05115,29.4396],[35.04921,29.44149],[35.04836,29.44142],[35.04544,29.44319],[35.04315,29.44365],[35.04165,29.44358],[35.0357,29.4454]]}},{"type":"Feature","properties":{"waterway":"stream","intermittent":"yes"},"geometry":{"type":"LineString","coordinates":[[35.06504,29.47579],[35.06401,29.47415],[35.06274,29.47316],[35.06251,29.4724],[35.06096,29.47157],[35.05939,29.46786],[35.05791,29.46755],[35.05755,29.46709],[35.05725,29.46598],[35.05749,29.46508]]}},{"type":"Feature","properties":{"waterway":"stream","intermittent":"yes"},"geometry":{"type":"LineString","coordinates":[[35.10246,29.4366],[35.09988,29.4419],[35.09873,29.44595],[35.09557,29.44618]]}},{"type":"Feature","properties":{"waterway":"stream","intermittent":"yes"},"geometry":{"type":"LineString","coordinates":[[35.09051,29.47434],[35.08861,29.4733],[35.08629,29.47274],[35.08383,29.47138],[35.08293,29.47133]]}},{"type":"Feature","properties":{"waterway":"stream","intermittent":"yes"},"geometry":{"type":"LineString","coordinates":[[35.1107,29.46717],[35.11083,29.46801],[35.11212,29.4685],[35.11426,29.47126],[35.12015,29.4736],[35.12554,29.47629],[35.13012,29.47688],[35.13576,29.47696],[35.14328,29.4736],[35.15,29.47289]]}},{"type":"Feature","properties":{"waterway":"stream","intermittent":"yes"},"geometry":{"type":"LineString","coordinates":[[35.09593,29.47292],[35.09386,29.4707],[35.08159,29.47068]]}},{"type":"Feature","properties":{"name_ar":"وادي النويبع","name_en":"Wadi Al Nuuaybi","waterway":"stream","intermittent":"yes"},"geometry":{"type":"LineString","coordinates":[[35.08333,29.44091],[35.08288,29.44051],[35.08251,29.43771],[35.08385,29.43674],[35.08417,29.43444],[35.0835,29.43399],[35.08347,29.43353],[35.08421,29.43026],[35.08382,29.42774],[35.084,29.4248],[35.08269,29.42195],[35.08288,29.42116],[35.0825,29.42034],[35.08112,29.41934],[35.08071,29.417],[35.07899,29.41625],[35.07649,29.41336],[35.07378,29.40953],[35.07266,29.4069],[35.06978,29.40392],[35.06778,29.4011],[35.06581,29.4002],[35.06562,29.39957],[35.06334,29.39749],[35.0619,29.3972],[35.06154,29.39588],[35.06043,29.39654],[35.06034,29.39565],[35.05902,29.39418],[35.05212,29.38814],[35.04803,29.38391],[35.04539,29.38227],[35.04292,29.3816],[35.03323,29.38042],[35.02757,29.38116],[35.02477,29.38274],[35.01857,29.38446],[35.01465,29.38449],[35.0095,29.38389],[35.00401,29.38226],[34.99862,29.37984],[34.99461,29.38037],[34.99297,29.38107],[34.98979,29.38387],[34.98504,29.38542],[34.98147,29.38347],[34.9763,29.38166],[34.96503,29.38038],[34.96429,29.38125]]}},{"type":"Feature","properties":{"waterway":"stream","intermittent":"yes"},"geometry":{"type":"LineString","coordinates":[[35.05621,29.44737],[35.05172,29.44468],[35.04975,29.44439],[35.04911,29.44351],[35.04691,29.44322],[35.04614,29.4428]]}},{"type":"Feature","properties":{"waterway":"stream","intermittent":"yes"},"geometry":{"type":"LineString","coordinates":[[35.09983,29.47595],[35.09397,29.47455],[35.09051,29.47434],[35.08778,29.47488],[35.08608,29.47475]]}},{"type":"Feature","properties":{"waterway":"stream","intermittent":"yes"},"geometry":{"type":"LineString","coordinates":[[35.09699,29.46412],[35.09325,29.46425],[35.08886,29.46362],[35.08189,29.45932],[35.07815,29.4595],[35.07525,29.45764],[35.07295,29.45681],[35.0691,29.45799],[35.06852,29.45787],[35.06814,29.45721],[35.06674,29.45707]]}},{"type":"Feature","properties":{"waterway":"stream","intermittent":"yes"},"geometry":{"type":"LineString","coordinates":[[35.09765,29.46966],[35.09512,29.46974],[35.09045,29.46819],[35.08829,29.46658],[35.0847,29.46688],[35.08362,29.4666],[35.08286,29.46569],[35.07885,29.46395],[35.07798,29.46247],[35.07604,29.46108],[35.0742,29.46136]]}},{"type":"Feature","properties":{"waterway":"stream","intermittent":"yes"},"geometry":{"type":"LineString","coordinates":[[35.05559,29.44197],[35.05803,29.44227],[35.05967,29.44191],[35.06044,29.44059],[35.0658,29.44331],[35.06699,29.44524],[35.06882,29.4456]]}},{"type":"Feature","properties":{"waterway":"stream","intermittent":"yes"},"geometry":{"type":"LineString","coordinates":[[35.05519,29.44829],[35.05683,29.449],[35.05905,29.44916],[35.06129,29.45071],[35.06303,29.45143],[35.06676,29.45498],[35.06752,29.4551]]}},{"type":"Feature","properties":{"waterway":"stream","intermittent":"yes"},"geometry":{"type":"LineString","coordinates":[[35.10288,29.40208],[35.10343,29.40333],[35.10399,29.40835],[35.10357,29.40959],[35.10452,29.41233],[35.10497,29.41608],[35.10397,29.41921],[35.10401,29.42447],[35.10445,29.42616],[35.10387,29.42736],[35.10226,29.42807],[35.10214,29.42847],[35.10261,29.42894],[35.10172,29.42981],[35.09945,29.43005],[35.09892,29.4315],[35.09856,29.43126],[35.09744,29.43342],[35.09622,29.43499],[35.09501,29.43583],[35.08792,29.43876],[35.0816,29.4419],[35.08024,29.44311],[35.07163,29.45394],[35.06884,29.45478],[35.06674,29.45707],[35.06302,29.45907],[35.06059,29.46262],[35.05827,29.46492],[35.05596,29.46568],[35.05235,29.46594]]}},{"type":"Feature","properties":{"waterway":"river","intermittent":"yes"},"geometry":{"type":"LineString","coordinates":[[35.14002,29.36301],[35.13236,29.37032],[35.12922,29.37195],[35.12609,29.37292],[35.12391,29.37249],[35.11977,29.36671],[35.11208,29.36054],[35.10702,29.35402],[35.10345,29.35148],[35.10005,29.3498],[35.09848,29.34974],[35.09742,29.35287],[35.09663,29.35384],[35.09318,29.35434],[35.09053,29.35669],[35.08887,29.35686],[35.08771,29.35642],[35.0854,29.35684],[35.08527,29.35762],[35.08636,29.35871],[35.08629,29.35944],[35.08448,29.36127],[35.0832,29.3618],[35.08219,29.36157],[35.08144,29.36194],[35.08127,29.3631],[35.07983,29.36522],[35.07202,29.36888],[35.06558,29.36921],[35.06023,29.37093],[35.0584,29.37276],[35.05613,29.37831],[35.05346,29.38209],[35.04846,29.38434]]}},{"type":"Feature","properties":{"waterway":"stream","intermittent":"yes"},"geometry":{"type":"LineString","coordinates":[[35.1034,29.48141],[35.10111,29.48059],[35.09737,29.48027],[35.09457,29.47959],[35.09195,29.47807],[35.09017,29.47768],[35.08905,29.47681],[35.08712,29.47612],[35.08293,29.47133],[35.08159,29.47068],[35.07769,29.46728],[35.07368,29.46047],[35.0707,29.45926],[35.07091,29.45872],[35.06989,29.45769]]}},{"type":"Feature","properties":{"waterway":"stream","intermittent":"yes"},"geometry":{"type":"LineString","coordinates":[[35.11213,29.4662],[35.11153,29.46734],[35.11212,29.4685]]}},{"type":"Feature","properties":{"waterway":"stream","intermittent":"yes"},"geometry":{"type":"LineString","coordinates":[[35.06721,29.45636],[35.06799,29.45406],[35.06731,29.45329],[35.06771,29.45309],[35.06711,29.45269],[35.06701,29.45167],[35.06806,29.45148],[35.06861,29.45084],[35.06815,29.44815],[35.06919,29.44476],[35.06807,29.44176],[35.06771,29.44159],[35.06733,29.43601],[35.06659,29.43499],[35.06672,29.43406],[35.06528,29.43143],[35.06308,29.43036],[35.06246,29.42928],[35.06134,29.42895],[35.06016,29.42795],[35.05926,29.42689],[35.0595,29.42603],[35.05873,29.42491],[35.05772,29.42456],[35.05622,29.42206],[35.05336,29.41941],[35.05204,29.41883],[35.05058,29.41589],[35.05061,29.41357],[35.04916,29.41156],[35.04826,29.41125],[35.04709,29.40794],[35.04614,29.40722],[35.04574,29.40618],[35.04464,29.40599],[35.04246,29.40444],[35.04126,29.40422],[35.03996,29.40344],[35.0382,29.40349],[35.03397,29.4052],[35.02942,29.4079],[35.02341,29.4089],[35.01727,29.41182],[35.01453,29.41224]]}},{"type":"Feature","properties":{"waterway":"stream","intermittent":"yes"},"geometry":{"type":"LineString","coordinates":[[35.10717,29.47039],[35.10693,29.46855],[35.10541,29.46582],[35.10461,29.46597],[35.09933,29.46194],[35.09699,29.46151],[35.09635,29.46105],[35.09318,29.46079],[35.09179,29.46004],[35.08744,29.45583],[35.08191,29.45665],[35.07876,29.45612],[35.07697,29.45731],[35.07505,29.45756]]}},{"type":"Feature","properties":{"waterway":"stream","intermittent":"yes"},"geometry":{"type":"LineString","coordinates":[[35.09008,29.44174],[35.08478,29.44408],[35.08347,29.44434],[35.08167,29.44596]]}},{"type":"Feature","properties":{"waterway":"stream","intermittent":"yes"},"geometry":{"type":"LineString","coordinates":[[35.12167,29.45664],[35.12771,29.45971],[35.13048,29.46016],[35.13438,29.46341],[35.14563,29.46769],[35.15,29.46868]]}},{"type":"Feature","properties":{"waterway":"stream","intermittent":"yes"},"geometry":{"type":"LineString","coordinates":[[35.11011,29.45917],[35.12141,29.46201],[35.12923,29.46508],[35.13894,29.46757],[35.15,29.46872]]}},{"type":"Feature","properties":{"waterway":"stream","intermittent":"yes"},"geometry":{"type":"LineString","coordinates":[[35.11335,29.46358],[35.1163,29.4644],[35.12039,29.46621],[35.12516,29.46995],[35.12868,29.47115],[35.13225,29.47034],[35.13357,29.46932],[35.15,29.46877]]}},{"type":"Feature","properties":{"waterway":"stream","intermittent":"yes"},"geometry":{"type":"LineString","coordinates":[[35.01001,29.43979],[35.005,29.43624],[35.00327,29.43552],[35.00024,29.43293],[34.99707,29.43207],[34.99309,29.43004],[34.98889,29.42874]]}},{"type":"Feature","properties":{"waterway":"stream","intermittent":"yes"},"geometry":{"type":"LineString","coordinates":[[35.11864,29.4455],[35.12355,29.45119],[35.1245,29.45351]]}},{"type":"Feature","properties":{"waterway":"stream","intermittent":"yes"},"geometry":{"type":"LineString","coordinates":[[35.13843,29.48747],[35.13832,29.48662],[35.13636,29.48443],[35.13626,29.48296],[35.13813,29.4799],[35.13994,29.47509]]}},{"type":"Feature","properties":{"waterway":"stream","intermittent":"yes"},"geometry":{"type":"LineString","coordinates":[[35.07337,29.46367],[35.07251,29.46342],[35.07217,29.45979]]}},{"type":"Feature","properties":{"waterway":"stream","intermittent":"yes"},"geometry":{"type":"LineString","coordinates":[[35.11332,29.45469],[35.11722,29.45498],[35.12117,29.45374],[35.12426,29.45341],[35.12774,29.45487],[35.14059,29.45728],[35.14603,29.4587]]}},{"type":"Feature","properties":{"waterway":"stream","intermittent":"yes"},"geometry":{"type":"LineString","coordinates":[[35.07279,29.45683],[35.07283,29.45425],[35.07197,29.45349]]}},{"type":"Feature","properties":{"waterway":"stream","intermittent":"yes"},"geometry":{"type":"LineString","coordinates":[[35.08151,29.45327],[35.07903,29.4518],[35.079,29.45107],[35.07757,29.44972],[35.07506,29.44941]]}},{"type":"Feature","properties":{"waterway":"stream","intermittent":"yes"},"geometry":{"type":"LineString","coordinates":[[35.0871,29.44873],[35.08576,29.44899],[35.08464,29.44969],[35.08157,29.45298],[35.08152,29.45478],[35.07981,29.45539],[35.07965,29.45588],[35.07891,29.45615]]}},{"type":"Feature","properties":{"waterway":"stream","intermittent":"yes"},"geometry":{"type":"LineString","coordinates":[[35.06814,29.45721],[35.06768,29.45596]]}},{"type":"Feature","properties":{"waterway":"stream","intermittent":"yes"},"geometry":{"type":"LineString","coordinates":[[35.02128,29.44746],[35.01629,29.44649],[35.01478,29.44586],[35.01273,29.4442],[35.01147,29.44116]]}},{"type":"Feature","properties":{"waterway":"stream","intermittent":"yes"},"geometry":{"type":"LineString","coordinates":[[35.01549,29.42858],[35.00582,29.42153],[35.00403,29.41821]]}},{"type":"Feature","properties":{"waterway":"stream","intermittent":"yes"},"geometry":{"type":"LineString","coordinates":[[35.02679,29.44765],[35.0247,29.44737],[35.02212,29.44779],[35.02145,29.44759],[35.01925,29.44565],[35.01761,29.44278]]}},{"type":"Feature","properties":{"waterway":"stream","intermittent":"yes"},"geometry":{"type":"LineString","coordinates":[[35.04154,29.43121],[35.03755,29.43191],[35.03265,29.43101],[35.02766,29.43071],[35.01766,29.42646],[35.01634,29.42546]]}},{"type":"Feature","properties":{"waterway":"stream","intermittent":"yes"},"geometry":{"type":"LineString","coordinates":[[35.04249,29.43724],[35.04212,29.43759],[35.03988,29.43753],[35.03545,29.43436],[35.03028,29.43243],[35.02892,29.43075]]}},{"type":"Feature","properties":{"waterway":"stream","intermittent":"yes"},"geometry":{"type":"LineString","coordinates":[[35.04487,29.44324],[35.04366,29.44254],[35.04114,29.44003],[35.03841,29.43921]]}},{"type":"Feature","properties":{"waterway":"stream","intermittent":"yes"},"geometry":{"type":"LineString","coordinates":[[34.99706,29.44118],[34.9992,29.4404],[35.00561,29.44154],[35.00657,29.44241],[35.00829,29.44292],[35.0127,29.44554]]}},{"type":"Feature","properties":{"waterway":"stream","intermittent":"yes"},"geometry":{"type":"LineString","coordinates":[[35.0127,29.44652],[35.01098,29.44551],[35.00944,29.44582],[35.00808,29.44514],[35.00679,29.44517],[34.99939,29.44158],[34.99706,29.44118],[34.99207,29.44065],[34.98744,29.44074],[34.98258,29.44185]]}},{"type":"Feature","properties":{"waterway":"stream","intermittent":"yes"},"geometry":{"type":"LineString","coordinates":[[35.03466,29.43687],[35.03066,29.43505],[35.02902,29.43328],[35.02766,29.43071]]}},{"type":"Feature","properties":{"waterway":"stream","intermittent":"yes"},"geometry":{"type":"LineString","coordinates":[[35.03733,29.43559],[35.03367,29.43477],[35.03067,29.43257]]}},{"type":"Feature","properties":{"name_ar":"وادي الشلالة","name_en":"Wādī ash Shallālah","waterway":"stream","intermittent":"yes"},"geometry":{"type":"LineString","coordinates":[[35.03779,29.52288],[35.03277,29.52296],[35.02956,29.5224],[35.01969,29.52278],[35.01651,29.52209],[35.01224,29.51984],[35.01013,29.51988]]}},{"type":"Feature","properties":{"waterway":"canal"},"geometry":{"type":"LineString","coordinates":[[35.03774,29.5418],[35.03518,29.54456]]}},{"type":"Feature","properties":{"waterway":"drain"},"geometry":{"type":"LineString","coordinates":[[35.01674,29.56123],[35.01605,29.56091]]}},{"type":"Feature","properties":{"waterway":"drain"},"geometry":{"type":"LineString","coordinates":[[35.014,29.56498],[35.01475,29.56518]]}},{"type":"Feature","properties":{"waterway":"drain"},"geometry":{"type":"LineString","coordinates":[[35.01361,29.56614],[35.0144,29.56629]]}},{"type":"Feature","properties":{"waterway":"drain"},"geometry":{"type":"LineString","coordinates":[[35.01332,29.56702],[35.01408,29.56713]]}},{"type":"Feature","properties":{"waterway":"drain"},"geometry":{"type":"LineString","coordinates":[[35.01418,29.5645],[35.01489,29.56473]]}},{"type":"Feature","properties":{"waterway":"drain"},"geometry":{"type":"LineString","coordinates":[[35.01462,29.56353],[35.01532,29.56376]]}},{"type":"Feature","properties":{"waterway":"drain"},"geometry":{"type":"LineString","coordinates":[[35.01514,29.56244],[35.01588,29.56272]]}},{"type":"Feature","properties":{"waterway":"ditch"},"geometry":{"type":"LineString","coordinates":[[35.05074,29.55985],[35.04825,29.56262]]}},{"type":"Feature","properties":{"waterway":"dam"},"geometry":{"type":"LineString","coordinates":[[35.03701,29.54134],[35.03774,29.5418]]}},{"type":"Feature","properties":{"waterway":"ditch"},"geometry":{"type":"LineString","coordinates":[[35.00299,29.51438],[35.00529,29.51532]]}},{"type":"Feature","properties":{"waterway":"river","intermittent":"yes"},"geometry":{"type":"LineString","coordinates":[[35.08094,29.34606],[35.07928,29.34608],[35.06874,29.33995],[35.06671,29.33928],[35.06417,29.33959],[35.06217,29.34029],[35.06017,29.34031],[35.05751,29.33924],[35.05196,29.34058],[35.04742,29.34075]]}},{"type":"Feature","properties":{"waterway":"river","intermittent":"yes"},"geometry":{"type":"LineString","coordinates":[[35.14011,29.34463],[35.13988,29.34138],[35.13844,29.33871],[35.13584,29.3365],[35.13236,29.33496],[35.13101,29.33305],[35.13241,29.3286],[35.13262,29.32628],[35.13228,29.32486]]}},{"type":"Feature","properties":{"waterway":"drain"},"geometry":{"type":"LineString","coordinates":[[34.98893,29.4096],[34.98928,29.4086],[34.98906,29.40418]]}},{"type":"Feature","properties":{"waterway":"drain"},"geometry":{"type":"LineString","coordinates":[[34.99057,29.40567],[34.98915,29.40587]]}},{"type":"Feature","properties":{"waterway":"drain"},"geometry":{"type":"LineString","coordinates":[[34.98644,29.40823],[34.98173,29.40716],[34.98044,29.40525]]}},{"type":"Feature","properties":{"waterway":"drain","intermittent":"yes"},"geometry":{"type":"LineString","coordinates":[[35.03746,29.45915],[35.03596,29.45703],[35.0326,29.45648],[35.03014,29.45733],[35.02787,29.4592],[35.02526,29.45981],[35.02407,29.46132],[35.01228,29.46871],[35.00269,29.47001],[35.00132,29.47045],[35.00003,29.47161],[34.99756,29.47227],[34.99313,29.47129],[34.98932,29.47175]]}},{"type":"Feature","properties":{"waterway":"stream","intermittent":"yes"},"geometry":{"type":"LineString","coordinates":[[35.1068,29.46131],[35.10212,29.45555],[35.10186,29.45444],[35.09845,29.45082],[35.0953,29.4457],[35.08956,29.44635],[35.08225,29.44577],[35.08061,29.44632],[35.07819,29.44604]]}},{"type":"Feature","properties":{"waterway":"stream"},"geometry":{"type":"LineString","coordinates":[[34.98899,29.55746],[34.99018,29.55902]]}},{"type":"Feature","properties":{"waterway":"stream"},"geometry":{"type":"LineString","coordinates":[[34.98999,29.55965],[34.98916,29.55827]]}},{"type":"Feature","properties":{"waterway":"stream"},"geometry":{"type":"LineString","coordinates":[[34.98831,29.55654],[34.98913,29.55636]]}},{"type":"Feature","properties":{"waterway":"stream","intermittent":"yes"},"geometry":{"type":"LineString","coordinates":[[34.97895,29.56499],[34.97834,29.5425]]}},{"type":"Feature","properties":{"waterway":"stream"},"geometry":{"type":"LineString","coordinates":[[34.98943,29.55582],[34.9906,29.55553],[34.99088,29.55455],[34.99207,29.55359],[34.9924,29.55389],[34.99423,29.55398],[34.99426,29.55475],[34.99499,29.55538],[34.9951,29.55737],[34.99581,29.55897],[34.99571,29.55996],[34.99479,29.56091]]}},{"type":"Feature","properties":{"waterway":"stream"},"geometry":{"type":"LineString","coordinates":[[34.98913,29.55636],[34.98943,29.55582]]}},{"type":"Feature","properties":{"waterway":"stream","intermittent":"yes"},"geometry":{"type":"LineString","coordinates":[[35.11831,29.69309],[35.11753,29.6939],[35.1173,29.69548],[35.11773,29.6963],[35.11687,29.7]]}},{"type":"Feature","properties":{"waterway":"stream","intermittent":"yes"},"geometry":{"type":"LineString","coordinates":[[35.132,29.65874],[35.13406,29.65606],[35.13522,29.65222],[35.13475,29.64961],[35.13067,29.64603],[35.12818,29.64043],[35.12565,29.63141],[35.12539,29.62894],[35.12612,29.62581],[35.12741,29.62447],[35.13084,29.61753],[35.13406,29.61346],[35.13625,29.6098],[35.13827,29.60801],[35.1405,29.60712],[35.15,29.60767]]}},{"type":"Feature","properties":{"waterway":"stream","intermittent":"yes"},"geometry":{"type":"LineString","coordinates":[[35.12342,29.67899],[35.12192,29.67782],[35.11827,29.67745],[35.1166,29.67681],[35.11486,29.67539],[35.11308,29.67032],[35.1128,29.66796],[35.11121,29.6649],[35.11052,29.66195],[35.10788,29.65904],[35.10497,29.6538],[35.0969,29.64459],[35.09621,29.64345],[35.09503,29.63775],[35.09346,29.63478],[35.08729,29.62896],[35.08615,29.62721],[35.08576,29.62564],[35.08649,29.6235],[35.08881,29.62148],[35.08924,29.62064],[35.08889,29.61701],[35.08731,29.61357],[35.08613,29.60928],[35.08383,29.60777],[35.08136,29.60693],[35.08003,29.60708],[35.07526,29.60912],[35.07253,29.60877],[35.06842,29.60691],[35.06605,29.60641],[35.05639,29.60835],[35.05025,29.6101],[35.03871,29.61506]]}},{"type":"Feature","properties":{"waterway":"stream","intermittent":"yes"},"geometry":{"type":"LineString","coordinates":[[34.97374,29.69135],[34.97383,29.68957],[34.97503,29.68756],[34.97932,29.68262],[34.98118,29.68154],[34.98839,29.67932],[34.99219,29.67725],[34.99846,29.67516],[35.00128,29.67394],[35.00424,29.6721],[35.01117,29.66557],[35.01404,29.66445],[35.0156,29.66184],[35.01687,29.65858]]}},{"type":"Feature","properties":{"waterway":"canal"},"geometry":{"type":"LineString","coordinates":[[35.02688,29.5506],[35.02165,29.55506]]}},{"type":"Feature","properties":{"waterway":"canal"},"geometry":{"type":"LineString","coordinates":[[35.0276,29.55002],[35.02688,29.5506]]}},{"type":"Feature","properties":{"waterway":"stream","intermittent":"yes"},"geometry":{"type":"LineString","coordinates":[[35.05506,29.4349],[35.05412,29.43454],[35.05171,29.43469],[35.04915,29.43195],[35.04833,29.43044],[35.04633,29.43013],[35.04565,29.4291],[35.04282,29.42823],[35.04123,29.42824],[35.03929,29.42649],[35.03864,29.42649],[35.03667,29.42549],[35.0335,29.42485],[35.03082,29.42491],[35.02696,29.42295],[35.01944,29.42106],[35.01826,29.42041],[35.01689,29.42036]]}},{"type":"Feature","properties":{"waterway":"stream","intermittent":"yes"},"geometry":{"type":"LineString","coordinates":[[35.06515,29.43947],[35.0661,29.43936],[35.06755,29.44035]]}},{"type":"Feature","properties":{"waterway":"stream","intermittent":"yes"},"geometry":{"type":"LineString","coordinates":[[34.98853,29.42866],[34.98369,29.42839]]}},{"type":"Feature","properties":{"waterway":"stream","intermittent":"yes"},"geometry":{"type":"LineString","coordinates":[[34.98889,29.42874],[34.98853,29.42866]]}},{"type":"Feature","properties":{"waterway":"stream","intermittent":"yes"},"geometry":{"type":"LineString","coordinates":[[35.00182,29.53137],[35.00099,29.53073],[34.99851,29.52997]]}},{"type":"Feature","properties":{"waterway":"stream","intermittent":"yes"},"geometry":{"type":"LineString","coordinates":[[34.99384,29.48768],[34.99277,29.4874],[34.99285,29.48697],[34.99196,29.48625],[34.99091,29.48798],[34.98838,29.48718],[34.9863,29.48717]]}},{"type":"Feature","properties":{"waterway":"stream","intermittent":"yes"},"geometry":{"type":"LineString","coordinates":[[34.98573,29.48723],[34.98563,29.48725]]}},{"type":"Feature","properties":{"waterway":"stream","intermittent":"yes"},"geometry":{"type":"LineString","coordinates":[[34.9863,29.48717],[34.98573,29.48723]]}},{"type":"Feature","properties":{"waterway":"canal"},"geometry":{"type":"LineString","coordinates":[[35.02124,29.55523],[35.01833,29.55793],[35.01605,29.56091],[35.01418,29.5645],[35.01312,29.56797],[35.01231,29.56846]]}},{"type":"Feature","properties":{"waterway":"ditch"},"geometry":{"type":"LineString","coordinates":[[35.00529,29.51532],[35.00611,29.51519]]}},{"type":"Feature","properties":{"waterway":"canal","intermittent":"yes"},"geometry":{"type":"LineString","coordinates":[[35.02165,29.55506],[35.02124,29.55523]]}},{"type":"Feature","properties":{"name_ar":"وادي اليتيم","name_en":"Wadi al Uitm","waterway":"river","intermittent":"yes"},"geometry":{"type":"LineString","coordinates":[[35.0804,29.56707],[35.08074,29.56874],[35.07806,29.57062],[35.07541,29.57177],[35.07323,29.57237],[35.06309,29.57316],[35.05906,29.57433],[35.05441,29.57666],[35.05167,29.57885],[35.04845,29.58232],[35.04543,29.58749],[35.04433,29.59053],[35.03885,29.61385],[35.03834,29.61814],[35.03947,29.62566],[35.04561,29.64159],[35.04625,29.64473],[35.04574,29.64823],[35.0446,29.65107],[35.03369,29.66255],[35.03011,29.66486],[35.02521,29.66494]]}},{"type":"Feature","properties":{"name_ar":"وادي اليتيم","name_en":"Wadi al Uitm","waterway":"river","intermittent":"yes"},"geometry":{"type":"LineString","coordinates":[[35.08018,29.56674],[35.0804,29.56707]]}},{"type":"Feature","properties":{"waterway":"dam"},"geometry":{"type":"LineString","coordinates":[[35.13976,29.55174],[35.14241,29.55067]]}},{"type":"Feature","properties":{"waterway":"dam"},"geometry":{"type":"LineString","coordinates":[[35.13435,29.52354],[35.13678,29.52482]]}},{"type":"Feature","properties":{"name_en":"Wadi Umran","waterway":"stream","intermittent":"yes"},"geometry":{"type":"LineString","coordinates":[[35.15,29.50586],[35.14718,29.50672],[35.14347,29.50852],[35.14009,29.51239],[35.13677,29.51491],[35.13488,29.5184],[35.13671,29.52207],[35.13696,29.5245],[35.1352,29.52514],[35.13043,29.52825],[35.13088,29.53265],[35.13219,29.53376],[35.13264,29.53884],[35.13244,29.54278],[35.13359,29.54565]]}},{"type":"Feature","properties":{"waterway":"stream","intermittent":"yes"},"geometry":{"type":"LineString","coordinates":[[35.06975,29.47807],[35.06557,29.47665],[35.06508,29.47618]]}},{"type":"Feature","properties":{"waterway":"stream","intermittent":"yes"},"geometry":{"type":"LineString","coordinates":[[35.06508,29.47618],[35.06504,29.47579]]}},{"type":"Feature","properties":{"waterway":"dam"},"geometry":{"type":"LineString","coordinates":[[35.13377,29.52518],[35.13459,29.52595]]}},{"type":"Feature","properties":{"waterway":"stream","intermittent":"yes"},"geometry":{"type":"LineString","coordinates":[[35.03469,29.45671],[35.03331,29.45644],[35.03207,29.45663],[35.03145,29.45709]]}},{"type":"Feature","properties":{"waterway":"stream","intermittent":"yes"},"geometry":{"type":"LineString","coordinates":[[35.03849,29.46022],[35.03645,29.45762]]}},{"type":"Feature","properties":{"waterway":"stream","intermittent":"yes"},"geometry":{"type":"LineString","coordinates":[[35.03527,29.45681],[35.03469,29.45671]]}},{"type":"Feature","properties":{"waterway":"stream","intermittent":"yes"},"geometry":{"type":"LineString","coordinates":[[35.03622,29.4573],[35.03527,29.45681]]}},{"type":"Feature","properties":{"waterway":"stream","intermittent":"yes"},"geometry":{"type":"LineString","coordinates":[[35.03645,29.45762],[35.03622,29.4573]]}},{"type":"Feature","properties":{"waterway":"weir"},"geometry":{"type":"LineString","coordinates":[[35.13945,29.4265],[35.14352,29.42659]]}},{"type":"Feature","properties":{"waterway":"stream","intermittent":"yes"},"geometry":{"type":"LineString","coordinates":[[35.14615,29.41448],[35.14557,29.417],[35.14387,29.41854],[35.14296,29.42064],[35.14141,29.42283],[35.14137,29.42511]]}},{"type":"Feature","properties":{"waterway":"weir"},"geometry":{"type":"LineString","coordinates":[[35.13328,29.4573],[35.13391,29.45517]]}},{"type":"Feature","properties":{"waterway":"stream","intermittent":"yes"},"geometry":{"type":"LineString","coordinates":[[34.98034,29.56479],[34.97981,29.56528],[34.97916,29.56501]]}},{"type":"Feature","properties":{"waterway":"stream","intermittent":"yes"},"geometry":{"type":"LineString","coordinates":[[34.97916,29.56501],[34.97895,29.56499]]}},{"type":"Feature","properties":{"waterway":"drain","intermittent":"yes"},"geometry":{"type":"LineString","coordinates":[[34.97987,29.41336],[34.97798,29.41702]]}},{"type":"Feature","properties":{"waterway":"ditch","intermittent":"yes"},"geometry":{"type":"LineString","coordinates":[[35.04266,29.54584],[35.0419,29.54604],[35.04005,29.54769],[35.03982,29.54863],[35.0408,29.5499],[35.04013,29.55174],[35.04054,29.55246]]}},{"type":"Feature","properties":{"waterway":"drain"},"geometry":{"type":"LineString","coordinates":[[35.04187,29.54961],[35.04083,29.55023]]}},{"type":"Feature","properties":{"waterway":"canal"},"geometry":{"type":"LineString","coordinates":[[35.02875,29.54907],[35.0276,29.55002]]}},{"type":"Feature","properties":{"waterway":"canal"},"geometry":{"type":"LineString","coordinates":[[35.02976,29.54862],[35.02875,29.54907]]}},{"type":"Feature","properties":{"waterway":"canal"},"geometry":{"type":"LineString","coordinates":[[35.03228,29.54665],[35.02976,29.54862]]}},{"type":"Feature","properties":{"waterway":"canal"},"geometry":{"type":"LineString","coordinates":[[35.03241,29.54651],[35.03228,29.54665]]}},{"type":"Feature","properties":{"waterway":"canal"},"geometry":{"type":"LineString","coordinates":[[35.03434,29.54486],[35.03241,29.54651]]}},{"type":"Feature","properties":{"waterway":"canal"},"geometry":{"type":"LineString","coordinates":[[35.03518,29.54456],[35.03434,29.54486]]}},{"type":"Feature","properties":{"waterway":"canal"},"geometry":{"type":"LineString","coordinates":[[34.97906,29.55905],[34.97867,29.54228]]}},{"type":"Feature","properties":{"waterway":"stream","intermittent":"yes"},"geometry":{"type":"LineString","coordinates":[[35.01158,29.7],[35.01119,29.69566],[35.01303,29.69083],[35.01312,29.68955],[35.01431,29.68784],[35.01439,29.68582],[35.0158,29.68152],[35.01931,29.67425],[35.01962,29.67211],[35.01739,29.66328],[35.01774,29.66192],[35.01687,29.65858],[35.01705,29.65532],[35.01411,29.64782],[35.01171,29.64417],[35.0095,29.64266],[35.00733,29.63823],[35.00656,29.63547],[35.00933,29.63473],[35.00955,29.63423],[35.00044,29.62273],[34.99822,29.61774],[34.9976,29.61673],[34.9968,29.61633],[34.99035,29.60258],[34.98943,29.60156],[34.98622,29.59274],[34.98266,29.58862],[34.97815,29.57732],[34.97595,29.57552]]}},{"type":"Feature","properties":{"waterway":"canal"},"geometry":{"type":"LineString","coordinates":[[34.96754,29.3748],[34.96481,29.37394]]}},{"type":"Feature","properties":{"waterway":"canal"},"geometry":{"type":"LineString","coordinates":[[34.96795,29.3748],[34.96754,29.3748]]}},{"type":"Feature","properties":{"waterway":"drain"},"geometry":{"type":"LineString","coordinates":[[34.9916,29.40564],[34.99109,29.40565]]}},{"type":"Feature","properties":{"waterway":"drain"},"geometry":{"type":"LineString","coordinates":[[34.99109,29.40565],[34.99057,29.40567]]}},{"type":"Feature","properties":{"waterway":"drain","intermittent":"yes"},"geometry":{"type":"LineString","coordinates":[[34.9773,29.41695],[34.97496,29.41625]]}},{"type":"Feature","properties":{"waterway":"drain","intermittent":"yes"},"geometry":{"type":"LineString","coordinates":[[34.97798,29.41702],[34.9773,29.41695]]}},{"type":"Feature","properties":{"waterway":"stream","intermittent":"yes"},"geometry":{"type":"LineString","coordinates":[[35.01419,29.41231],[35.00665,29.4134],[35.00252,29.41601],[34.99817,29.41712],[34.99246,29.41795],[34.9781,29.41701]]}},{"type":"Feature","properties":{"waterway":"stream","intermittent":"yes"},"geometry":{"type":"LineString","coordinates":[[35.01453,29.41224],[35.01419,29.41231]]}},{"type":"Feature","properties":{"waterway":"drain","intermittent":"yes"},"geometry":{"type":"LineString","coordinates":[[34.97904,29.4198],[34.9789,29.41708]]}},{"type":"Feature","properties":{"waterway":"drain"},"geometry":{"type":"LineString","coordinates":[[34.9793,29.47397],[34.97883,29.47449]]}},{"type":"Feature","properties":{"waterway":"drain"},"geometry":{"type":"LineString","coordinates":[[34.97955,29.47376],[34.9793,29.47397]]}},{"type":"Feature","properties":{"waterway":"drain","intermittent":"yes"},"geometry":{"type":"LineString","coordinates":[[34.98859,29.47173],[34.98667,29.47104],[34.98343,29.471],[34.98143,29.47189],[34.97955,29.47376]]}},{"type":"Feature","properties":{"waterway":"drain","intermittent":"yes"},"geometry":{"type":"LineString","coordinates":[[34.98932,29.47175],[34.98859,29.47173]]}},{"type":"Feature","properties":{"waterway":"stream","intermittent":"yes"},"geometry":{"type":"LineString","coordinates":[[35.01647,29.42034],[35.01179,29.42048],[35.00766,29.41963],[35.00009,29.41668]]}},{"type":"Feature","properties":{"waterway":"stream","intermittent":"yes"},"geometry":{"type":"LineString","coordinates":[[35.01689,29.42036],[35.01647,29.42034]]}},{"type":"Feature","properties":{"waterway":"stream","intermittent":"yes"},"geometry":{"type":"LineString","coordinates":[[35.02252,29.4348],[35.01717,29.43099],[35.01601,29.42969],[35.01587,29.42878]]}},{"type":"Feature","properties":{"waterway":"stream","intermittent":"yes"},"geometry":{"type":"LineString","coordinates":[[35.01587,29.42878],[35.01549,29.42858]]}},{"type":"Feature","properties":{"waterway":"stream","intermittent":"yes"},"geometry":{"type":"LineString","coordinates":[[35.01761,29.44278],[35.01294,29.44177],[35.01147,29.44116],[35.01098,29.44051]]}},{"type":"Feature","properties":{"waterway":"stream","intermittent":"yes"},"geometry":{"type":"LineString","coordinates":[[35.01098,29.44051],[35.01001,29.43979]]}},{"type":"Feature","properties":{"waterway":"stream","intermittent":"yes"},"geometry":{"type":"LineString","coordinates":[[35.01591,29.42526],[35.01499,29.42498],[35.01067,29.42025]]}},{"type":"Feature","properties":{"waterway":"stream","intermittent":"yes"},"geometry":{"type":"LineString","coordinates":[[35.01634,29.42546],[35.01591,29.42526]]}},{"type":"Feature","properties":{"name_ar":"وادي الشلالة","name_en":"Wādī ash Shallālah","waterway":"stream","intermittent":"yes"},"geometry":{"type":"LineString","coordinates":[[35.00956,29.52],[35.00536,29.51927],[35.00104,29.51923]]}},{"type":"Feature","properties":{"name_ar":"وادي الشلالة","name_en":"Wādī ash Shallālah","waterway":"stream","intermittent":"yes"},"geometry":{"type":"LineString","coordinates":[[35.01013,29.51988],[35.00956,29.52]]}},{"type":"Feature","properties":{"waterway":"stream","intermittent":"yes"},"geometry":{"type":"LineString","coordinates":[[34.97595,29.57552],[34.9757,29.57535]]}},{"type":"Feature","properties":{"waterway":"stream","intermittent":"yes"},"geometry":{"type":"LineString","coordinates":[[34.9757,29.57535],[34.97362,29.57401],[34.97309,29.57327],[34.97343,29.56666],[34.97289,29.56444],[34.97198,29.56364]]}},{"type":"Feature","properties":{"waterway":"river","intermittent":"yes"},"geometry":{"type":"LineString","coordinates":[[34.96068,29.35526],[34.95982,29.3567]]}},{"type":"Feature","properties":{"waterway":"river","intermittent":"yes"},"geometry":{"type":"LineString","coordinates":[[34.96079,29.35512],[34.96068,29.35526]]}},{"type":"Feature","properties":{"waterway":"river","intermittent":"yes"},"geometry":{"type":"LineString","coordinates":[[35.04143,29.29487],[35.0412,29.29425],[35.04024,29.29363],[35.03631,29.29204],[35.03415,29.29189],[35.03175,29.29222],[35.0287,29.29514],[35.02498,29.29677],[35.02218,29.29871],[35.01976,29.29949],[35.01889,29.30038],[35.01835,29.30233],[35.01593,29.30299],[35.01408,29.30749],[35.00935,29.31084],[35.00722,29.31678],[35.00374,29.32123],[34.99971,29.32541],[34.99093,29.33264],[34.98536,29.33588],[34.98395,29.33789],[34.9775,29.34238],[34.97597,29.344],[34.97198,29.34567],[34.9676,29.35017],[34.96256,29.35303],[34.96079,29.35512]]}},{"type":"Feature","properties":{"waterway":"drain"},"geometry":{"type":"LineString","coordinates":[[35.02432,29.62269],[35.0244,29.62233]]}},{"type":"Feature","properties":{"waterway":"drain"},"geometry":{"type":"LineString","coordinates":[[35.0244,29.62233],[35.02486,29.62221]]}},{"type":"Feature","properties":{"waterway":"drain"},"geometry":{"type":"LineString","coordinates":[[35.02486,29.62221],[35.02583,29.62196]]}},{"type":"Feature","properties":{"waterway":"drain"},"geometry":{"type":"LineString","coordinates":[[35.02583,29.62196],[35.02597,29.62192]]}},{"type":"Feature","properties":{"name_en":"Nahal Shchoret","waterway":"stream","intermittent":"yes"},"geometry":{"type":"LineString","coordinates":[[34.97923,29.61246],[34.98052,29.61178],[34.98521,29.60567],[34.98384,29.60429],[34.98253,29.60126],[34.98193,29.59808],[34.98207,29.59614],[34.98237,29.59512],[34.98625,29.59302]]}},{"type":"Feature","properties":{"waterway":"drain"},"geometry":{"type":"LineString","coordinates":[[35.02844,29.60253],[35.02791,29.60296]]}},{"type":"Feature","properties":{"waterway":"canal"},"geometry":{"type":"LineString","coordinates":[[35.04174,29.59835],[35.02844,29.60253]]}},{"type":"Feature","properties":{"waterway":"canal"},"geometry":{"type":"LineString","coordinates":[[35.02791,29.60296],[35.02321,29.60494],[35.02157,29.60642]]}},{"type":"Feature","properties":{"name_ar":"وادي اليتيم","name_en":"Wadi al Uitm","waterway":"river","intermittent":"yes"},"geometry":{"type":"MultiLineString","coordinates":[[[35.13595,29.66415],[35.14129,29.66581],[35.14237,29.66648],[35.14254,29.66898],[35.14316,29.67073],[35.14634,29.67484],[35.14857,29.677],[35.15,29.67932]],[[35.15,29.5654],[35.14716,29.56327],[35.14664,29.56242],[35.14598,29.55888],[35.14537,29.55787],[35.14238,29.55549],[35.1418,29.55438],[35.14209,29.55346],[35.14118,29.55137],[35.13797,29.54945],[35.13501,29.54632],[35.13359,29.54565],[35.13059,29.54613],[35.12818,29.54837],[35.12587,29.55259],[35.12398,29.55868],[35.1208,29.56095],[35.11647,29.56039],[35.11419,29.55886],[35.1117,29.55912],[35.10938,29.5619],[35.10839,29.56249],[35.10762,29.56239],[35.10484,29.56021],[35.10247,29.5591],[35.09876,29.55793],[35.09666,29.55774],[35.07986,29.56394],[35.0797,29.56545],[35.08018,29.56674]]]}},{"type":"Feature","properties":{"waterway":"canal"},"geometry":{"type":"LineString","coordinates":[[34.9777,29.37621],[34.97766,29.37493],[34.97691,29.37426],[34.97472,29.37427],[34.97297,29.3748],[34.96795,29.3748]]}},{"type":"Feature","properties":{"waterway":"canal"},"geometry":{"type":"LineString","coordinates":[[34.97411,29.37045],[34.97411,29.37039]]}},{"type":"Feature","properties":{"waterway":"canal"},"geometry":{"type":"LineString","coordinates":[[34.9777,29.37636],[34.9777,29.37621]]}},{"type":"Feature","properties":{"waterway":"canal"},"geometry":{"type":"LineString","coordinates":[[34.97636,29.37554],[34.97624,29.37541]]}},{"type":"Feature","properties":{"waterway":"canal"},"geometry":{"type":"LineString","coordinates":[[34.97467,29.37024],[34.97468,29.3702]]}},{"type":"Feature","properties":{"waterway":"canal"},"geometry":{"type":"LineString","coordinates":[[34.97614,29.37643],[34.97614,29.37625]]}},{"type":"Feature","properties":{"waterway":"canal"},"geometry":{"type":"LineString","coordinates":[[34.97624,29.37541],[34.97576,29.3751]]}},{"type":"Feature","properties":{"waterway":"canal"},"geometry":{"type":"LineString","coordinates":[[34.97615,29.3753],[34.97593,29.37426]]}},{"type":"Feature","properties":{"waterway":"canal"},"geometry":{"type":"LineString","coordinates":[[34.9747,29.37134],[34.97475,29.37146]]}},{"type":"Feature","properties":{"waterway":"canal"},"geometry":{"type":"LineString","coordinates":[[34.97614,29.37625],[34.97559,29.37427]]}},{"type":"Feature","properties":{"waterway":"drain"},"geometry":{"type":"LineString","coordinates":[[35.02322,29.62318],[35.0229,29.62238]]}},{"type":"Feature","properties":{"waterway":"drain"},"geometry":{"type":"LineString","coordinates":[[35.02487,29.63048],[35.02515,29.62871],[35.02379,29.62478],[35.02451,29.62361]]}},{"type":"Feature","properties":{"waterway":"drain"},"geometry":{"type":"LineString","coordinates":[[35.0229,29.62238],[35.02272,29.62036]]}},{"type":"Feature","properties":{"waterway":"drain"},"geometry":{"type":"LineString","coordinates":[[35.02266,29.61679],[35.02277,29.61676]]}},{"type":"Feature","properties":{"waterway":"drain"},"geometry":{"type":"LineString","coordinates":[[35.02376,29.62467],[35.02322,29.62318]]}},{"type":"Feature","properties":{"waterway":"drain"},"geometry":{"type":"LineString","coordinates":[[35.02277,29.61676],[35.02402,29.61644]]}},{"type":"Feature","properties":{"waterway":"drain"},"geometry":{"type":"LineString","coordinates":[[35.0205,29.61209],[35.02195,29.61624],[35.02227,29.61689],[35.02266,29.61679]]}},{"type":"Feature","properties":{"waterway":"drain"},"geometry":{"type":"LineString","coordinates":[[35.02379,29.62478],[35.02376,29.62467]]}},{"type":"Feature","properties":{"waterway":"drain"},"geometry":{"type":"LineString","coordinates":[[35.01755,29.60258],[35.01751,29.60246]]}},{"type":"Feature","properties":{"waterway":"drain"},"geometry":{"type":"LineString","coordinates":[[35.01848,29.60525],[35.0179,29.60358]]}},{"type":"Feature","properties":{"waterway":"drain"},"geometry":{"type":"LineString","coordinates":[[35.0185,29.60531],[35.01848,29.60525]]}},{"type":"Feature","properties":{"waterway":"drain"},"geometry":{"type":"LineString","coordinates":[[35.01751,29.60246],[35.01738,29.60207],[35.018,29.60184]]}},{"type":"Feature","properties":{"waterway":"drain"},"geometry":{"type":"LineString","coordinates":[[35.02272,29.62036],[35.0218,29.61748]]}},{"type":"Feature","properties":{"waterway":"drain"},"geometry":{"type":"LineString","coordinates":[[35.0218,29.61748],[35.02227,29.61689]]}},{"type":"Feature","properties":{"waterway":"drain"},"geometry":{"type":"LineString","coordinates":[[35.02451,29.62361],[35.02432,29.62269]]}},{"type":"Feature","properties":{"waterway":"drain"},"geometry":{"type":"LineString","coordinates":[[35.02597,29.62192],[35.02652,29.62189],[35.02676,29.62269],[35.02727,29.62296]]}},{"type":"Feature","properties":{"waterway":"drain"},"geometry":{"type":"LineString","coordinates":[[35.02602,29.62188],[35.02599,29.62154],[35.02656,29.62137],[35.02656,29.62165]]}},{"type":"Feature","properties":{"waterway":"drain"},"geometry":{"type":"LineString","coordinates":[[35.0179,29.60358],[35.01763,29.60282]]}},{"type":"Feature","properties":{"waterway":"drain"},"geometry":{"type":"LineString","coordinates":[[35.01763,29.60282],[35.01755,29.60258]]}},{"type":"Feature","properties":{"waterway":"canal"},"geometry":{"type":"LineString","coordinates":[[35.02746,29.62271],[35.02074,29.60558]]}},{"type":"Feature","properties":{"waterway":"canal"},"geometry":{"type":"LineString","coordinates":[[35.02487,29.63048],[35.0258,29.63017],[35.02644,29.62921],[35.0265,29.6279],[35.02775,29.62499],[35.02754,29.62293]]}},{"type":"Feature","properties":{"waterway":"canal"},"geometry":{"type":"LineString","coordinates":[[35.02754,29.62293],[35.02746,29.62271]]}},{"type":"Feature","properties":{"waterway":"drain"},"geometry":{"type":"LineString","coordinates":[[35.02482,29.63097],[35.02487,29.63048]]}},{"type":"Feature","properties":{"waterway":"canal"},"geometry":{"type":"LineString","coordinates":[[35.01874,29.60189],[35.01867,29.60177]]}},{"type":"Feature","properties":{"waterway":"canal"},"geometry":{"type":"LineString","coordinates":[[35.02064,29.60538],[35.01874,29.60189]]}},{"type":"Feature","properties":{"waterway":"canal"},"geometry":{"type":"LineString","coordinates":[[35.01867,29.60177],[35.01609,29.59687]]}},{"type":"Feature","properties":{"waterway":"canal"},"geometry":{"type":"LineString","coordinates":[[35.02074,29.60558],[35.02064,29.60538]]}},{"type":"Feature","properties":{"waterway":"canal"},"geometry":{"type":"LineString","coordinates":[[35.02139,29.60658],[35.02128,29.60667]]}},{"type":"Feature","properties":{"waterway":"canal"},"geometry":{"type":"LineString","coordinates":[[35.02157,29.60642],[35.02139,29.60658]]}},{"type":"Feature","properties":{"waterway":"drain"},"geometry":{"type":"LineString","coordinates":[[35.02746,29.62294],[35.02754,29.62293]]}},{"type":"Feature","properties":{"waterway":"drain"},"geometry":{"type":"LineString","coordinates":[[35.02727,29.62296],[35.02746,29.62294]]}},{"type":"Feature","properties":{"waterway":"canal"},"geometry":{"type":"LineString","coordinates":[[35.01653,29.59672],[35.01698,29.59657]]}},{"type":"Feature","properties":{"waterway":"canal"},"geometry":{"type":"LineString","coordinates":[[35.01609,29.59687],[35.01653,29.59672]]}},{"type":"Feature","properties":{"waterway":"canal"},"geometry":{"type":"LineString","coordinates":[[35.02495,29.59328],[35.04072,29.58793],[35.04184,29.58833],[35.04336,29.59165]]}},{"type":"Feature","properties":{"waterway":"canal"},"geometry":{"type":"LineString","coordinates":[[35.01609,29.59687],[35.01459,29.59417],[35.01257,29.59279],[35.01146,29.5898]]}},{"type":"Feature","properties":{"waterway":"canal"},"geometry":{"type":"LineString","coordinates":[[35.02433,29.59401],[35.02495,29.59328]]}},{"type":"Feature","properties":{"waterway":"canal"},"geometry":{"type":"LineString","coordinates":[[35.01698,29.59657],[35.02433,29.59401]]}},{"type":"Feature","properties":{"waterway":"drain"},"geometry":{"type":"LineString","coordinates":[[35.02656,29.62137],[35.02645,29.62077]]}},{"type":"Feature","properties":{"waterway":"drain"},"geometry":{"type":"LineString","coordinates":[[35.01865,29.60632],[35.01876,29.60623]]}},{"type":"Feature","properties":{"waterway":"drain"},"geometry":{"type":"LineString","coordinates":[[35.01906,29.60788],[35.01865,29.60632]]}},{"type":"Feature","properties":{"waterway":"drain"},"geometry":{"type":"LineString","coordinates":[[35.01876,29.60623],[35.0185,29.60531]]}},{"type":"Feature","properties":{"waterway":"drain"},"geometry":{"type":"LineString","coordinates":[[35.01852,29.60809],[35.01906,29.60788]]}},{"type":"Feature","properties":{"waterway":"drain"},"geometry":{"type":"LineString","coordinates":[[35.01898,29.60944],[35.01876,29.60882]]}},{"type":"Feature","properties":{"waterway":"drain"},"geometry":{"type":"LineString","coordinates":[[35.01876,29.60882],[35.01852,29.60809]]}},{"type":"Feature","properties":{"waterway":"drain"},"geometry":{"type":"LineString","coordinates":[[35.01954,29.61103],[35.01898,29.60944]]}},{"type":"Feature","properties":{"waterway":"stream","intermittent":"yes"},"geometry":{"type":"LineString","coordinates":[[35.09107,29.46839],[35.08628,29.46899],[35.08459,29.46864],[35.08275,29.46899],[35.08074,29.46998]]}},{"type":"Feature","properties":{"waterway":"stream","intermittent":"yes"},"geometry":{"type":"LineString","coordinates":[[35.05506,29.4349],[35.05469,29.43623],[35.05316,29.43803],[35.05297,29.43885],[35.05115,29.4396],[35.04921,29.44149],[35.04836,29.44142],[35.04544,29.44319],[35.04315,29.44365],[35.04165,29.44358],[35.0357,29.4454]]}},{"type":"Feature","properties":{"waterway":"stream","intermittent":"yes"},"geometry":{"type":"LineString","coordinates":[[35.06504,29.47579],[35.06401,29.47415],[35.06274,29.47316],[35.06251,29.4724],[35.06096,29.47157],[35.05939,29.46786],[35.05791,29.46755],[35.05755,29.46709],[35.05725,29.46598],[35.05749,29.46508]]}},{"type":"Feature","properties":{"waterway":"stream","intermittent":"yes"},"geometry":{"type":"LineString","coordinates":[[35.10246,29.4366],[35.09988,29.4419],[35.09873,29.44595],[35.09557,29.44618]]}},{"type":"Feature","properties":{"waterway":"stream","intermittent":"yes"},"geometry":{"type":"LineString","coordinates":[[35.09051,29.47434],[35.08861,29.4733],[35.08629,29.47274],[35.08383,29.47138],[35.08293,29.47133]]}},{"type":"Feature","properties":{"waterway":"stream","intermittent":"yes"},"geometry":{"type":"LineString","coordinates":[[35.1107,29.46717],[35.11083,29.46801],[35.11212,29.4685],[35.11426,29.47126],[35.12015,29.4736],[35.12554,29.47629],[35.13012,29.47688],[35.13576,29.47696],[35.14328,29.4736],[35.15,29.47289]]}},{"type":"Feature","properties":{"waterway":"stream","intermittent":"yes"},"geometry":{"type":"LineString","coordinates":[[35.09593,29.47292],[35.09386,29.4707],[35.08159,29.47068]]}},{"type":"Feature","properties":{"name_ar":"وادي النويبع","name_en":"Wadi Al Nuuaybi","waterway":"stream","intermittent":"yes"},"geometry":{"type":"LineString","coordinates":[[35.08333,29.44091],[35.08288,29.44051],[35.08251,29.43771],[35.08385,29.43674],[35.08417,29.43444],[35.0835,29.43399],[35.08347,29.43353],[35.08421,29.43026],[35.08382,29.42774],[35.084,29.4248],[35.08269,29.42195],[35.08288,29.42116],[35.0825,29.42034],[35.08112,29.41934],[35.08071,29.417],[35.07899,29.41625],[35.07649,29.41336],[35.07378,29.40953],[35.07266,29.4069],[35.06978,29.40392],[35.06778,29.4011],[35.06581,29.4002],[35.06562,29.39957],[35.06334,29.39749],[35.0619,29.3972],[35.06154,29.39588],[35.06043,29.39654],[35.06034,29.39565],[35.05902,29.39418],[35.05212,29.38814],[35.04803,29.38391],[35.04539,29.38227],[35.04292,29.3816],[35.03323,29.38042],[35.02757,29.38116],[35.02477,29.38274],[35.01857,29.38446],[35.01465,29.38449],[35.0095,29.38389],[35.00401,29.38226],[34.99862,29.37984],[34.99461,29.38037],[34.99297,29.38107],[34.98979,29.38387],[34.98504,29.38542],[34.98147,29.38347],[34.9763,29.38166],[34.96503,29.38038],[34.96429,29.38125]]}},{"type":"Feature","properties":{"waterway":"stream","intermittent":"yes"},"geometry":{"type":"LineString","coordinates":[[35.05621,29.44737],[35.05172,29.44468],[35.04975,29.44439],[35.04911,29.44351],[35.04691,29.44322],[35.04614,29.4428]]}},{"type":"Feature","properties":{"waterway":"stream","intermittent":"yes"},"geometry":{"type":"LineString","coordinates":[[35.09983,29.47595],[35.09397,29.47455],[35.09051,29.47434],[35.08778,29.47488],[35.08608,29.47475]]}},{"type":"Feature","properties":{"waterway":"stream","intermittent":"yes"},"geometry":{"type":"LineString","coordinates":[[35.09699,29.46412],[35.09325,29.46425],[35.08886,29.46362],[35.08189,29.45932],[35.07815,29.4595],[35.07525,29.45764],[35.07295,29.45681],[35.0691,29.45799],[35.06852,29.45787],[35.06814,29.45721],[35.06674,29.45707]]}},{"type":"Feature","properties":{"waterway":"stream","intermittent":"yes"},"geometry":{"type":"LineString","coordinates":[[35.09765,29.46966],[35.09512,29.46974],[35.09045,29.46819],[35.08829,29.46658],[35.0847,29.46688],[35.08362,29.4666],[35.08286,29.46569],[35.07885,29.46395],[35.07798,29.46247],[35.07604,29.46108],[35.0742,29.46136]]}},{"type":"Feature","properties":{"waterway":"stream","intermittent":"yes"},"geometry":{"type":"LineString","coordinates":[[35.05559,29.44197],[35.05803,29.44227],[35.05967,29.44191],[35.06044,29.44059],[35.0658,29.44331],[35.06699,29.44524],[35.06882,29.4456]]}},{"type":"Feature","properties":{"waterway":"stream","intermittent":"yes"},"geometry":{"type":"LineString","coordinates":[[35.05519,29.44829],[35.05683,29.449],[35.05905,29.44916],[35.06129,29.45071],[35.06303,29.45143],[35.06676,29.45498],[35.06752,29.4551]]}},{"type":"Feature","properties":{"waterway":"stream","intermittent":"yes"},"geometry":{"type":"LineString","coordinates":[[35.10288,29.40208],[35.10343,29.40333],[35.10399,29.40835],[35.10357,29.40959],[35.10452,29.41233],[35.10497,29.41608],[35.10397,29.41921],[35.10401,29.42447],[35.10445,29.42616],[35.10387,29.42736],[35.10226,29.42807],[35.10214,29.42847],[35.10261,29.42894],[35.10172,29.42981],[35.09945,29.43005],[35.09892,29.4315],[35.09856,29.43126],[35.09744,29.43342],[35.09622,29.43499],[35.09501,29.43583],[35.08792,29.43876],[35.0816,29.4419],[35.08024,29.44311],[35.07163,29.45394],[35.06884,29.45478],[35.06674,29.45707],[35.06302,29.45907],[35.06059,29.46262],[35.05827,29.46492],[35.05596,29.46568],[35.05235,29.46594]]}},{"type":"Feature","properties":{"waterway":"river","intermittent":"yes"},"geometry":{"type":"LineString","coordinates":[[35.14002,29.36301],[35.13236,29.37032],[35.12922,29.37195],[35.12609,29.37292],[35.12391,29.37249],[35.11977,29.36671],[35.11208,29.36054],[35.10702,29.35402],[35.10345,29.35148],[35.10005,29.3498],[35.09848,29.34974],[35.09742,29.35287],[35.09663,29.35384],[35.09318,29.35434],[35.09053,29.35669],[35.08887,29.35686],[35.08771,29.35642],[35.0854,29.35684],[35.08527,29.35762],[35.08636,29.35871],[35.08629,29.35944],[35.08448,29.36127],[35.0832,29.3618],[35.08219,29.36157],[35.08144,29.36194],[35.08127,29.3631],[35.07983,29.36522],[35.07202,29.36888],[35.06558,29.36921],[35.06023,29.37093],[35.0584,29.37276],[35.05613,29.37831],[35.05346,29.38209],[35.04846,29.38434]]}},{"type":"Feature","properties":{"waterway":"stream","intermittent":"yes"},"geometry":{"type":"LineString","coordinates":[[35.1034,29.48141],[35.10111,29.48059],[35.09737,29.48027],[35.09457,29.47959],[35.09195,29.47807],[35.09017,29.47768],[35.08905,29.47681],[35.08712,29.47612],[35.08293,29.47133],[35.08159,29.47068],[35.07769,29.46728],[35.07368,29.46047],[35.0707,29.45926],[35.07091,29.45872],[35.06989,29.45769]]}},{"type":"Feature","properties":{"waterway":"stream","intermittent":"yes"},"geometry":{"type":"LineString","coordinates":[[35.11213,29.4662],[35.11153,29.46734],[35.11212,29.4685]]}},{"type":"Feature","properties":{"waterway":"stream","intermittent":"yes"},"geometry":{"type":"LineString","coordinates":[[35.06721,29.45636],[35.06799,29.45406],[35.06731,29.45329],[35.06771,29.45309],[35.06711,29.45269],[35.06701,29.45167],[35.06806,29.45148],[35.06861,29.45084],[35.06815,29.44815],[35.06919,29.44476],[35.06807,29.44176],[35.06771,29.44159],[35.06733,29.43601],[35.06659,29.43499],[35.06672,29.43406],[35.06528,29.43143],[35.06308,29.43036],[35.06246,29.42928],[35.06134,29.42895],[35.06016,29.42795],[35.05926,29.42689],[35.0595,29.42603],[35.05873,29.42491],[35.05772,29.42456],[35.05622,29.42206],[35.05336,29.41941],[35.05204,29.41883],[35.05058,29.41589],[35.05061,29.41357],[35.04916,29.41156],[35.04826,29.41125],[35.04709,29.40794],[35.04614,29.40722],[35.04574,29.40618],[35.04464,29.40599],[35.04246,29.40444],[35.04126,29.40422],[35.03996,29.40344],[35.0382,29.40349],[35.03397,29.4052],[35.02942,29.4079],[35.02341,29.4089],[35.01727,29.41182],[35.01453,29.41224]]}},{"type":"Feature","properties":{"waterway":"stream","intermittent":"yes"},"geometry":{"type":"LineString","coordinates":[[35.10717,29.47039],[35.10693,29.46855],[35.10541,29.46582],[35.10461,29.46597],[35.09933,29.46194],[35.09699,29.46151],[35.09635,29.46105],[35.09318,29.46079],[35.09179,29.46004],[35.08744,29.45583],[35.08191,29.45665],[35.07876,29.45612],[35.07697,29.45731],[35.07505,29.45756]]}},{"type":"Feature","properties":{"waterway":"stream","intermittent":"yes"},"geometry":{"type":"LineString","coordinates":[[35.09008,29.44174],[35.08478,29.44408],[35.08347,29.44434],[35.08167,29.44596]]}},{"type":"Feature","properties":{"waterway":"stream","intermittent":"yes"},"geometry":{"type":"LineString","coordinates":[[35.12167,29.45664],[35.12771,29.45971],[35.13048,29.46016],[35.13438,29.46341],[35.14563,29.46769],[35.15,29.46868]]}},{"type":"Feature","properties":{"waterway":"stream","intermittent":"yes"},"geometry":{"type":"LineString","coordinates":[[35.11011,29.45917],[35.12141,29.46201],[35.12923,29.46508],[35.13894,29.46757],[35.15,29.46872]]}},{"type":"Feature","properties":{"waterway":"stream","intermittent":"yes"},"geometry":{"type":"LineString","coordinates":[[35.11335,29.46358],[35.1163,29.4644],[35.12039,29.46621],[35.12516,29.46995],[35.12868,29.47115],[35.13225,29.47034],[35.13357,29.46932],[35.15,29.46877]]}},{"type":"Feature","properties":{"waterway":"stream","intermittent":"yes"},"geometry":{"type":"LineString","coordinates":[[35.01001,29.43979],[35.005,29.43624],[35.00327,29.43552],[35.00024,29.43293],[34.99707,29.43207],[34.99309,29.43004],[34.98889,29.42874]]}},{"type":"Feature","properties":{"waterway":"stream","intermittent":"yes"},"geometry":{"type":"LineString","coordinates":[[35.11864,29.4455],[35.12355,29.45119],[35.1245,29.45351]]}},{"type":"Feature","properties":{"waterway":"stream","intermittent":"yes"},"geometry":{"type":"LineString","coordinates":[[35.13843,29.48747],[35.13832,29.48662],[35.13636,29.48443],[35.13626,29.48296],[35.13813,29.4799],[35.13994,29.47509]]}},{"type":"Feature","properties":{"waterway":"stream","intermittent":"yes"},"geometry":{"type":"LineString","coordinates":[[35.07337,29.46367],[35.07251,29.46342],[35.07217,29.45979]]}},{"type":"Feature","properties":{"waterway":"stream","intermittent":"yes"},"geometry":{"type":"LineString","coordinates":[[35.11332,29.45469],[35.11722,29.45498],[35.12117,29.45374],[35.12426,29.45341],[35.12774,29.45487],[35.14059,29.45728],[35.14603,29.4587]]}},{"type":"Feature","properties":{"waterway":"stream","intermittent":"yes"},"geometry":{"type":"LineString","coordinates":[[35.07279,29.45683],[35.07283,29.45425],[35.07197,29.45349]]}},{"type":"Feature","properties":{"waterway":"stream","intermittent":"yes"},"geometry":{"type":"LineString","coordinates":[[35.08151,29.45327],[35.07903,29.4518],[35.079,29.45107],[35.07757,29.44972],[35.07506,29.44941]]}},{"type":"Feature","properties":{"waterway":"stream","intermittent":"yes"},"geometry":{"type":"LineString","coordinates":[[35.0871,29.44873],[35.08576,29.44899],[35.08464,29.44969],[35.08157,29.45298],[35.08152,29.45478],[35.07981,29.45539],[35.07965,29.45588],[35.07891,29.45615]]}},{"type":"Feature","properties":{"waterway":"stream","intermittent":"yes"},"geometry":{"type":"LineString","coordinates":[[35.06814,29.45721],[35.06768,29.45596]]}},{"type":"Feature","properties":{"waterway":"stream","intermittent":"yes"},"geometry":{"type":"LineString","coordinates":[[35.02128,29.44746],[35.01629,29.44649],[35.01478,29.44586],[35.01273,29.4442],[35.01147,29.44116]]}},{"type":"Feature","properties":{"waterway":"stream","intermittent":"yes"},"geometry":{"type":"LineString","coordinates":[[35.01549,29.42858],[35.00582,29.42153],[35.00403,29.41821]]}},{"type":"Feature","properties":{"waterway":"stream","intermittent":"yes"},"geometry":{"type":"LineString","coordinates":[[35.02679,29.44765],[35.0247,29.44737],[35.02212,29.44779],[35.02145,29.44759],[35.01925,29.44565],[35.01761,29.44278]]}},{"type":"Feature","properties":{"waterway":"stream","intermittent":"yes"},"geometry":{"type":"LineString","coordinates":[[35.04154,29.43121],[35.03755,29.43191],[35.03265,29.43101],[35.02766,29.43071],[35.01766,29.42646],[35.01634,29.42546]]}},{"type":"Feature","properties":{"waterway":"stream","intermittent":"yes"},"geometry":{"type":"LineString","coordinates":[[35.04249,29.43724],[35.04212,29.43759],[35.03988,29.43753],[35.03545,29.43436],[35.03028,29.43243],[35.02892,29.43075]]}},{"type":"Feature","properties":{"waterway":"stream","intermittent":"yes"},"geometry":{"type":"LineString","coordinates":[[35.04487,29.44324],[35.04366,29.44254],[35.04114,29.44003],[35.03841,29.43921]]}},{"type":"Feature","properties":{"waterway":"stream","intermittent":"yes"},"geometry":{"type":"LineString","coordinates":[[34.99706,29.44118],[34.9992,29.4404],[35.00561,29.44154],[35.00657,29.44241],[35.00829,29.44292],[35.0127,29.44554]]}},{"type":"Feature","properties":{"waterway":"stream","intermittent":"yes"},"geometry":{"type":"LineString","coordinates":[[35.0127,29.44652],[35.01098,29.44551],[35.00944,29.44582],[35.00808,29.44514],[35.00679,29.44517],[34.99939,29.44158],[34.99706,29.44118],[34.99207,29.44065],[34.98744,29.44074],[34.98258,29.44185]]}},{"type":"Feature","properties":{"waterway":"stream","intermittent":"yes"},"geometry":{"type":"LineString","coordinates":[[35.03466,29.43687],[35.03066,29.43505],[35.02902,29.43328],[35.02766,29.43071]]}},{"type":"Feature","properties":{"waterway":"stream","intermittent":"yes"},"geometry":{"type":"LineString","coordinates":[[35.03733,29.43559],[35.03367,29.43477],[35.03067,29.43257]]}},{"type":"Feature","properties":{"name_ar":"وادي الشلالة","name_en":"Wādī ash Shallālah","waterway":"stream","intermittent":"yes"},"geometry":{"type":"LineString","coordinates":[[35.03779,29.52288],[35.03277,29.52296],[35.02956,29.5224],[35.01969,29.52278],[35.01651,29.52209],[35.01224,29.51984],[35.01013,29.51988]]}},{"type":"Feature","properties":{"waterway":"canal"},"geometry":{"type":"LineString","coordinates":[[35.03774,29.5418],[35.03518,29.54456]]}},{"type":"Feature","properties":{"waterway":"drain"},"geometry":{"type":"LineString","coordinates":[[35.01674,29.56123],[35.01605,29.56091]]}},{"type":"Feature","properties":{"waterway":"drain"},"geometry":{"type":"LineString","coordinates":[[35.014,29.56498],[35.01475,29.56518]]}},{"type":"Feature","properties":{"waterway":"drain"},"geometry":{"type":"LineString","coordinates":[[35.01361,29.56614],[35.0144,29.56629]]}},{"type":"Feature","properties":{"waterway":"drain"},"geometry":{"type":"LineString","coordinates":[[35.01332,29.56702],[35.01408,29.56713]]}},{"type":"Feature","properties":{"waterway":"drain"},"geometry":{"type":"LineString","coordinates":[[35.01418,29.5645],[35.01489,29.56473]]}},{"type":"Feature","properties":{"waterway":"drain"},"geometry":{"type":"LineString","coordinates":[[35.01462,29.56353],[35.01532,29.56376]]}},{"type":"Feature","properties":{"waterway":"drain"},"geometry":{"type":"LineString","coordinates":[[35.01514,29.56244],[35.01588,29.56272]]}},{"type":"Feature","properties":{"waterway":"ditch"},"geometry":{"type":"LineString","coordinates":[[35.05074,29.55985],[35.04825,29.56262]]}},{"type":"Feature","properties":{"waterway":"ditch"},"geometry":{"type":"LineString","coordinates":[[35.00299,29.51438],[35.00529,29.51532]]}},{"type":"Feature","properties":{"waterway":"river","intermittent":"yes"},"geometry":{"type":"LineString","coordinates":[[35.08094,29.34606],[35.07928,29.34608],[35.06874,29.33995],[35.06671,29.33928],[35.06417,29.33959],[35.06217,29.34029],[35.06017,29.34031],[35.05751,29.33924],[35.05196,29.34058],[35.04742,29.34075]]}},{"type":"Feature","properties":{"waterway":"river","intermittent":"yes"},"geometry":{"type":"LineString","coordinates":[[35.14011,29.34463],[35.13988,29.34138],[35.13844,29.33871],[35.13584,29.3365],[35.13236,29.33496],[35.13101,29.33305],[35.13241,29.3286],[35.13262,29.32628],[35.13228,29.32486]]}},{"type":"Feature","properties":{"waterway":"drain"},"geometry":{"type":"LineString","coordinates":[[34.98893,29.4096],[34.98928,29.4086],[34.98906,29.40418]]}},{"type":"Feature","properties":{"waterway":"drain"},"geometry":{"type":"LineString","coordinates":[[34.99057,29.40567],[34.98915,29.40587]]}},{"type":"Feature","properties":{"waterway":"drain"},"geometry":{"type":"LineString","coordinates":[[34.98644,29.40823],[34.98173,29.40716],[34.98044,29.40525]]}},{"type":"Feature","properties":{"waterway":"drain","intermittent":"yes"},"geometry":{"type":"LineString","coordinates":[[35.03746,29.45915],[35.03596,29.45703],[35.0326,29.45648],[35.03014,29.45733],[35.02787,29.4592],[35.02526,29.45981],[35.02407,29.46132],[35.01228,29.46871],[35.00269,29.47001],[35.00132,29.47045],[35.00003,29.47161],[34.99756,29.47227],[34.99313,29.47129],[34.98932,29.47175]]}},{"type":"Feature","properties":{"waterway":"stream","intermittent":"yes"},"geometry":{"type":"LineString","coordinates":[[35.1068,29.46131],[35.10212,29.45555],[35.10186,29.45444],[35.09845,29.45082],[35.0953,29.4457],[35.08956,29.44635],[35.08225,29.44577],[35.08061,29.44632],[35.07819,29.44604]]}},{"type":"Feature","properties":{"waterway":"stream"},"geometry":{"type":"LineString","coordinates":[[34.98899,29.55746],[34.99018,29.55902]]}},{"type":"Feature","properties":{"waterway":"stream"},"geometry":{"type":"LineString","coordinates":[[34.98999,29.55965],[34.98916,29.55827]]}},{"type":"Feature","properties":{"waterway":"stream"},"geometry":{"type":"LineString","coordinates":[[34.98831,29.55654],[34.98913,29.55636]]}},{"type":"Feature","properties":{"waterway":"stream","intermittent":"yes"},"geometry":{"type":"LineString","coordinates":[[34.97895,29.56499],[34.97834,29.5425]]}},{"type":"Feature","properties":{"waterway":"stream"},"geometry":{"type":"LineString","coordinates":[[34.98943,29.55582],[34.9906,29.55553],[34.99088,29.55455],[34.99207,29.55359],[34.9924,29.55389],[34.99423,29.55398],[34.99426,29.55475],[34.99499,29.55538],[34.9951,29.55737],[34.99581,29.55897],[34.99571,29.55996],[34.99479,29.56091]]}},{"type":"Feature","properties":{"waterway":"stream"},"geometry":{"type":"LineString","coordinates":[[34.98913,29.55636],[34.98943,29.55582]]}},{"type":"Feature","properties":{"waterway":"stream","intermittent":"yes"},"geometry":{"type":"LineString","coordinates":[[35.11831,29.69309],[35.11753,29.6939],[35.1173,29.69548],[35.11773,29.6963],[35.11687,29.7]]}},{"type":"Feature","properties":{"waterway":"stream","intermittent":"yes"},"geometry":{"type":"LineString","coordinates":[[35.132,29.65874],[35.13406,29.65606],[35.13522,29.65222],[35.13475,29.64961],[35.13067,29.64603],[35.12818,29.64043],[35.12565,29.63141],[35.12539,29.62894],[35.12612,29.62581],[35.12741,29.62447],[35.13084,29.61753],[35.13406,29.61346],[35.13625,29.6098],[35.13827,29.60801],[35.1405,29.60712],[35.15,29.60767]]}},{"type":"Feature","properties":{"waterway":"stream","intermittent":"yes"},"geometry":{"type":"LineString","coordinates":[[35.12342,29.67899],[35.12192,29.67782],[35.11827,29.67745],[35.1166,29.67681],[35.11486,29.67539],[35.11308,29.67032],[35.1128,29.66796],[35.11121,29.6649],[35.11052,29.66195],[35.10788,29.65904],[35.10497,29.6538],[35.0969,29.64459],[35.09621,29.64345],[35.09503,29.63775],[35.09346,29.63478],[35.08729,29.62896],[35.08615,29.62721],[35.08576,29.62564],[35.08649,29.6235],[35.08881,29.62148],[35.08924,29.62064],[35.08889,29.61701],[35.08731,29.61357],[35.08613,29.60928],[35.08383,29.60777],[35.08136,29.60693],[35.08003,29.60708],[35.07526,29.60912],[35.07253,29.60877],[35.06842,29.60691],[35.06605,29.60641],[35.05639,29.60835],[35.05025,29.6101],[35.03871,29.61506]]}},{"type":"Feature","properties":{"waterway":"stream","intermittent":"yes"},"geometry":{"type":"LineString","coordinates":[[34.97374,29.69135],[34.97383,29.68957],[34.97503,29.68756],[34.97932,29.68262],[34.98118,29.68154],[34.98839,29.67932],[34.99219,29.67725],[34.99846,29.67516],[35.00128,29.67394],[35.00424,29.6721],[35.01117,29.66557],[35.01404,29.66445],[35.0156,29.66184],[35.01687,29.65858]]}},{"type":"Feature","properties":{"waterway":"canal"},"geometry":{"type":"LineString","coordinates":[[35.02688,29.5506],[35.02165,29.55506]]}},{"type":"Feature","properties":{"waterway":"canal"},"geometry":{"type":"LineString","coordinates":[[35.0276,29.55002],[35.02688,29.5506]]}},{"type":"Feature","properties":{"waterway":"stream","intermittent":"yes"},"geometry":{"type":"LineString","coordinates":[[35.05506,29.4349],[35.05412,29.43454],[35.05171,29.43469],[35.04915,29.43195],[35.04833,29.43044],[35.04633,29.43013],[35.04565,29.4291],[35.04282,29.42823],[35.04123,29.42824],[35.03929,29.42649],[35.03864,29.42649],[35.03667,29.42549],[35.0335,29.42485],[35.03082,29.42491],[35.02696,29.42295],[35.01944,29.42106],[35.01826,29.42041],[35.01689,29.42036]]}},{"type":"Feature","properties":{"waterway":"stream","intermittent":"yes"},"geometry":{"type":"LineString","coordinates":[[35.06515,29.43947],[35.0661,29.43936],[35.06755,29.44035]]}},{"type":"Feature","properties":{"waterway":"stream","intermittent":"yes"},"geometry":{"type":"LineString","coordinates":[[34.98853,29.42866],[34.98369,29.42839]]}},{"type":"Feature","properties":{"waterway":"stream","intermittent":"yes"},"geometry":{"type":"LineString","coordinates":[[34.98889,29.42874],[34.98853,29.42866]]}},{"type":"Feature","properties":{"waterway":"stream","intermittent":"yes"},"geometry":{"type":"LineString","coordinates":[[35.00182,29.53137],[35.00099,29.53073],[34.99851,29.52997]]}},{"type":"Feature","properties":{"waterway":"stream","intermittent":"yes"},"geometry":{"type":"LineString","coordinates":[[34.99384,29.48768],[34.99277,29.4874],[34.99285,29.48697],[34.99196,29.48625],[34.99091,29.48798],[34.98838,29.48718],[34.9863,29.48717]]}},{"type":"Feature","properties":{"waterway":"stream","intermittent":"yes"},"geometry":{"type":"LineString","coordinates":[[34.98573,29.48723],[34.98563,29.48725]]}},{"type":"Feature","properties":{"waterway":"stream","intermittent":"yes"},"geometry":{"type":"LineString","coordinates":[[34.9863,29.48717],[34.98573,29.48723]]}},{"type":"Feature","properties":{"waterway":"canal"},"geometry":{"type":"LineString","coordinates":[[35.02124,29.55523],[35.01833,29.55793],[35.01605,29.56091],[35.01418,29.5645],[35.01312,29.56797],[35.01231,29.56846]]}},{"type":"Feature","properties":{"waterway":"ditch"},"geometry":{"type":"LineString","coordinates":[[35.00529,29.51532],[35.00611,29.51519]]}},{"type":"Feature","properties":{"waterway":"canal","intermittent":"yes"},"geometry":{"type":"LineString","coordinates":[[35.02165,29.55506],[35.02124,29.55523]]}},{"type":"Feature","properties":{"name_ar":"وادي اليتيم","name_en":"Wadi al Uitm","waterway":"river","intermittent":"yes"},"geometry":{"type":"LineString","coordinates":[[35.0804,29.56707],[35.08074,29.56874],[35.07806,29.57062],[35.07541,29.57177],[35.07323,29.57237],[35.06309,29.57316],[35.05906,29.57433],[35.05441,29.57666],[35.05167,29.57885],[35.04845,29.58232],[35.04543,29.58749],[35.04433,29.59053],[35.03885,29.61385],[35.03834,29.61814],[35.03947,29.62566],[35.04561,29.64159],[35.04625,29.64473],[35.04574,29.64823],[35.0446,29.65107],[35.03369,29.66255],[35.03011,29.66486],[35.02521,29.66494]]}},{"type":"Feature","properties":{"name_ar":"وادي اليتيم","name_en":"Wadi al Uitm","waterway":"river","intermittent":"yes"},"geometry":{"type":"LineString","coordinates":[[35.08018,29.56674],[35.0804,29.56707]]}},{"type":"Feature","properties":{"name_en":"Wadi Umran","waterway":"stream","intermittent":"yes"},"geometry":{"type":"LineString","coordinates":[[35.15,29.50586],[35.14718,29.50672],[35.14347,29.50852],[35.14009,29.51239],[35.13677,29.51491],[35.13488,29.5184],[35.13671,29.52207],[35.13696,29.5245],[35.1352,29.52514],[35.13043,29.52825],[35.13088,29.53265],[35.13219,29.53376],[35.13264,29.53884],[35.13244,29.54278],[35.13359,29.54565]]}},{"type":"Feature","properties":{"waterway":"stream","intermittent":"yes"},"geometry":{"type":"LineString","coordinates":[[35.06975,29.47807],[35.06557,29.47665],[35.06508,29.47618]]}},{"type":"Feature","properties":{"waterway":"stream","intermittent":"yes"},"geometry":{"type":"LineString","coordinates":[[35.06508,29.47618],[35.06504,29.47579]]}},{"type":"Feature","properties":{"waterway":"stream","intermittent":"yes"},"geometry":{"type":"LineString","coordinates":[[35.03469,29.45671],[35.03331,29.45644],[35.03207,29.45663],[35.03145,29.45709]]}},{"type":"Feature","properties":{"waterway":"stream","intermittent":"yes"},"geometry":{"type":"LineString","coordinates":[[35.03849,29.46022],[35.03645,29.45762]]}},{"type":"Feature","properties":{"waterway":"stream","intermittent":"yes"},"geometry":{"type":"LineString","coordinates":[[35.03527,29.45681],[35.03469,29.45671]]}},{"type":"Feature","properties":{"waterway":"stream","intermittent":"yes"},"geometry":{"type":"LineString","coordinates":[[35.03622,29.4573],[35.03527,29.45681]]}},{"type":"Feature","properties":{"waterway":"stream","intermittent":"yes"},"geometry":{"type":"LineString","coordinates":[[35.03645,29.45762],[35.03622,29.4573]]}},{"type":"Feature","properties":{"waterway":"stream","intermittent":"yes"},"geometry":{"type":"LineString","coordinates":[[35.14615,29.41448],[35.14557,29.417],[35.14387,29.41854],[35.14296,29.42064],[35.14141,29.42283],[35.14137,29.42511]]}},{"type":"Feature","properties":{"waterway":"stream","intermittent":"yes"},"geometry":{"type":"LineString","coordinates":[[34.98034,29.56479],[34.97981,29.56528],[34.97916,29.56501]]}},{"type":"Feature","properties":{"waterway":"stream","intermittent":"yes"},"geometry":{"type":"LineString","coordinates":[[34.97916,29.56501],[34.97895,29.56499]]}},{"type":"Feature","properties":{"waterway":"drain","intermittent":"yes"},"geometry":{"type":"LineString","coordinates":[[34.97987,29.41336],[34.97798,29.41702]]}},{"type":"Feature","properties":{"waterway":"ditch","intermittent":"yes"},"geometry":{"type":"LineString","coordinates":[[35.04266,29.54584],[35.0419,29.54604],[35.04005,29.54769],[35.03982,29.54863],[35.0408,29.5499],[35.04013,29.55174],[35.04054,29.55246]]}},{"type":"Feature","properties":{"waterway":"drain"},"geometry":{"type":"LineString","coordinates":[[35.04187,29.54961],[35.04083,29.55023]]}},{"type":"Feature","properties":{"waterway":"canal"},"geometry":{"type":"LineString","coordinates":[[35.02875,29.54907],[35.0276,29.55002]]}},{"type":"Feature","properties":{"waterway":"canal"},"geometry":{"type":"LineString","coordinates":[[35.02976,29.54862],[35.02875,29.54907]]}},{"type":"Feature","properties":{"waterway":"canal"},"geometry":{"type":"LineString","coordinates":[[35.03228,29.54665],[35.02976,29.54862]]}},{"type":"Feature","properties":{"waterway":"canal"},"geometry":{"type":"LineString","coordinates":[[35.03241,29.54651],[35.03228,29.54665]]}},{"type":"Feature","properties":{"waterway":"canal"},"geometry":{"type":"LineString","coordinates":[[35.03434,29.54486],[35.03241,29.54651]]}},{"type":"Feature","properties":{"waterway":"canal"},"geometry":{"type":"LineString","coordinates":[[35.03518,29.54456],[35.03434,29.54486]]}},{"type":"Feature","properties":{"waterway":"canal"},"geometry":{"type":"LineString","coordinates":[[34.97906,29.55905],[34.97867,29.54228]]}},{"type":"Feature","properties":{"waterway":"stream","intermittent":"yes"},"geometry":{"type":"LineString","coordinates":[[35.01158,29.7],[35.01119,29.69566],[35.01303,29.69083],[35.01312,29.68955],[35.01431,29.68784],[35.01439,29.68582],[35.0158,29.68152],[35.01931,29.67425],[35.01962,29.67211],[35.01739,29.66328],[35.01774,29.66192],[35.01687,29.65858],[35.01705,29.65532],[35.01411,29.64782],[35.01171,29.64417],[35.0095,29.64266],[35.00733,29.63823],[35.00656,29.63547],[35.00933,29.63473],[35.00955,29.63423],[35.00044,29.62273],[34.99822,29.61774],[34.9976,29.61673],[34.9968,29.61633],[34.99035,29.60258],[34.98943,29.60156],[34.98622,29.59274],[34.98266,29.58862],[34.97815,29.57732],[34.97595,29.57552]]}},{"type":"Feature","properties":{"waterway":"canal"},"geometry":{"type":"LineString","coordinates":[[34.96754,29.3748],[34.96481,29.37394]]}},{"type":"Feature","properties":{"waterway":"canal"},"geometry":{"type":"LineString","coordinates":[[34.96795,29.3748],[34.96754,29.3748]]}},{"type":"Feature","properties":{"waterway":"drain"},"geometry":{"type":"LineString","coordinates":[[34.9916,29.40564],[34.99109,29.40565]]}},{"type":"Feature","properties":{"waterway":"drain"},"geometry":{"type":"LineString","coordinates":[[34.99109,29.40565],[34.99057,29.40567]]}},{"type":"Feature","properties":{"waterway":"drain","intermittent":"yes"},"geometry":{"type":"LineString","coordinates":[[34.9773,29.41695],[34.97496,29.41625]]}},{"type":"Feature","properties":{"waterway":"drain","intermittent":"yes"},"geometry":{"type":"LineString","coordinates":[[34.97798,29.41702],[34.9773,29.41695]]}},{"type":"Feature","properties":{"waterway":"stream","intermittent":"yes"},"geometry":{"type":"LineString","coordinates":[[35.01419,29.41231],[35.00665,29.4134],[35.00252,29.41601],[34.99817,29.41712],[34.99246,29.41795],[34.9781,29.41701]]}},{"type":"Feature","properties":{"waterway":"stream","intermittent":"yes"},"geometry":{"type":"LineString","coordinates":[[35.01453,29.41224],[35.01419,29.41231]]}},{"type":"Feature","properties":{"waterway":"drain","intermittent":"yes"},"geometry":{"type":"LineString","coordinates":[[34.97904,29.4198],[34.9789,29.41708]]}},{"type":"Feature","properties":{"waterway":"drain"},"geometry":{"type":"LineString","coordinates":[[34.9793,29.47397],[34.97883,29.47449]]}},{"type":"Feature","properties":{"waterway":"drain"},"geometry":{"type":"LineString","coordinates":[[34.97955,29.47376],[34.9793,29.47397]]}},{"type":"Feature","properties":{"waterway":"drain","intermittent":"yes"},"geometry":{"type":"LineString","coordinates":[[34.98859,29.47173],[34.98667,29.47104],[34.98343,29.471],[34.98143,29.47189],[34.97955,29.47376]]}},{"type":"Feature","properties":{"waterway":"drain","intermittent":"yes"},"geometry":{"type":"LineString","coordinates":[[34.98932,29.47175],[34.98859,29.47173]]}},{"type":"Feature","properties":{"waterway":"stream","intermittent":"yes"},"geometry":{"type":"LineString","coordinates":[[35.01647,29.42034],[35.01179,29.42048],[35.00766,29.41963],[35.00009,29.41668]]}},{"type":"Feature","properties":{"waterway":"stream","intermittent":"yes"},"geometry":{"type":"LineString","coordinates":[[35.01689,29.42036],[35.01647,29.42034]]}},{"type":"Feature","properties":{"waterway":"stream","intermittent":"yes"},"geometry":{"type":"LineString","coordinates":[[35.02252,29.4348],[35.01717,29.43099],[35.01601,29.42969],[35.01587,29.42878]]}},{"type":"Feature","properties":{"waterway":"stream","intermittent":"yes"},"geometry":{"type":"LineString","coordinates":[[35.01587,29.42878],[35.01549,29.42858]]}},{"type":"Feature","properties":{"waterway":"stream","intermittent":"yes"},"geometry":{"type":"LineString","coordinates":[[35.01761,29.44278],[35.01294,29.44177],[35.01147,29.44116],[35.01098,29.44051]]}},{"type":"Feature","properties":{"waterway":"stream","intermittent":"yes"},"geometry":{"type":"LineString","coordinates":[[35.01098,29.44051],[35.01001,29.43979]]}},{"type":"Feature","properties":{"waterway":"stream","intermittent":"yes"},"geometry":{"type":"LineString","coordinates":[[35.01591,29.42526],[35.01499,29.42498],[35.01067,29.42025]]}},{"type":"Feature","properties":{"waterway":"stream","intermittent":"yes"},"geometry":{"type":"LineString","coordinates":[[35.01634,29.42546],[35.01591,29.42526]]}},{"type":"Feature","properties":{"name_ar":"وادي الشلالة","name_en":"Wādī ash Shallālah","waterway":"stream","intermittent":"yes"},"geometry":{"type":"LineString","coordinates":[[35.00956,29.52],[35.00536,29.51927],[35.00104,29.51923]]}},{"type":"Feature","properties":{"name_ar":"وادي الشلالة","name_en":"Wādī ash Shallālah","waterway":"stream","intermittent":"yes"},"geometry":{"type":"LineString","coordinates":[[35.01013,29.51988],[35.00956,29.52]]}},{"type":"Feature","properties":{"waterway":"stream","intermittent":"yes"},"geometry":{"type":"LineString","coordinates":[[34.97595,29.57552],[34.9757,29.57535]]}},{"type":"Feature","properties":{"waterway":"stream","intermittent":"yes"},"geometry":{"type":"LineString","coordinates":[[34.9757,29.57535],[34.97362,29.57401],[34.97309,29.57327],[34.97343,29.56666],[34.97289,29.56444],[34.97198,29.56364]]}},{"type":"Feature","properties":{"waterway":"river","intermittent":"yes"},"geometry":{"type":"LineString","coordinates":[[34.96068,29.35526],[34.95982,29.3567]]}},{"type":"Feature","properties":{"waterway":"river","intermittent":"yes"},"geometry":{"type":"LineString","coordinates":[[34.96079,29.35512],[34.96068,29.35526]]}},{"type":"Feature","properties":{"waterway":"river","intermittent":"yes"},"geometry":{"type":"LineString","coordinates":[[35.04143,29.29487],[35.0412,29.29425],[35.04024,29.29363],[35.03631,29.29204],[35.03415,29.29189],[35.03175,29.29222],[35.0287,29.29514],[35.02498,29.29677],[35.02218,29.29871],[35.01976,29.29949],[35.01889,29.30038],[35.01835,29.30233],[35.01593,29.30299],[35.01408,29.30749],[35.00935,29.31084],[35.00722,29.31678],[35.00374,29.32123],[34.99971,29.32541],[34.99093,29.33264],[34.98536,29.33588],[34.98395,29.33789],[34.9775,29.34238],[34.97597,29.344],[34.97198,29.34567],[34.9676,29.35017],[34.96256,29.35303],[34.96079,29.35512]]}},{"type":"Feature","properties":{"waterway":"drain"},"geometry":{"type":"LineString","coordinates":[[35.02432,29.62269],[35.0244,29.62233]]}},{"type":"Feature","properties":{"waterway":"drain"},"geometry":{"type":"LineString","coordinates":[[35.0244,29.62233],[35.02486,29.62221]]}},{"type":"Feature","properties":{"waterway":"drain"},"geometry":{"type":"LineString","coordinates":[[35.02486,29.62221],[35.02583,29.62196]]}},{"type":"Feature","properties":{"waterway":"drain"},"geometry":{"type":"LineString","coordinates":[[35.02583,29.62196],[35.02597,29.62192]]}},{"type":"Feature","properties":{"name_en":"Nahal Shchoret","waterway":"stream","intermittent":"yes"},"geometry":{"type":"LineString","coordinates":[[34.97923,29.61246],[34.98052,29.61178],[34.98521,29.60567],[34.98384,29.60429],[34.98253,29.60126],[34.98193,29.59808],[34.98207,29.59614],[34.98237,29.59512],[34.98625,29.59302]]}}]}