{"type":"FeatureCollection","features":[{"type":"Feature","properties":{"area_km2":615.0925,"role":"sea_body"},"geometry":{"type":"Polygon","coordinates":[[[34.95721,29.54899],[34.9572,29.54854],[34.95668,29.54855],[34.95667,29.5481],[34.95616,29.54811],[34.95615,29.54766],[34.95563,29.54766],[34.95562,29.54721],[34.95511,29.54722],[34.9551,29.54677],[34.95458,29.54678],[34.95457,29.54633],[34.95406,29.54633],[34.95404,29.54543],[34.95353,29.54544],[34.95352,29.54499],[34.953,29.545],[34.95298,29.54409],[34.95247,29.5441],[34.95246,29.54365],[34.95194,29.54366],[34.95193,29.54276],[34.95141,29.54276],[34.9514,29.54231],[34.95089,29.54232],[34.95088,29.54187],[34.95036,29.54188],[34.95035,29.54142],[34.94984,29.54143],[34.94983,29.54098],[34.94931,29.54099],[34.9493,29.54054],[34.94879,29.54055],[34.94878,29.54009],[34.94826,29.5401],[34.94825,29.5392],[34.94773,29.53921],[34.94771,29.53831],[34.9472,29.53831],[34.94718,29.53741],[34.94666,29.53742],[34.94664,29.53607],[34.94612,29.53607],[34.94611,29.53562],[34.9456,29.53563],[34.94559,29.53518],[34.94507,29.53519],[34.94507,29.53474],[34.94455,29.53474],[34.94454,29.53429],[34.94403,29.5343],[34.94402,29.53385],[34.9435,29.53386],[34.94349,29.53341],[34.94298,29.53341],[34.94296,29.53251],[34.94244,29.53252],[34.94244,29.53207],[34.94192,29.53207],[34.9419,29.53117],[34.94139,29.53118],[34.94138,29.53073],[34.94086,29.53074],[34.94085,29.53029],[34.94034,29.53029],[34.94033,29.52984],[34.9393,29.52986],[34.93929,29.52941],[34.93877,29.52941],[34.93876,29.52896],[34.93825,29.52897],[34.93824,29.52852],[34.93772,29.52853],[34.93772,29.52808],[34.9372,29.52808],[34.93719,29.52763],[34.93668,29.52764],[34.93667,29.52719],[34.93615,29.5272],[34.93614,29.52675],[34.93563,29.52675],[34.93562,29.5263],[34.9351,29.52631],[34.93509,29.52541],[34.93457,29.52542],[34.93456,29.52496],[34.93405,29.52497],[34.93404,29.52452],[34.93352,29.52453],[34.93351,29.52408],[34.933,29.52408],[34.93296,29.52228],[34.93245,29.52229],[34.93241,29.52048],[34.9319,29.52049],[34.93188,29.51959],[34.93137,29.5196],[34.93136,29.51915],[34.92981,29.51917],[34.9298,29.51872],[34.92825,29.51874],[34.92825,29.51829],[34.92721,29.5183],[34.92721,29.51785],[34.92669,29.51786],[34.92668,29.51741],[34.92617,29.51742],[34.92611,29.51426],[34.92559,29.51427],[34.92558,29.51382],[34.92507,29.51382],[34.92506,29.51337],[34.92454,29.51338],[34.92453,29.51293],[34.92402,29.51294],[34.92401,29.51249],[34.92349,29.51249],[34.9234,29.50753],[34.92288,29.50754],[34.92288,29.50709],[34.92236,29.5071],[34.92234,29.50619],[34.92183,29.5062],[34.92182,29.50575],[34.9213,29.50576],[34.92129,29.50531],[34.92078,29.50531],[34.92075,29.50396],[34.92024,29.50397],[34.92011,29.4972],[34.9196,29.49721],[34.91959,29.49676],[34.91907,29.49677],[34.91906,29.49632],[34.91803,29.49633],[34.91802,29.49588],[34.91338,29.49595],[34.91337,29.4955],[34.91183,29.49552],[34.91182,29.49507],[34.91079,29.49508],[34.91078,29.49463],[34.91026,29.49464],[34.91026,29.49419],[34.90974,29.49419],[34.90973,29.49374],[34.90922,29.49375],[34.90921,29.4933],[34.90869,29.49331],[34.90868,29.49286],[34.90817,29.49286],[34.90815,29.49196],[34.90764,29.49197],[34.90763,29.49152],[34.90711,29.49153],[34.9071,29.49062],[34.90658,29.49063],[34.90657,29.49018],[34.90606,29.49019],[34.90605,29.48974],[34.90553,29.48974],[34.90552,29.48929],[34.90501,29.4893],[34.905,29.48885],[34.90448,29.48886],[34.90447,29.48795],[34.90395,29.48796],[34.90394,29.48751],[34.90343,29.48752],[34.90342,29.48707],[34.9029,29.48707],[34.9029,29.48662],[34.90238,29.48663],[34.90237,29.48618],[34.90186,29.48619],[34.90185,29.48574],[34.9003,29.48576],[34.90029,29.48531],[34.89926,29.48532],[34.89927,29.48577],[34.8869,29.48595],[34.88691,29.4864],[34.8833,29.48645],[34.88329,29.486],[34.88123,29.48603],[34.88122,29.48558],[34.87916,29.48561],[34.87915,29.48516],[34.87812,29.48517],[34.87811,29.48472],[34.87708,29.48473],[34.87707,29.48428],[34.87604,29.4843],[34.87603,29.48385],[34.875,29.48386],[34.87499,29.48341],[34.87448,29.48342],[34.87447,29.48297],[34.87395,29.48297],[34.87394,29.48252],[34.87343,29.48253],[34.87341,29.48163],[34.8729,29.48164],[34.87288,29.48073],[34.87236,29.48074],[34.87234,29.47939],[34.87182,29.4794],[34.87181,29.47849],[34.87129,29.4785],[34.87128,29.4776],[34.87076,29.47761],[34.87074,29.4767],[34.87023,29.47671],[34.87021,29.47581],[34.8697,29.47582],[34.86969,29.47536],[34.86917,29.47537],[34.86916,29.47492],[34.86865,29.47493],[34.86864,29.47448],[34.86812,29.47448],[34.86812,29.47403],[34.86709,29.47405],[34.86708,29.4736],[34.86656,29.4736],[34.86655,29.47315],[34.86604,29.47316],[34.86603,29.47271],[34.865,29.47272],[34.86499,29.47227],[34.86344,29.47229],[34.86344,29.47184],[34.86292,29.47185],[34.86291,29.4714],[34.86188,29.47141],[34.86187,29.47051],[34.86135,29.47052],[34.86133,29.46962],[34.86082,29.46962],[34.8608,29.46872],[34.86029,29.46873],[34.86028,29.46828],[34.85976,29.46829],[34.85975,29.46738],[34.85923,29.46739],[34.85922,29.46694],[34.85871,29.46695],[34.8587,29.4665],[34.85818,29.4665],[34.85817,29.4656],[34.85765,29.46561],[34.85764,29.46516],[34.85713,29.46516],[34.85711,29.46426],[34.8566,29.46427],[34.85658,29.46337],[34.85606,29.46337],[34.85605,29.46247],[34.85553,29.46248],[34.8555,29.46068],[34.85601,29.46067],[34.85599,29.45932],[34.85651,29.45931],[34.85646,29.45705],[34.85698,29.45705],[34.85691,29.45299],[34.85742,29.45298],[34.85739,29.45118],[34.85687,29.45118],[34.85685,29.44983],[34.85633,29.44984],[34.85632,29.44939],[34.85581,29.44939],[34.85579,29.44849],[34.85528,29.4485],[34.85527,29.44805],[34.85475,29.44805],[34.8547,29.4449],[34.85418,29.4449],[34.85416,29.44355],[34.85364,29.44356],[34.85363,29.44266],[34.85311,29.44266],[34.8531,29.44221],[34.85259,29.44222],[34.85257,29.44132],[34.85205,29.44132],[34.85205,29.44087],[34.85153,29.44088],[34.85152,29.44043],[34.85101,29.44044],[34.851,29.43999],[34.85048,29.43999],[34.85047,29.43909],[34.84995,29.4391],[34.84992,29.43729],[34.8494,29.4373],[34.8494,29.43685],[34.84888,29.43686],[34.84887,29.43641],[34.84836,29.43641],[34.84835,29.43596],[34.84732,29.43598],[34.84731,29.43553],[34.84577,29.43555],[34.84576,29.4351],[34.84473,29.43511],[34.84472,29.43466],[34.84317,29.43468],[34.84316,29.43423],[34.84162,29.43425],[34.84161,29.4338],[34.84058,29.43381],[34.84057,29.43336],[34.84006,29.43337],[34.84005,29.43292],[34.83953,29.43293],[34.83952,29.43202],[34.839,29.43203],[34.83897,29.43023],[34.83845,29.43023],[34.83845,29.42978],[34.83793,29.42979],[34.83792,29.42934],[34.83741,29.42935],[34.8374,29.4289],[34.83637,29.42891],[34.83636,29.42846],[34.83327,29.4285],[34.83328,29.42895],[34.83276,29.42896],[34.83275,29.42851],[34.83121,29.42853],[34.83119,29.42763],[34.83068,29.42763],[34.83066,29.42673],[34.83118,29.42673],[34.83116,29.42582],[34.83168,29.42582],[34.83165,29.42446],[34.83217,29.42446],[34.83215,29.42355],[34.83163,29.42356],[34.83162,29.42266],[34.82956,29.42269],[34.82954,29.42179],[34.82903,29.42179],[34.82901,29.42089],[34.8285,29.4209],[34.82841,29.41639],[34.8279,29.41639],[34.82788,29.41549],[34.82737,29.4155],[34.82736,29.41505],[34.82684,29.41506],[34.82684,29.4146],[34.82632,29.41461],[34.82631,29.41416],[34.8258,29.41417],[34.82579,29.41372],[34.82527,29.41372],[34.82526,29.41282],[34.82474,29.41283],[34.82474,29.41238],[34.82422,29.41238],[34.82421,29.41193],[34.82318,29.41195],[34.82317,29.4115],[34.82266,29.4115],[34.82265,29.41105],[34.82162,29.41107],[34.82161,29.41062],[34.81955,29.41064],[34.81954,29.41019],[34.81903,29.4102],[34.81902,29.40975],[34.81851,29.40976],[34.8185,29.4093],[34.81798,29.40931],[34.81794,29.40706],[34.81743,29.40706],[34.81735,29.40255],[34.81683,29.40256],[34.8168,29.40076],[34.81474,29.40078],[34.81475,29.40123],[34.81423,29.40124],[34.81424,29.40169],[34.8127,29.40171],[34.81269,29.40126],[34.81217,29.40127],[34.81216,29.40037],[34.81164,29.40037],[34.81162,29.39947],[34.81111,29.39948],[34.81108,29.39768],[34.81056,29.39768],[34.81048,29.39317],[34.811,29.39316],[34.81093,29.38911],[34.81041,29.38911],[34.81028,29.38144],[34.80976,29.38145],[34.80974,29.38055],[34.80923,29.38056],[34.80922,29.38011],[34.80871,29.38011],[34.8087,29.37966],[34.80818,29.37967],[34.80818,29.37922],[34.80766,29.37922],[34.80765,29.37877],[34.80714,29.37878],[34.80713,29.37833],[34.80661,29.37834],[34.80661,29.37789],[34.80609,29.37789],[34.80608,29.37744],[34.80557,29.37745],[34.80556,29.377],[34.80505,29.377],[34.80504,29.37655],[34.80452,29.37656],[34.80451,29.37611],[34.804,29.37612],[34.80399,29.37566],[34.80348,29.37567],[34.80346,29.37477],[34.80295,29.37478],[34.80294,29.37433],[34.80242,29.37433],[34.80242,29.37388],[34.80139,29.3739],[34.80138,29.37344],[34.80035,29.37346],[34.80034,29.37301],[34.79879,29.37303],[34.79879,29.37258],[34.79724,29.3726],[34.79723,29.37215],[34.7962,29.37216],[34.7962,29.37171],[34.79517,29.37172],[34.79516,29.37127],[34.79464,29.37128],[34.79464,29.37083],[34.79361,29.37084],[34.7936,29.37039],[34.79308,29.3704],[34.79307,29.36995],[34.79256,29.36995],[34.79255,29.3695],[34.79204,29.36951],[34.79202,29.36861],[34.79151,29.36861],[34.7915,29.36816],[34.79098,29.36817],[34.79098,29.36772],[34.79046,29.36773],[34.79044,29.36682],[34.78993,29.36683],[34.78991,29.36593],[34.7894,29.36594],[34.78937,29.36413],[34.78885,29.36414],[34.78882,29.36233],[34.78831,29.36234],[34.78829,29.36144],[34.78778,29.36145],[34.78777,29.361],[34.78725,29.361],[34.78724,29.36055],[34.78673,29.36056],[34.78672,29.36011],[34.78569,29.36012],[34.78568,29.35967],[34.78517,29.35968],[34.78516,29.35923],[34.78465,29.35923],[34.78458,29.35562],[34.78407,29.35563],[34.78405,29.35473],[34.78354,29.35474],[34.78353,29.35428],[34.78302,29.35429],[34.783,29.35339],[34.78249,29.3534],[34.78248,29.35295],[34.78196,29.35295],[34.78195,29.35205],[34.78143,29.35206],[34.78132,29.34574],[34.78184,29.34574],[34.78181,29.34393],[34.78232,29.34392],[34.7823,29.34302],[34.78282,29.34302],[34.7828,29.34211],[34.78332,29.34211],[34.78331,29.34166],[34.78383,29.34165],[34.78381,29.34075],[34.78329,29.34075],[34.78329,29.3403],[34.78277,29.34031],[34.78276,29.33986],[34.78225,29.33986],[34.78224,29.33941],[34.78173,29.33942],[34.78172,29.33897],[34.7812,29.33898],[34.7812,29.33853],[34.78068,29.33853],[34.78067,29.33763],[34.78015,29.33764],[34.78014,29.33673],[34.77962,29.33674],[34.77961,29.33629],[34.7791,29.3363],[34.77909,29.33585],[34.776,29.33589],[34.77601,29.33634],[34.77549,29.33635],[34.7755,29.3368],[34.77499,29.3368],[34.775,29.33725],[34.77448,29.33726],[34.77449,29.33771],[34.77346,29.33773],[34.77347,29.33818],[34.77141,29.3382],[34.77142,29.33866],[34.7673,29.33871],[34.76729,29.33826],[34.76626,29.33827],[34.76625,29.33782],[34.76574,29.33783],[34.76573,29.33738],[34.76521,29.33738],[34.7652,29.33648],[34.76468,29.33649],[34.76467,29.33559],[34.76415,29.33559],[34.76412,29.33379],[34.76361,29.3338],[34.76358,29.33199],[34.76306,29.332],[34.76304,29.33065],[34.76252,29.33065],[34.76251,29.32975],[34.76199,29.32976],[34.76199,29.32931],[34.76147,29.32931],[34.76146,29.32841],[34.76094,29.32842],[34.76093,29.32797],[34.76042,29.32797],[34.7604,29.32662],[34.75988,29.32663],[34.75986,29.32527],[34.75934,29.32528],[34.75933,29.32438],[34.75881,29.32438],[34.7588,29.32348],[34.75828,29.32349],[34.75827,29.32259],[34.75775,29.32259],[34.75774,29.32169],[34.75722,29.3217],[34.75721,29.3208],[34.75669,29.3208],[34.75667,29.31945],[34.75615,29.31946],[34.75613,29.3181],[34.75562,29.31811],[34.75559,29.31676],[34.75508,29.31676],[34.75506,29.31586],[34.75455,29.31587],[34.75454,29.31542],[34.753,29.31544],[34.75299,29.31499],[34.75196,29.315],[34.75195,29.31455],[34.75092,29.31456],[34.75091,29.31411],[34.74937,29.31413],[34.74922,29.30556],[34.74974,29.30556],[34.74922,29.27533],[34.74974,29.27533],[34.74933,29.25142],[34.74985,29.25141],[34.74985,29.25186],[34.75037,29.25186],[34.75038,29.25231],[34.75089,29.2523],[34.75091,29.2532],[34.75142,29.2532],[34.75143,29.25365],[34.75246,29.25364],[34.75246,29.25409],[34.75298,29.25408],[34.75299,29.25453],[34.75607,29.25449],[34.75606,29.25404],[34.75709,29.25403],[34.75709,29.25357],[34.7576,29.25357],[34.75759,29.25312],[34.75862,29.2531],[34.75861,29.25265],[34.75913,29.25265],[34.7591,29.25129],[34.75962,29.25129],[34.75953,29.24587],[34.76004,29.24587],[34.76001,29.24406],[34.76052,29.24405],[34.76051,29.24315],[34.76102,29.24315],[34.761,29.24179],[34.76151,29.24179],[34.76144,29.23727],[34.76092,29.23728],[34.76068,29.2233],[34.7612,29.22329],[34.76119,29.22284],[34.76068,29.22285],[34.76064,29.22104],[34.76013,29.22105],[34.76012,29.2206],[34.75909,29.22061],[34.75909,29.22016],[34.75857,29.22017],[34.75856,29.21972],[34.75754,29.21973],[34.75753,29.21928],[34.7565,29.21929],[34.75649,29.21884],[34.75598,29.21885],[34.75597,29.2184],[34.75494,29.21841],[34.75493,29.21796],[34.75442,29.21797],[34.75443,29.21842],[34.7534,29.21843],[34.75341,29.21888],[34.75289,29.21889],[34.7529,29.21934],[34.75187,29.21935],[34.75188,29.2198],[34.75137,29.21981],[34.75138,29.22071],[34.75087,29.22072],[34.75088,29.22162],[34.75037,29.22163],[34.75044,29.22614],[34.74993,29.22615],[34.74998,29.22885],[34.74946,29.22886],[34.74922,29.21488],[34.74974,29.21487],[34.74923,29.18465],[34.74974,29.18464],[34.74923,29.15442],[34.74974,29.15441],[34.74966,29.14945],[34.76147,29.1493],[34.76148,29.14975],[34.7954,29.1493],[34.7954,29.14975],[34.8288,29.1493],[34.82881,29.14975],[34.86118,29.1493],[34.86119,29.14975],[34.8915,29.14933],[34.89155,29.15158],[34.89309,29.15156],[34.8931,29.15201],[34.89361,29.152],[34.89369,29.15651],[34.89318,29.15652],[34.89319,29.15697],[34.89216,29.15699],[34.89217,29.15744],[34.89268,29.15743],[34.89269,29.15788],[34.8932,29.15788],[34.89322,29.15878],[34.89271,29.15878],[34.89271,29.15924],[34.8922,29.15924],[34.89222,29.16015],[34.8917,29.16015],[34.89173,29.16151],[34.89224,29.1615],[34.89226,29.1624],[34.89277,29.16239],[34.89279,29.1633],[34.89382,29.16328],[34.89383,29.16418],[34.89435,29.16418],[34.89443,29.16869],[34.89546,29.16867],[34.89549,29.17048],[34.896,29.17047],[34.89602,29.17137],[34.89654,29.17136],[34.89655,29.17227],[34.89604,29.17227],[34.89605,29.17317],[34.89554,29.17318],[34.89555,29.17363],[34.89503,29.17364],[34.89505,29.17454],[34.89454,29.17455],[34.89455,29.175],[34.89403,29.17501],[34.89405,29.17591],[34.89353,29.17592],[34.89354,29.17637],[34.89406,29.17636],[34.89407,29.17726],[34.89459,29.17726],[34.8946,29.17771],[34.89511,29.1777],[34.89512,29.17815],[34.89563,29.17814],[34.89565,29.17905],[34.89616,29.17904],[34.89617,29.17949],[34.89668,29.17948],[34.8967,29.18038],[34.89619,29.18039],[34.8962,29.18129],[34.89569,29.1813],[34.89571,29.1822],[34.89519,29.18221],[34.8952,29.18266],[34.89469,29.18267],[34.8947,29.18357],[34.89522,29.18356],[34.89523,29.18401],[34.89625,29.184],[34.89627,29.1849],[34.89678,29.18489],[34.89681,29.18625],[34.8963,29.18625],[34.8963,29.18671],[34.89682,29.1867],[34.89683,29.1876],[34.89735,29.18759],[34.89736,29.18804],[34.89838,29.18803],[34.89839,29.18848],[34.89891,29.18847],[34.89891,29.18892],[34.89943,29.18892],[34.89944,29.18937],[34.90047,29.18935],[34.90047,29.1898],[34.90099,29.1898],[34.901,29.1907],[34.90203,29.19068],[34.90204,29.19114],[34.90255,29.19113],[34.90256,29.19158],[34.90359,29.19156],[34.9036,29.19202],[34.90411,29.19201],[34.9041,29.19156],[34.90565,29.19154],[34.90566,29.19199],[34.90617,29.19198],[34.9062,29.19378],[34.90672,29.19378],[34.90672,29.19423],[34.90878,29.1942],[34.90882,29.19645],[34.90831,29.19646],[34.90833,29.19736],[34.90781,29.19737],[34.90782,29.19782],[34.90679,29.19784],[34.90681,29.19874],[34.90629,29.19874],[34.9063,29.1992],[34.90682,29.19919],[34.90685,29.20099],[34.90993,29.20095],[34.90994,29.2014],[34.91046,29.20139],[34.91047,29.20184],[34.91098,29.20184],[34.91101,29.20364],[34.9105,29.20365],[34.91052,29.205],[34.91001,29.20501],[34.91002,29.20546],[34.91053,29.20545],[34.91055,29.20635],[34.91261,29.20632],[34.9126,29.20587],[34.91311,29.20587],[34.9131,29.20541],[34.91362,29.20541],[34.91361,29.20496],[34.91515,29.20493],[34.91516,29.20539],[34.91722,29.20536],[34.91722,29.20581],[34.91774,29.2058],[34.91776,29.20715],[34.91673,29.20717],[34.91674,29.20762],[34.91623,29.20763],[34.91624,29.20808],[34.91572,29.20808],[34.91573,29.20854],[34.91522,29.20854],[34.91523,29.20944],[34.91472,29.20945],[34.91478,29.21261],[34.91427,29.21262],[34.91427,29.21307],[34.91325,29.21308],[34.91327,29.21444],[34.91276,29.21444],[34.91276,29.21489],[34.91328,29.21489],[34.91333,29.21759],[34.91281,29.2176],[34.91282,29.21805],[34.91231,29.21806],[34.91233,29.21896],[34.9113,29.21898],[34.91131,29.21943],[34.91079,29.21943],[34.91083,29.22124],[34.9098,29.22125],[34.90981,29.2217],[34.91032,29.2217],[34.91034,29.2226],[34.91085,29.22259],[34.91087,29.22349],[34.91138,29.22349],[34.9114,29.22439],[34.91191,29.22438],[34.91192,29.22483],[34.91243,29.22482],[34.91245,29.22573],[34.91297,29.22572],[34.91298,29.22662],[34.9135,29.22661],[34.91352,29.22797],[34.91404,29.22796],[34.91404,29.22841],[34.91456,29.2284],[34.91457,29.22885],[34.91508,29.22885],[34.91509,29.2293],[34.9156,29.22929],[34.91562,29.23019],[34.91613,29.23018],[34.91613,29.22973],[34.91664,29.22973],[34.91663,29.22928],[34.91817,29.22925],[34.91817,29.2288],[34.92022,29.22877],[34.92021,29.22832],[34.92124,29.22831],[34.92123,29.22786],[34.92226,29.22784],[34.92227,29.22829],[34.92279,29.22828],[34.92279,29.22874],[34.92382,29.22872],[34.92383,29.22917],[34.92435,29.22916],[34.92435,29.22962],[34.92487,29.22961],[34.92488,29.23051],[34.9254,29.2305],[34.92538,29.2296],[34.92795,29.22956],[34.92796,29.23001],[34.92848,29.23001],[34.92852,29.23226],[34.92903,29.23226],[34.92904,29.23271],[34.92955,29.2327],[34.92956,29.23315],[34.93008,29.23314],[34.93009,29.23359],[34.9306,29.23359],[34.93061,29.23404],[34.93112,29.23403],[34.93114,29.23493],[34.93217,29.23492],[34.93218,29.23537],[34.93269,29.23536],[34.93271,29.23626],[34.93374,29.23625],[34.93372,29.23535],[34.93321,29.23535],[34.93319,29.23445],[34.93473,29.23443],[34.93474,29.23488],[34.93628,29.23486],[34.93629,29.23531],[34.9368,29.2353],[34.93686,29.23801],[34.93737,29.238],[34.93738,29.23845],[34.93789,29.23844],[34.9379,29.23889],[34.93842,29.23889],[34.93842,29.23934],[34.93894,29.23933],[34.93895,29.23978],[34.93946,29.23977],[34.93949,29.24158],[34.94001,29.24157],[34.94005,29.24383],[34.93954,29.24383],[34.93955,29.24473],[34.93904,29.24474],[34.93905,29.24519],[34.93802,29.24521],[34.93803,29.24566],[34.937,29.24567],[34.93701,29.24613],[34.93547,29.24615],[34.93547,29.2466],[34.93496,29.24661],[34.93497,29.24706],[34.93548,29.24705],[34.93549,29.2475],[34.93601,29.24749],[34.93601,29.24794],[34.93653,29.24794],[34.93655,29.24929],[34.93707,29.24928],[34.93708,29.24973],[34.93811,29.24972],[34.93811,29.25017],[34.93863,29.25016],[34.93864,29.25061],[34.93967,29.2506],[34.93967,29.25105],[34.94019,29.25104],[34.94021,29.25239],[34.94073,29.25239],[34.94074,29.25284],[34.94022,29.25285],[34.94024,29.25375],[34.93972,29.25376],[34.93974,29.25466],[34.93923,29.25466],[34.93924,29.25557],[34.93873,29.25557],[34.93875,29.25648],[34.93926,29.25647],[34.93932,29.25963],[34.93881,29.25963],[34.93882,29.26054],[34.93831,29.26054],[34.93833,29.26145],[34.93781,29.26145],[34.93785,29.26326],[34.93733,29.26326],[34.93735,29.26417],[34.93632,29.26418],[34.93631,29.26373],[34.9358,29.26374],[34.93582,29.26509],[34.93634,29.26508],[34.93635,29.26553],[34.93583,29.26554],[34.93584,29.26599],[34.93533,29.266],[34.93533,29.26645],[34.93482,29.26646],[34.93483,29.26691],[34.9338,29.26692],[34.93381,29.26738],[34.93329,29.26738],[34.9333,29.26783],[34.93279,29.26784],[34.9328,29.26829],[34.93228,29.2683],[34.9323,29.2692],[34.93178,29.26921],[34.9318,29.27011],[34.93129,29.27012],[34.9313,29.27102],[34.93079,29.27103],[34.93081,29.27193],[34.93132,29.27192],[34.93139,29.27553],[34.93087,29.27554],[34.93089,29.27644],[34.93141,29.27643],[34.93142,29.27734],[34.93194,29.27733],[34.93195,29.27778],[34.93143,29.27779],[34.93146,29.27914],[34.93197,29.27913],[34.932,29.28094],[34.93149,29.28094],[34.93152,29.2823],[34.931,29.2823],[34.93101,29.28275],[34.9305,29.28276],[34.93052,29.28412],[34.93001,29.28412],[34.93003,29.28548],[34.92952,29.28548],[34.92953,29.28639],[34.92851,29.2864],[34.92859,29.29091],[34.9291,29.2909],[34.92912,29.29181],[34.93221,29.29176],[34.93222,29.29221],[34.93273,29.2922],[34.93275,29.29311],[34.93223,29.29311],[34.93224,29.29356],[34.93276,29.29356],[34.93279,29.29536],[34.93331,29.29535],[34.93331,29.2958],[34.93383,29.2958],[34.93384,29.29625],[34.93435,29.29624],[34.9344,29.29895],[34.93389,29.29895],[34.9339,29.29941],[34.93441,29.2994],[34.93442,29.29985],[34.93648,29.29982],[34.93646,29.29892],[34.93698,29.29891],[34.93698,29.29936],[34.93904,29.29933],[34.93903,29.29888],[34.93955,29.29887],[34.93954,29.29842],[34.94057,29.29841],[34.94058,29.29886],[34.94212,29.29883],[34.94213,29.29929],[34.94316,29.29927],[34.94317,29.29972],[34.94368,29.29971],[34.9437,29.30062],[34.94473,29.3006],[34.94472,29.30015],[34.94523,29.30014],[34.94522,29.29969],[34.9478,29.29965],[34.94781,29.30056],[34.94833,29.30055],[34.94834,29.301],[34.94937,29.30099],[34.94938,29.30144],[34.94989,29.30143],[34.94991,29.30233],[34.95042,29.30232],[34.95044,29.30323],[34.95095,29.30322],[34.95096,29.30367],[34.95148,29.30366],[34.95149,29.30411],[34.952,29.3041],[34.95204,29.30636],[34.95153,29.30637],[34.95156,29.30817],[34.95105,29.30818],[34.95109,29.31043],[34.95058,29.31044],[34.9506,29.31179],[34.95009,29.3118],[34.9501,29.3127],[34.94959,29.31271],[34.94961,29.31361],[34.94909,29.31362],[34.94911,29.31452],[34.94859,29.31453],[34.9486,29.31498],[34.94809,29.31499],[34.94811,29.31634],[34.9476,29.31635],[34.94762,29.31725],[34.94813,29.31724],[34.94817,29.3195],[34.94766,29.31951],[34.94768,29.32041],[34.94716,29.32042],[34.94718,29.32132],[34.94666,29.32133],[34.94668,29.32223],[34.94617,29.32224],[34.94618,29.32269],[34.94566,29.32269],[34.94567,29.32314],[34.94516,29.32315],[34.94517,29.32405],[34.94466,29.32406],[34.94469,29.32587],[34.94521,29.32586],[34.94522,29.32631],[34.94573,29.3263],[34.94574,29.32675],[34.94625,29.32675],[34.94627,29.32765],[34.94678,29.32764],[34.94684,29.33035],[34.94735,29.33034],[34.94736,29.33079],[34.94787,29.33078],[34.94789,29.33168],[34.94892,29.33167],[34.94893,29.33212],[34.95099,29.33209],[34.951,29.33254],[34.95151,29.33253],[34.95152,29.33298],[34.95203,29.33298],[34.95205,29.33388],[34.95257,29.33387],[34.95258,29.33432],[34.95309,29.33431],[34.95313,29.33657],[34.95262,29.33658],[34.95263,29.33703],[34.9516,29.33704],[34.95161,29.33749],[34.95109,29.3375],[34.9511,29.33795],[34.95058,29.33796],[34.9506,29.33886],[34.95009,29.33887],[34.9501,29.33932],[34.94958,29.33933],[34.94959,29.33978],[34.94908,29.33979],[34.94908,29.34024],[34.94857,29.34025],[34.94858,29.3407],[34.94806,29.3407],[34.94808,29.34161],[34.94911,29.34159],[34.9491,29.34114],[34.95013,29.34113],[34.95016,29.34293],[34.95068,29.34292],[34.95072,29.34518],[34.95124,29.34517],[34.95125,29.34562],[34.95176,29.34561],[34.95178,29.34651],[34.95229,29.34651],[34.95232,29.34786],[34.95335,29.34785],[34.95337,29.3492],[34.95389,29.34919],[34.9539,29.34964],[34.95441,29.34963],[34.95442,29.35009],[34.95494,29.35008],[34.95494,29.35053],[34.95546,29.35052],[34.95547,29.35097],[34.95598,29.35096],[34.95599,29.35142],[34.95651,29.35141],[34.95651,29.35186],[34.95703,29.35185],[34.95704,29.3523],[34.95807,29.35229],[34.95809,29.35364],[34.95758,29.35365],[34.95759,29.3541],[34.95707,29.35411],[34.95708,29.35456],[34.95657,29.35457],[34.95658,29.35547],[34.95916,29.35543],[34.95917,29.35588],[34.9602,29.35587],[34.9602,29.35632],[34.96072,29.35631],[34.96073,29.35676],[34.96124,29.35675],[34.96125,29.3572],[34.96177,29.3572],[34.96184,29.36125],[34.96133,29.36126],[34.96141,29.36532],[34.96192,29.36531],[34.9621,29.37478],[34.96262,29.37478],[34.96267,29.37748],[34.96318,29.37748],[34.96321,29.37883],[34.96373,29.37882],[34.96374,29.37972],[34.96426,29.37972],[34.96427,29.38017],[34.96478,29.38016],[34.9648,29.38106],[34.96428,29.38107],[34.96431,29.38242],[34.96328,29.38244],[34.9633,29.38334],[34.96227,29.38335],[34.96228,29.38381],[34.96485,29.38377],[34.96493,29.38783],[34.96441,29.38783],[34.96446,29.39009],[34.96394,29.3901],[34.96397,29.39145],[34.96345,29.39146],[34.96347,29.39236],[34.96296,29.39237],[34.96297,29.39327],[34.96246,29.39328],[34.96252,29.39643],[34.96303,29.39643],[34.96305,29.39733],[34.96408,29.39731],[34.96409,29.39776],[34.9646,29.39776],[34.96461,29.39821],[34.96616,29.39818],[34.96617,29.39864],[34.96514,29.39865],[34.96515,29.3991],[34.96566,29.39909],[34.96567,29.39954],[34.96618,29.39954],[34.96621,29.40089],[34.96673,29.40088],[34.96673,29.40133],[34.96725,29.40133],[34.96726,29.40178],[34.96777,29.40177],[34.96779,29.40267],[34.96882,29.40266],[34.9688,29.40175],[34.96932,29.40175],[34.96933,29.4022],[34.97036,29.40218],[34.97037,29.40263],[34.97088,29.40263],[34.9709,29.40353],[34.97141,29.40352],[34.97142,29.40397],[34.97194,29.40396],[34.97195,29.40487],[34.97247,29.40486],[34.97249,29.40576],[34.973,29.40575],[34.97305,29.40846],[34.97357,29.40845],[34.97362,29.41116],[34.97414,29.41115],[34.97422,29.41521],[34.9737,29.41522],[34.97373,29.41657],[34.97321,29.41658],[34.97322,29.41703],[34.9727,29.41703],[34.97272,29.41794],[34.97221,29.41794],[34.97222,29.41885],[34.97171,29.41885],[34.97181,29.42382],[34.97232,29.42381],[34.97233,29.42426],[34.97284,29.42425],[34.97284,29.4238],[34.97387,29.42378],[34.97384,29.42243],[34.97435,29.42242],[34.97432,29.42062],[34.97484,29.42061],[34.97477,29.41746],[34.9758,29.41744],[34.97581,29.41789],[34.97633,29.41788],[34.97636,29.41969],[34.97585,29.4197],[34.97586,29.42015],[34.97534,29.42015],[34.97539,29.42241],[34.97487,29.42242],[34.97489,29.42332],[34.97437,29.42333],[34.97438,29.42378],[34.9749,29.42377],[34.97493,29.42557],[34.97442,29.42558],[34.97443,29.42648],[34.97289,29.42651],[34.97291,29.42741],[34.97239,29.42742],[34.9724,29.42787],[34.97291,29.42786],[34.97293,29.42876],[34.97345,29.42875],[34.97346,29.4292],[34.97397,29.4292],[34.97398,29.42965],[34.97449,29.42964],[34.97451,29.43054],[34.97503,29.43053],[34.97504,29.43099],[34.97452,29.43099],[34.97454,29.4319],[34.97402,29.4319],[34.97404,29.4328],[34.97353,29.43281],[34.97353,29.43326],[34.97302,29.43327],[34.97303,29.43372],[34.97251,29.43373],[34.97252,29.43418],[34.97201,29.43419],[34.97202,29.43509],[34.97151,29.4351],[34.97153,29.436],[34.97101,29.43601],[34.97104,29.43736],[34.97052,29.43737],[34.97059,29.44098],[34.97008,29.44098],[34.97013,29.44369],[34.97064,29.44368],[34.97067,29.44504],[34.97118,29.44503],[34.97119,29.44548],[34.97016,29.44549],[34.97017,29.44594],[34.96914,29.44596],[34.96915,29.44641],[34.97018,29.4464],[34.97022,29.44865],[34.96971,29.44866],[34.96973,29.45001],[34.97025,29.45],[34.97028,29.45136],[34.97079,29.45135],[34.97083,29.45315],[34.97134,29.45315],[34.97135,29.4536],[34.97238,29.45358],[34.97239,29.45403],[34.9729,29.45402],[34.97292,29.45493],[34.97344,29.45492],[34.97346,29.45627],[34.97398,29.45626],[34.97399,29.45672],[34.97656,29.45668],[34.97666,29.46164],[34.97615,29.46165],[34.97615,29.4621],[34.97564,29.4621],[34.97566,29.46346],[34.97515,29.46346],[34.97516,29.46392],[34.97464,29.46392],[34.97467,29.46528],[34.97518,29.46527],[34.97519,29.46572],[34.97571,29.46571],[34.97575,29.46797],[34.97472,29.46798],[34.97475,29.46934],[34.97526,29.46933],[34.97529,29.47068],[34.9758,29.47067],[34.97582,29.47158],[34.97685,29.47156],[34.97688,29.47291],[34.97739,29.47291],[34.9774,29.47336],[34.97843,29.47334],[34.97844,29.47379],[34.97896,29.47378],[34.979,29.47604],[34.97952,29.47603],[34.97954,29.47738],[34.98006,29.47738],[34.98007,29.47783],[34.98058,29.47782],[34.98064,29.48053],[34.98115,29.48052],[34.98116,29.48097],[34.98168,29.48096],[34.98169,29.48186],[34.98221,29.48186],[34.98224,29.48321],[34.98275,29.4832],[34.98277,29.4841],[34.98328,29.4841],[34.98329,29.48455],[34.98381,29.48454],[34.98382,29.48499],[34.98433,29.48498],[34.98435,29.48588],[34.98487,29.48588],[34.98493,29.48903],[34.98544,29.48903],[34.98546,29.48993],[34.98598,29.48992],[34.98601,29.49172],[34.98653,29.49172],[34.98654,29.49262],[34.98706,29.49261],[34.98708,29.49351],[34.98759,29.49351],[34.98761,29.49441],[34.98813,29.4944],[34.98816,29.4962],[34.98868,29.4962],[34.98869,29.4971],[34.98921,29.49709],[34.98924,29.49844],[34.98975,29.49844],[34.98976,29.49889],[34.99028,29.49888],[34.99029,29.49978],[34.99081,29.49977],[34.99084,29.50158],[34.99136,29.50157],[34.99144,29.50563],[34.99195,29.50562],[34.99196,29.50607],[34.99299,29.50606],[34.99304,29.50831],[34.99252,29.50832],[34.99255,29.50967],[34.99307,29.50966],[34.99309,29.51102],[34.99361,29.51101],[34.99364,29.51281],[34.99416,29.51281],[34.99419,29.51416],[34.9947,29.51415],[34.99472,29.51505],[34.99523,29.51504],[34.99526,29.5164],[34.99578,29.51639],[34.99578,29.51684],[34.9963,29.51683],[34.99631,29.51728],[34.99683,29.51728],[34.99682,29.51683],[34.99785,29.51681],[34.99782,29.51546],[34.99988,29.51543],[34.99992,29.51723],[34.9994,29.51724],[34.99942,29.51814],[34.99994,29.51813],[34.99995,29.51858],[35.00046,29.51857],[35.00051,29.52128],[34.99948,29.5213],[34.99953,29.52355],[35.00004,29.52354],[35.00011,29.5267],[34.99959,29.52671],[34.9996,29.52716],[34.99908,29.52717],[34.9991,29.52807],[34.99858,29.52808],[34.99864,29.53078],[34.99812,29.53079],[34.99814,29.53169],[34.99762,29.5317],[34.99763,29.53215],[34.99609,29.53217],[34.99609,29.53263],[34.99558,29.53263],[34.99557,29.53218],[34.99402,29.53221],[34.99403,29.53266],[34.993,29.53267],[34.99301,29.53312],[34.99249,29.53313],[34.9925,29.53358],[34.99199,29.53359],[34.992,29.53404],[34.99148,29.53405],[34.9915,29.53495],[34.99098,29.53496],[34.99099,29.53541],[34.99048,29.53542],[34.99049,29.53632],[34.98998,29.53633],[34.98999,29.53678],[34.98895,29.53679],[34.98896,29.53724],[34.98845,29.53725],[34.98846,29.5377],[34.98794,29.53771],[34.98795,29.53816],[34.98692,29.53818],[34.98693,29.53863],[34.9859,29.53864],[34.9859,29.53909],[34.98384,29.53912],[34.98385,29.53958],[34.98282,29.53959],[34.98283,29.54004],[34.9818,29.54006],[34.9818,29.54051],[34.98129,29.54052],[34.9813,29.54097],[34.98027,29.54098],[34.98028,29.54143],[34.97976,29.54144],[34.97977,29.54189],[34.97874,29.54191],[34.97875,29.54236],[34.97823,29.54237],[34.97824,29.54282],[34.97721,29.54283],[34.97722,29.54328],[34.97618,29.5433],[34.97619,29.54375],[34.97516,29.54377],[34.97517,29.54422],[34.97465,29.54422],[34.97466,29.54467],[34.97415,29.54468],[34.97416,29.54513],[34.97364,29.54514],[34.97365,29.54559],[34.97313,29.5456],[34.97314,29.54605],[34.97211,29.54607],[34.97213,29.54697],[34.97058,29.54699],[34.97057,29.54654],[34.97006,29.54655],[34.97005,29.5461],[34.96902,29.54611],[34.96901,29.54566],[34.96643,29.5457],[34.96644,29.54615],[34.96437,29.54618],[34.96438,29.54663],[34.96284,29.54665],[34.96284,29.54711],[34.96233,29.54711],[34.96234,29.54756],[34.96131,29.54758],[34.96131,29.54803],[34.9608,29.54804],[34.96081,29.54849],[34.95978,29.5485],[34.95978,29.54896],[34.95721,29.54899]],[[34.85968,29.46378],[34.8602,29.46377],[34.86018,29.46287],[34.85966,29.46287],[34.85968,29.46378]],[[34.81974,29.39214],[34.82077,29.39213],[34.82076,29.39168],[34.82179,29.39166],[34.82178,29.39121],[34.8223,29.39121],[34.82229,29.39076],[34.8228,29.39075],[34.8228,29.3903],[34.82331,29.39029],[34.8233,29.38984],[34.82382,29.38983],[34.82381,29.38938],[34.82432,29.38937],[34.82432,29.38892],[34.82483,29.38892],[34.82482,29.38846],[34.82534,29.38846],[34.82533,29.38801],[34.82585,29.388],[34.82583,29.3871],[34.82634,29.38709],[34.8263,29.38484],[34.82579,29.38484],[34.82577,29.38394],[34.82526,29.38395],[34.82525,29.3835],[34.82422,29.38351],[34.82421,29.38306],[34.82215,29.38309],[34.82214,29.38264],[34.8206,29.38266],[34.82061,29.38311],[34.81958,29.38312],[34.81959,29.38357],[34.81907,29.38358],[34.81909,29.38448],[34.81857,29.38449],[34.81858,29.38494],[34.81806,29.38495],[34.81814,29.38901],[34.81865,29.389],[34.81868,29.39035],[34.81919,29.39035],[34.81921,29.3917],[34.81973,29.39169],[34.81974,29.39214]],[[34.95839,29.36897],[34.95942,29.36896],[34.95939,29.36761],[34.95888,29.36761],[34.95887,29.36716],[34.95835,29.36717],[34.95834,29.36672],[34.95783,29.36673],[34.95786,29.36853],[34.95838,29.36852],[34.95839,29.36897]],[[34.93672,29.25786],[34.93723,29.25785],[34.93722,29.2574],[34.93671,29.25741],[34.93672,29.25786]]]}}]}