{
"type": "FeatureCollection",
"name": "outlets",
"crs": { "type": "name", "properties": { "name": "urn:ogc:def:crs:OGC:1.3:CRS84" } },
"features": [
{ "type": "Feature", "properties": { "outlet_id": "AQ-O01", "catchment_id": "AQ-C01", "upstream_km2": 4453.08, "provisional": false, "method": "max flow accumulation at the sea edge", "position_confidence": "high", "imagery_note": "engineered Wadi Yutum flood channel, mouth at the shoreline", "lon": 34.97073, "lat": 29.5456, "caveat": "Engineered Wadi Yutum flood channel; mouth verified against imagery at the shoreline. Catchment area carries ±4% from separating endorheic basins from DEM artifacts.", "culverts_within_2500m": 2, "nearest_culvert_m": 2138, "culvert_verdict": "none needed — DEM and OSM agree on the drainage lines", "unmodelled_coastal_culverts": 0 }, "geometry": { "type": "Point", "coordinates": [ 34.970726109302433, 29.545600367663617 ] } },
{ "type": "Feature", "properties": { "outlet_id": "AQ-O02", "catchment_id": "AQ-C02", "upstream_km2": 64.85, "provisional": false, "method": "max flow accumulation at the sea edge", "position_confidence": "low", "imagery_note": "routes through the container terminal and reclaimed land", "lon": 34.97643, "lat": 29.4727, "caveat": "Routed channel crosses the container terminal and reclaimed land, which GLO-30 represents as solid surface. Mouth position uncertain to several hundred metres.", "culverts_within_2500m": 3, "nearest_culvert_m": 312, "culvert_verdict": "CANDIDATE CORRECTION — unmodelled path to the sea", "unmodelled_coastal_culverts": 2 }, "geometry": { "type": "Point", "coordinates": [ 34.9764287822941, 29.472704083773259 ] } },
{ "type": "Feature", "properties": { "outlet_id": "AQ-O03", "catchment_id": "AQ-C03", "upstream_km2": 59.9, "provisional": false, "method": "max flow accumulation at the sea edge", "position_confidence": "low", "imagery_note": "follows a road corridor between tank farms, lands on a jetty", "lon": 34.96416, "lat": 29.38167, "caveat": "Routed channel follows a road corridor between oil storage tank farms and terminates on a tanker jetty rather than a wadi mouth. Mouth position uncertain.", "culverts_within_2500m": 1, "nearest_culvert_m": 829, "culvert_verdict": "CANDIDATE CORRECTION — unmodelled path to the sea", "unmodelled_coastal_culverts": 1 }, "geometry": { "type": "Point", "coordinates": [ 34.964158528206084, 29.381667031578097 ] } },
{ "type": "Feature", "properties": { "outlet_id": "AQ-O04", "catchment_id": "AQ-C04", "upstream_km2": 42.67, "provisional": false, "method": "max flow accumulation at the sea edge", "position_confidence": "low", "imagery_note": "DISCHARGES INTO AN ENCLOSED HARBOUR - plume will not disperse as modelled; do not demo without stating this", "lon": 34.96622, "lat": 29.36052, "caveat": "Discharges into an enclosed harbour basin; sediment released here settles in the basin rather than dispersing into the Gulf. A particle simulation from this coordinate will produce a confidently wrong plume. Do not demo without stating this.", "culverts_within_2500m": 2, "nearest_culvert_m": 793, "culvert_verdict": "none needed — DEM and OSM agree on the drainage lines", "unmodelled_coastal_culverts": 0 }, "geometry": { "type": "Point", "coordinates": [ 34.966224487569008, 29.360523473481059 ] } },
{ "type": "Feature", "properties": { "outlet_id": "AQ-O05", "catchment_id": "AQ-C05", "upstream_km2": 35.64, "provisional": false, "method": "max flow accumulation at the sea edge", "position_confidence": "high", "imagery_note": "natural braided wadi bed, mouth at the shore, reef offshore", "lon": 34.95998, "lat": 29.35737, "caveat": "Natural braided wadi bed, mouth verified at the shore with fringing reef immediately offshore.", "culverts_within_2500m": 2, "nearest_culvert_m": 243, "culvert_verdict": "none needed — DEM and OSM agree on the drainage lines", "unmodelled_coastal_culverts": 0 }, "geometry": { "type": "Point", "coordinates": [ 34.959984191148109, 29.357367163258573 ] } }
]
}
